{
"type": "FeatureCollection",
"name": "LRgrid_epsg6339",
"crs": { "type": "name", "properties": { "name": "urn:ogc:def:crs:EPSG::6339" } },
"features": [
{ "type": "Feature", "properties": { "id": 1, "left": -123.568, "top": 48.151643667999998, "right": -123.563, "bottom": 48.146643667999996 }, "geometry": { "type": "Polygon", "coordinates": [ [ [ 457754.148572975420393, 5333311.00006464868784 ], [ 458126.029763686528895, 5333308.265841116197407 ], [ 458121.961952468904201, 5332752.525020631961524 ], [ 457750.044633565179538, 5332755.259296061471105 ], [ 457754.148572975420393, 5333311.00006464868784 ] ] ] } },
{ "type": "Feature", "properties": { "id": 2, "left": -123.568, "top": 48.146643667999996, "right": -123.563, "bottom": 48.141643667999993 }, "geometry": { "type": "Polygon", "coordinates": [ [ [ 457750.044633565179538, 5332755.259296061471105 ], [ 458121.961952468904201, 5332752.525020631961524 ], [ 458117.89446274767397, 5332196.784681340679526 ], [ 457745.941018506127875, 5332199.519008583389223 ], [ 457750.044633565179538, 5332755.259296061471105 ] ] ] } },
{ "type": "Feature", "properties": { "id": 3, "left": -123.568, "top": 48.141643668, "right": -123.563, "bottom": 48.136643667999998 }, "geometry": { "type": "Polygon", "coordinates": [ [ [ 457745.941018506127875, 5332199.519008583389223 ], [ 458117.89446274767397, 5332196.784681340679526 ], [ 458113.827294553455431, 5331641.044823249801993 ], [ 457741.837727829115465, 5331643.779202223755419 ], [ 457745.941018506127875, 5332199.519008583389223 ] ] ] } },
{ "type": "Feature", "properties": { "id": 4, "left": -123.568, "top": 48.136643667999998, "right": -123.563, "bottom": 48.131643667999995 }, "geometry": { "type": "Polygon", "coordinates": [ [ [ 457741.837727829115465, 5331643.779202223755419 ], [ 458113.827294553455431, 5331641.044823249801993 ], [ 458109.760447916632984, 5331085.305446368642151 ], [ 457737.734761564759538, 5331088.039876990020275 ], [ 457741.837727829115465, 5331643.779202223755419 ] ] ] } },
{ "type": "Feature", "properties": { "id": 5, "left": -123.568, "top": 48.131643667999995, "right": -123.563, "bottom": 48.126643667999993 }, "geometry": { "type": "Polygon", "coordinates": [ [ [ 457737.734761564759538, 5331088.039876990020275 ], [ 458109.760447916632984, 5331085.305446368642151 ], [ 458105.693922867707442, 5330529.566550706513226 ], [ 457733.632119743851945, 5330532.301032891497016 ], [ 457737.734761564759538, 5331088.039876990020275 ] ] ] } },
{ "type": "Feature", "properties": { "id": 6, "left": -123.568, "top": 48.126643668, "right": -123.563, "bottom": 48.121643667999997 }, "geometry": { "type": "Polygon", "coordinates": [ [ [ 457733.632119743851945, 5330532.301032891497016 ], [ 458105.693922867707442, 5330529.566550706513226 ], [ 458101.627719437179621, 5329973.828136269003153 ], [ 457729.52980239718454, 5329976.562669935636222 ], [ 457733.632119743851945, 5330532.301032891497016 ] ] ] } },
{ "type": "Feature", "properties": { "id": 7, "left": -123.568, "top": 48.121643667999997, "right": -123.563, "bottom": 48.116643667999995 }, "geometry": { "type": "Polygon", "coordinates": [ [ [ 457729.52980239718454, 5329976.562669935636222 ], [ 458101.627719437179621, 5329973.828136269003153 ], [ 458097.561837655550335, 5329418.090203068219125 ], [ 457725.427809555549175, 5329420.824788132682443 ], [ 457729.52980239718454, 5329976.562669935636222 ] ] ] } },
{ "type": "Feature", "properties": { "id": 8, "left": -123.568, "top": 48.116643668000002, "right": -123.563, "bottom": 48.111643668 }, "geometry": { "type": "Polygon", "coordinates": [ [ [ 457725.427809555549175, 5329420.824788132682443 ], [ 458097.561837655550335, 5329418.090203068219125 ], [ 458093.496277553203981, 5328862.352751111611724 ], [ 457721.326141249563079, 5328865.087387488223612 ], [ 457725.427809555549175, 5329420.824788132682443 ] ] ] } },
{ "type": "Feature", "properties": { "id": 9, "left": -123.568, "top": 48.111643668, "right": -123.563, "bottom": 48.106643667999997 }, "geometry": { "type": "Polygon", "coordinates": [ [ [ 457721.326141249563079, 5328865.087387488223612 ], [ 458093.496277553203981, 5328862.352751111611724 ], [ 458089.431039160699584, 5328306.615780405700207 ], [ 457717.224797510018107, 5328309.35046801250428 ], [ 457721.326141249563079, 5328865.087387488223612 ] ] ] } },
{ "type": "Feature", "properties": { "id": 10, "left": -123.568, "top": 48.106643667999997, "right": -123.563, "bottom": 48.101643667999994 }, "geometry": { "type": "Polygon", "coordinates": [ [ [ 457717.224797510018107, 5328309.35046801250428 ], [ 458089.431039160699584, 5328306.615780405700207 ], [ 458085.366122508479748, 5327750.879290962591767 ], [ 457713.123778367706109, 5327753.614029717631638 ], [ 457717.224797510018107, 5328309.35046801250428 ] ] ] } },
{ "type": "Feature", "properties": { "id": 11, "left": -123.568, "top": 48.101643668000001, "right": -123.563, "bottom": 48.096643668 }, "geometry": { "type": "Polygon", "coordinates": [ [ [ 457713.123778367706109, 5327753.614029717631638 ], [ 458085.366122508479748, 5327750.879290962591767 ], [ 458081.301527627045289, 5327195.143282786943018 ], [ 457709.023083853302523, 5327197.878072605468333 ], [ 457713.123778367706109, 5327753.614029717631638 ] ] ] } },
{ "type": "Feature", "properties": { "id": 12, "left": -123.568, "top": 48.096643668, "right": -123.563, "bottom": 48.091643667999996 }, "geometry": { "type": "Polygon", "coordinates": [ [ [ 457709.023083853302523, 5327197.878072605468333 ], [ 458081.301527627045289, 5327195.143282786943018 ], [ 458077.237254546780605, 5326639.407755888998508 ], [ 457704.922713997599203, 5326642.142596687190235 ], [ 457709.023083853302523, 5327197.878072605468333 ] ] ] } },
{ "type": "Feature", "properties": { "id": 13, "left": -123.563, "top": 48.151643667999998, "right": -123.558, "bottom": 48.146643667999996 }, "geometry": { "type": "Polygon", "coordinates": [ [ [ 458126.029763686528895, 5333308.265841116197407 ], [ 458497.910988999530673, 5333305.555794162675738 ], [ 458493.879305922309868, 5332749.814922238700092 ], [ 458121.961952468904201, 5332752.525020631961524 ], [ 458126.029763686528895, 5333308.265841116197407 ] ] ] } },
{ "type": "Feature", "properties": { "id": 14, "left": -123.563, "top": 48.146643667999996, "right": -123.558, "bottom": 48.141643667999993 }, "geometry": { "type": "Polygon", "coordinates": [ [ [ 458121.961952468904201, 5332752.525020631961524 ], [ 458493.879305922309868, 5332749.814922238700092 ], [ 458489.847941486805212, 5332194.074531592428684 ], [ 458117.89446274767397, 5332196.784681340679526 ], [ 458121.961952468904201, 5332752.525020631961524 ] ] ] } },
{ "type": "Feature", "properties": { "id": 15, "left": -123.563, "top": 48.141643668, "right": -123.558, "bottom": 48.136643667999998 }, "geometry": { "type": "Polygon", "coordinates": [ [ [ 458117.89446274767397, 5332196.784681340679526 ], [ 458489.847941486805212, 5332194.074531592428684 ], [ 458485.81689572322648, 5331638.334622229449451 ], [ 458113.827294553455431, 5331641.044823249801993 ], [ 458117.89446274767397, 5332196.784681340679526 ] ] ] } },
{ "type": "Feature", "properties": { "id": 16, "left": -123.563, "top": 48.136643667999998, "right": -123.558, "bottom": 48.131643667999995 }, "geometry": { "type": "Polygon", "coordinates": [ [ [ 458113.827294553455431, 5331641.044823249801993 ], [ 458485.81689572322648, 5331638.334622229449451 ], [ 458481.786168661725242, 5331082.595194158144295 ], [ 458109.760447916632984, 5331085.305446368642151 ], [ 458113.827294553455431, 5331641.044823249801993 ] ] ] } },
{ "type": "Feature", "properties": { "id": 17, "left": -123.563, "top": 48.131643667999995, "right": -123.558, "bottom": 48.126643667999993 }, "geometry": { "type": "Polygon", "coordinates": [ [ [ 458109.760447916632984, 5331085.305446368642151 ], [ 458481.786168661725242, 5331082.595194158144295 ], [ 458477.75576033256948, 5330526.856247388757765 ], [ 458105.693922867707442, 5330529.566550706513226 ], [ 458109.760447916632984, 5331085.305446368642151 ] ] ] } },
{ "type": "Feature", "properties": { "id": 18, "left": -123.563, "top": 48.126643668, "right": -123.558, "bottom": 48.121643667999997 }, "geometry": { "type": "Polygon", "coordinates": [ [ [ 458105.693922867707442, 5330529.566550706513226 ], [ 458477.75576033256948, 5330526.856247388757765 ], [ 458473.725670766027179, 5329971.117781926877797 ], [ 458101.627719437179621, 5329973.828136269003153 ], [ 458105.693922867707442, 5330529.566550706513226 ] ] ] } },
{ "type": "Feature", "properties": { "id": 19, "left": -123.563, "top": 48.121643667999997, "right": -123.558, "bottom": 48.116643667999995 }, "geometry": { "type": "Polygon", "coordinates": [ [ [ 458101.627719437179621, 5329973.828136269003153 ], [ 458473.725670766027179, 5329971.117781926877797 ], [ 458469.695899992191698, 5329415.37979778368026 ], [ 458097.561837655550335, 5329418.090203068219125 ], [ 458101.627719437179621, 5329973.828136269003153 ] ] ] } },
{ "type": "Feature", "properties": { "id": 20, "left": -123.563, "top": 48.116643668000002, "right": -123.558, "bottom": 48.111643668 }, "geometry": { "type": "Polygon", "coordinates": [ [ [ 458097.561837655550335, 5329418.090203068219125 ], [ 458469.695899992191698, 5329415.37979778368026 ], [ 458465.666448041331023, 5328859.642294966615736 ], [ 458093.496277553203981, 5328862.352751111611724 ], [ 458097.561837655550335, 5329418.090203068219125 ] ] ] } },
{ "type": "Feature", "properties": { "id": 21, "left": -123.563, "top": 48.111643668, "right": -123.558, "bottom": 48.106643667999997 }, "geometry": { "type": "Polygon", "coordinates": [ [ [ 458093.496277553203981, 5328862.352751111611724 ], [ 458465.666448041331023, 5328859.642294966615736 ], [ 458461.637314943596721, 5328303.905273484066129 ], [ 458089.431039160699584, 5328306.615780405700207 ], [ 458093.496277553203981, 5328862.352751111611724 ] ] ] } },
{ "type": "Feature", "properties": { "id": 22, "left": -123.563, "top": 48.106643667999997, "right": -123.558, "bottom": 48.101643667999994 }, "geometry": { "type": "Polygon", "coordinates": [ [ [ 458089.431039160699584, 5328306.615780405700207 ], [ 458461.637314943596721, 5328303.905273484066129 ], [ 458457.608500729256775, 5327748.168733345344663 ], [ 458085.366122508479748, 5327750.879290962591767 ], [ 458089.431039160699584, 5328306.615780405700207 ] ] ] } },
{ "type": "Feature", "properties": { "id": 23, "left": -123.563, "top": 48.101643668000001, "right": -123.558, "bottom": 48.096643668 }, "geometry": { "type": "Polygon", "coordinates": [ [ [ 458085.366122508479748, 5327750.879290962591767 ], [ 458457.608500729256775, 5327748.168733345344663 ], [ 458453.580005428462755, 5327192.432674557901919 ], [ 458081.301527627045289, 5327195.143282786943018 ], [ 458085.366122508479748, 5327750.879290962591767 ] ] ] } },
{ "type": "Feature", "properties": { "id": 24, "left": -123.563, "top": 48.096643668, "right": -123.558, "bottom": 48.091643667999996 }, "geometry": { "type": "Polygon", "coordinates": [ [ [ 458081.301527627045289, 5327195.143282786943018 ], [ 458453.580005428462755, 5327192.432674557901919 ], [ 458449.551829071366228, 5326636.697097131051123 ], [ 458077.237254546780605, 5326639.407755888998508 ], [ 458081.301527627045289, 5327195.143282786943018 ] ] ] } },
{ "type": "Feature", "properties": { "id": 25, "left": -123.558, "top": 48.151643667999998, "right": -123.553, "bottom": 48.146643667999996 }, "geometry": { "type": "Polygon", "coordinates": [ [ [ 458497.910988999530673, 5333305.555794162675738 ], [ 458869.792248606740031, 5333302.86992375086993 ], [ 458865.79669361829292, 5332747.129000850021839 ], [ 458493.879305922309868, 5332749.814922238700092 ], [ 458497.910988999530673, 5333305.555794162675738 ] ] ] } },
{ "type": "Feature", "properties": { "id": 26, "left": -123.558, "top": 48.146643667999996, "right": -123.553, "bottom": 48.141643667999993 }, "geometry": { "type": "Polygon", "coordinates": [ [ [ 458493.879305922309868, 5332749.814922238700092 ], [ 458865.79669361829292, 5332747.129000850021839 ], [ 458861.801454416767228, 5332191.388559306040406 ], [ 458489.847941486805212, 5332194.074531592428684 ], [ 458493.879305922309868, 5332749.814922238700092 ] ] ] } },
{ "type": "Feature", "properties": { "id": 27, "left": -123.558, "top": 48.141643668, "right": -123.553, "bottom": 48.136643667999998 }, "geometry": { "type": "Polygon", "coordinates": [ [ [ 458489.847941486805212, 5332194.074531592428684 ], [ 458861.801454416767228, 5332191.388559306040406 ], [ 458857.806531032139901, 5331635.648599128238857 ], [ 458485.81689572322648, 5331638.334622229449451 ], [ 458489.847941486805212, 5332194.074531592428684 ] ] ] } },
{ "type": "Feature", "properties": { "id": 28, "left": -123.558, "top": 48.136643667999998, "right": -123.553, "bottom": 48.131643667999995 }, "geometry": { "type": "Polygon", "coordinates": [ [ [ 458485.81689572322648, 5331638.334622229449451 ], [ 458857.806531032139901, 5331635.648599128238857 ], [ 458853.811923494271468, 5331079.909120323136449 ], [ 458481.786168661725242, 5331082.595194158144295 ], [ 458485.81689572322648, 5331638.334622229449451 ] ] ] } },
{ "type": "Feature", "properties": { "id": 29, "left": -123.558, "top": 48.131643667999995, "right": -123.553, "bottom": 48.126643667999993 }, "geometry": { "type": "Polygon", "coordinates": [ [ [ 458481.786168661725242, 5331082.595194158144295 ], [ 458853.811923494271468, 5331079.909120323136449 ], [ 458849.817631833255291, 5330524.170122900977731 ], [ 458477.75576033256948, 5330526.856247388757765 ], [ 458481.786168661725242, 5331082.595194158144295 ] ] ] } },
{ "type": "Feature", "properties": { "id": 30, "left": -123.558, "top": 48.126643668, "right": -123.553, "bottom": 48.121643667999997 }, "geometry": { "type": "Polygon", "coordinates": [ [ [ 458477.75576033256948, 5330526.856247388757765 ], [ 458849.817631833255291, 5330524.170122900977731 ], [ 458845.823656078835484, 5329968.431606870144606 ], [ 458473.725670766027179, 5329971.117781926877797 ], [ 458477.75576033256948, 5330526.856247388757765 ] ] ] } },
{ "type": "Feature", "properties": { "id": 31, "left": -123.558, "top": 48.121643667999997, "right": -123.553, "bottom": 48.116643667999995 }, "geometry": { "type": "Polygon", "coordinates": [ [ [ 458473.725670766027179, 5329971.117781926877797 ], [ 458845.823656078835484, 5329968.431606870144606 ], [ 458841.829996261105407, 5329412.693572239950299 ], [ 458469.695899992191698, 5329415.37979778368026 ], [ 458473.725670766027179, 5329971.117781926877797 ] ] ] } },
{ "type": "Feature", "properties": { "id": 32, "left": -123.558, "top": 48.116643668000002, "right": -123.553, "bottom": 48.111643668 }, "geometry": { "type": "Polygon", "coordinates": [ [ [ 458469.695899992191698, 5329415.37979778368026 ], [ 458841.829996261105407, 5329412.693572239950299 ], [ 458837.836652409925591, 5328856.956019017845392 ], [ 458465.666448041331023, 5328859.642294966615736 ], [ 458469.695899992191698, 5329415.37979778368026 ] ] ] } },
{ "type": "Feature", "properties": { "id": 33, "left": -123.558, "top": 48.111643668, "right": -123.553, "bottom": 48.106643667999997 }, "geometry": { "type": "Polygon", "coordinates": [ [ [ 458465.666448041331023, 5328859.642294966615736 ], [ 458837.836652409925591, 5328856.956019017845392 ], [ 458833.843624555214774, 5328301.218947211280465 ], [ 458461.637314943596721, 5328303.905273484066129 ], [ 458465.666448041331023, 5328859.642294966615736 ] ] ] } },
{ "type": "Feature", "properties": { "id": 34, "left": -123.558, "top": 48.106643667999997, "right": -123.553, "bottom": 48.101643667999994 }, "geometry": { "type": "Polygon", "coordinates": [ [ [ 458461.637314943596721, 5328303.905273484066129 ], [ 458833.843624555214774, 5328301.218947211280465 ], [ 458829.8509127269499, 5327745.482356831431389 ], [ 458457.608500729256775, 5327748.168733345344663 ], [ 458461.637314943596721, 5328303.905273484066129 ] ] ] } },
{ "type": "Feature", "properties": { "id": 35, "left": -123.558, "top": 48.101643668000001, "right": -123.553, "bottom": 48.096643668 }, "geometry": { "type": "Polygon", "coordinates": [ [ [ 458457.608500729256775, 5327748.168733345344663 ], [ 458829.8509127269499, 5327745.482356831431389 ], [ 458825.858516955049708, 5327189.746247883886099 ], [ 458453.580005428462755, 5327192.432674557901919 ], [ 458457.608500729256775, 5327748.168733345344663 ] ] ] } },
{ "type": "Feature", "properties": { "id": 36, "left": -123.558, "top": 48.096643668, "right": -123.553, "bottom": 48.091643667999996 }, "geometry": { "type": "Polygon", "coordinates": [ [ [ 458453.580005428462755, 5327192.432674557901919 ], [ 458825.858516955049708, 5327189.746247883886099 ], [ 458821.866437269374728, 5326634.010620378889143 ], [ 458449.551829071366228, 5326636.697097131051123 ], [ 458453.580005428462755, 5327192.432674557901919 ] ] ] } },
{ "type": "Feature", "properties": { "id": 37, "left": -123.553, "top": 48.151643667999998, "right": -123.548, "bottom": 48.146643667999996 }, "geometry": { "type": "Polygon", "coordinates": [ [ [ 458869.792248606740031, 5333302.86992375086993 ], [ 459241.673542200529482, 5333300.208229848183692 ], [ 459237.714115249691531, 5332744.467256427742541 ], [ 458865.79669361829292, 5332747.129000850021839 ], [ 458869.792248606740031, 5333302.86992375086993 ] ] ] } },
{ "type": "Feature", "properties": { "id": 38, "left": -123.553, "top": 48.146643667999996, "right": -123.548, "bottom": 48.141643667999993 }, "geometry": { "type": "Polygon", "coordinates": [ [ [ 458865.79669361829292, 5332747.129000850021839 ], [ 459237.714115249691531, 5332744.467256427742541 ], [ 459233.755001230922062, 5332188.726764445193112 ], [ 458861.801454416767228, 5332191.388559306040406 ], [ 458865.79669361829292, 5332747.129000850021839 ] ] ] } },
{ "type": "Feature", "properties": { "id": 39, "left": -123.553, "top": 48.141643668, "right": -123.548, "bottom": 48.136643667999998 }, "geometry": { "type": "Polygon", "coordinates": [ [ [ 458861.801454416767228, 5332191.388559306040406 ], [ 459233.755001230922062, 5332188.726764445193112 ], [ 459229.796200174023397, 5331632.98675390984863 ], [ 458857.806531032139901, 5331635.648599128238857 ], [ 458861.801454416767228, 5332191.388559306040406 ] ] ] } },
{ "type": "Feature", "properties": { "id": 40, "left": -123.553, "top": 48.136643667999998, "right": -123.548, "bottom": 48.131643667999995 }, "geometry": { "type": "Polygon", "coordinates": [ [ [ 458857.806531032139901, 5331635.648599128238857 ], [ 459229.796200174023397, 5331632.98675390984863 ], [ 459225.837712108623236, 5331077.247224830091 ], [ 458853.811923494271468, 5331079.909120323136449 ], [ 458857.806531032139901, 5331635.648599128238857 ] ] ] } },
{ "type": "Feature", "properties": { "id": 41, "left": -123.553, "top": 48.131643667999995, "right": -123.548, "bottom": 48.126643667999993 }, "geometry": { "type": "Polygon", "coordinates": [ [ [ 458853.811923494271468, 5331079.909120323136449 ], [ 459225.837712108623236, 5331077.247224830091 ], [ 459221.879537064349279, 5330521.5081772133708 ], [ 458849.817631833255291, 5330524.170122900977731 ], [ 458853.811923494271468, 5331079.909120323136449 ] ] ] } },
{ "type": "Feature", "properties": { "id": 42, "left": -123.553, "top": 48.126643668, "right": -123.548, "bottom": 48.121643667999997 }, "geometry": { "type": "Polygon", "coordinates": [ [ [ 458849.817631833255291, 5330524.170122900977731 ], [ 459221.879537064349279, 5330521.5081772133708 ], [ 459217.921675070887432, 5329965.769611068069935 ], [ 458845.823656078835484, 5329968.431606870144606 ], [ 458849.817631833255291, 5330524.170122900977731 ] ] ] } },
{ "type": "Feature", "properties": { "id": 43, "left": -123.553, "top": 48.121643667999997, "right": -123.548, "bottom": 48.116643667999995 }, "geometry": { "type": "Polygon", "coordinates": [ [ [ 458845.823656078835484, 5329968.431606870144606 ], [ 459217.921675070887432, 5329965.769611068069935 ], [ 459213.964126157981809, 5329410.031526405364275 ], [ 458841.829996261105407, 5329412.693572239950299 ], [ 458845.823656078835484, 5329968.431606870144606 ] ] ] } },
{ "type": "Feature", "properties": { "id": 44, "left": -123.553, "top": 48.116643668000002, "right": -123.548, "bottom": 48.111643668 }, "geometry": { "type": "Polygon", "coordinates": [ [ [ 458841.829996261105407, 5329412.693572239950299 ], [ 459213.964126157981809, 5329410.031526405364275 ], [ 459210.006890355201904, 5328854.293923231773078 ], [ 458837.836652409925591, 5328856.956019017845392 ], [ 458841.829996261105407, 5329412.693572239950299 ] ] ] } },
{ "type": "Feature", "properties": { "id": 45, "left": -123.553, "top": 48.111643668, "right": -123.548, "bottom": 48.106643667999997 }, "geometry": { "type": "Polygon", "coordinates": [ [ [ 458837.836652409925591, 5328856.956019017845392 ], [ 459210.006890355201904, 5328854.293923231773078 ], [ 459206.049967692233622, 5328298.556801554746926 ], [ 458833.843624555214774, 5328301.218947211280465 ], [ 458837.836652409925591, 5328856.956019017845392 ] ] ] } },
{ "type": "Feature", "properties": { "id": 46, "left": -123.553, "top": 48.106643667999997, "right": -123.548, "bottom": 48.101643667999994 }, "geometry": { "type": "Polygon", "coordinates": [ [ [ 458833.843624555214774, 5328301.218947211280465 ], [ 459206.049967692233622, 5328298.556801554746926 ], [ 459202.093358198762871, 5327742.820161385461688 ], [ 458829.8509127269499, 5327745.482356831431389 ], [ 458833.843624555214774, 5328301.218947211280465 ] ] ] } },
{ "type": "Feature", "properties": { "id": 47, "left": -123.553, "top": 48.101643668000001, "right": -123.548, "bottom": 48.096643668 }, "geometry": { "type": "Polygon", "coordinates": [ [ [ 458829.8509127269499, 5327745.482356831431389 ], [ 459202.093358198762871, 5327742.820161385461688 ], [ 459198.137061904417351, 5327187.084002729505301 ], [ 458825.858516955049708, 5327189.746247883886099 ], [ 458829.8509127269499, 5327745.482356831431389 ] ] ] } },
{ "type": "Feature", "properties": { "id": 48, "left": -123.553, "top": 48.096643668, "right": -123.548, "bottom": 48.091643667999996 }, "geometry": { "type": "Polygon", "coordinates": [ [ [ 458825.858516955049708, 5327189.746247883886099 ], [ 459198.137061904417351, 5327187.084002729505301 ], [ 459194.18107883882476, 5326631.348325597122312 ], [ 458821.866437269374728, 5326634.010620378889143 ], [ 458825.858516955049708, 5327189.746247883886099 ] ] ] } }
]
}
