{
"type": "FeatureCollection",
"name": "grid",
"crs": { "type": "name", "properties": { "name": "urn:ogc:def:crs:EPSG::4759" } },
"features": [
{ "type": "Feature", "properties": { "id": 1, "left": -123.60115417599999, "top": 48.065649575999998, "right": -123.596154176, "bottom": 48.060649575999996 }, "geometry": { "type": "Polygon", "coordinates": [ [ [ -123.601154176, 48.065649576 ], [ -123.596154176, 48.065649576 ], [ -123.596154176, 48.060649576 ], [ -123.601154176, 48.060649576 ], [ -123.601154176, 48.065649576 ] ] ] } },
{ "type": "Feature", "properties": { "id": 2, "left": -123.60115417599999, "top": 48.060649575999996, "right": -123.596154176, "bottom": 48.055649575999993 }, "geometry": { "type": "Polygon", "coordinates": [ [ [ -123.601154176, 48.060649576 ], [ -123.596154176, 48.060649576 ], [ -123.596154176, 48.055649576 ], [ -123.601154176, 48.055649576 ], [ -123.601154176, 48.060649576 ] ] ] } },
{ "type": "Feature", "properties": { "id": 3, "left": -123.60115417599999, "top": 48.055649576, "right": -123.596154176, "bottom": 48.050649575999998 }, "geometry": { "type": "Polygon", "coordinates": [ [ [ -123.601154176, 48.055649576 ], [ -123.596154176, 48.055649576 ], [ -123.596154176, 48.050649576 ], [ -123.601154176, 48.050649576 ], [ -123.601154176, 48.055649576 ] ] ] } },
{ "type": "Feature", "properties": { "id": 4, "left": -123.60115417599999, "top": 48.050649575999998, "right": -123.596154176, "bottom": 48.045649575999995 }, "geometry": { "type": "Polygon", "coordinates": [ [ [ -123.601154176, 48.050649576 ], [ -123.596154176, 48.050649576 ], [ -123.596154176, 48.045649576 ], [ -123.601154176, 48.045649576 ], [ -123.601154176, 48.050649576 ] ] ] } },
{ "type": "Feature", "properties": { "id": 5, "left": -123.60115417599999, "top": 48.045649575999995, "right": -123.596154176, "bottom": 48.040649575999993 }, "geometry": { "type": "Polygon", "coordinates": [ [ [ -123.601154176, 48.045649576 ], [ -123.596154176, 48.045649576 ], [ -123.596154176, 48.040649576 ], [ -123.601154176, 48.040649576 ], [ -123.601154176, 48.045649576 ] ] ] } },
{ "type": "Feature", "properties": { "id": 6, "left": -123.60115417599999, "top": 48.040649576, "right": -123.596154176, "bottom": 48.035649575999997 }, "geometry": { "type": "Polygon", "coordinates": [ [ [ -123.601154176, 48.040649576 ], [ -123.596154176, 48.040649576 ], [ -123.596154176, 48.035649576 ], [ -123.601154176, 48.035649576 ], [ -123.601154176, 48.040649576 ] ] ] } },
{ "type": "Feature", "properties": { "id": 7, "left": -123.60115417599999, "top": 48.035649575999997, "right": -123.596154176, "bottom": 48.030649575999995 }, "geometry": { "type": "Polygon", "coordinates": [ [ [ -123.601154176, 48.035649576 ], [ -123.596154176, 48.035649576 ], [ -123.596154176, 48.030649576 ], [ -123.601154176, 48.030649576 ], [ -123.601154176, 48.035649576 ] ] ] } },
{ "type": "Feature", "properties": { "id": 8, "left": -123.60115417599999, "top": 48.030649576000002, "right": -123.596154176, "bottom": 48.025649576 }, "geometry": { "type": "Polygon", "coordinates": [ [ [ -123.601154176, 48.030649576 ], [ -123.596154176, 48.030649576 ], [ -123.596154176, 48.025649576 ], [ -123.601154176, 48.025649576 ], [ -123.601154176, 48.030649576 ] ] ] } },
{ "type": "Feature", "properties": { "id": 9, "left": -123.60115417599999, "top": 48.025649576, "right": -123.596154176, "bottom": 48.020649575999997 }, "geometry": { "type": "Polygon", "coordinates": [ [ [ -123.601154176, 48.025649576 ], [ -123.596154176, 48.025649576 ], [ -123.596154176, 48.020649576 ], [ -123.601154176, 48.020649576 ], [ -123.601154176, 48.025649576 ] ] ] } },
{ "type": "Feature", "properties": { "id": 10, "left": -123.60115417599999, "top": 48.020649575999997, "right": -123.596154176, "bottom": 48.015649575999994 }, "geometry": { "type": "Polygon", "coordinates": [ [ [ -123.601154176, 48.020649576 ], [ -123.596154176, 48.020649576 ], [ -123.596154176, 48.015649576 ], [ -123.601154176, 48.015649576 ], [ -123.601154176, 48.020649576 ] ] ] } },
{ "type": "Feature", "properties": { "id": 11, "left": -123.60115417599999, "top": 48.015649576000001, "right": -123.596154176, "bottom": 48.010649576 }, "geometry": { "type": "Polygon", "coordinates": [ [ [ -123.601154176, 48.015649576 ], [ -123.596154176, 48.015649576 ], [ -123.596154176, 48.010649576 ], [ -123.601154176, 48.010649576 ], [ -123.601154176, 48.015649576 ] ] ] } },
{ "type": "Feature", "properties": { "id": 12, "left": -123.60115417599999, "top": 48.010649576, "right": -123.596154176, "bottom": 48.005649575999996 }, "geometry": { "type": "Polygon", "coordinates": [ [ [ -123.601154176, 48.010649576 ], [ -123.596154176, 48.010649576 ], [ -123.596154176, 48.005649576 ], [ -123.601154176, 48.005649576 ], [ -123.601154176, 48.010649576 ] ] ] } },
{ "type": "Feature", "properties": { "id": 13, "left": -123.60115417599999, "top": 48.005649575999996, "right": -123.596154176, "bottom": 48.000649575999994 }, "geometry": { "type": "Polygon", "coordinates": [ [ [ -123.601154176, 48.005649576 ], [ -123.596154176, 48.005649576 ], [ -123.596154176, 48.000649576 ], [ -123.601154176, 48.000649576 ], [ -123.601154176, 48.005649576 ] ] ] } },
{ "type": "Feature", "properties": { "id": 14, "left": -123.596154176, "top": 48.065649575999998, "right": -123.591154176, "bottom": 48.060649575999996 }, "geometry": { "type": "Polygon", "coordinates": [ [ [ -123.596154176, 48.065649576 ], [ -123.591154176, 48.065649576 ], [ -123.591154176, 48.060649576 ], [ -123.596154176, 48.060649576 ], [ -123.596154176, 48.065649576 ] ] ] } },
{ "type": "Feature", "properties": { "id": 15, "left": -123.596154176, "top": 48.060649575999996, "right": -123.591154176, "bottom": 48.055649575999993 }, "geometry": { "type": "Polygon", "coordinates": [ [ [ -123.596154176, 48.060649576 ], [ -123.591154176, 48.060649576 ], [ -123.591154176, 48.055649576 ], [ -123.596154176, 48.055649576 ], [ -123.596154176, 48.060649576 ] ] ] } },
{ "type": "Feature", "properties": { "id": 16, "left": -123.596154176, "top": 48.055649576, "right": -123.591154176, "bottom": 48.050649575999998 }, "geometry": { "type": "Polygon", "coordinates": [ [ [ -123.596154176, 48.055649576 ], [ -123.591154176, 48.055649576 ], [ -123.591154176, 48.050649576 ], [ -123.596154176, 48.050649576 ], [ -123.596154176, 48.055649576 ] ] ] } },
{ "type": "Feature", "properties": { "id": 17, "left": -123.596154176, "top": 48.050649575999998, "right": -123.591154176, "bottom": 48.045649575999995 }, "geometry": { "type": "Polygon", "coordinates": [ [ [ -123.596154176, 48.050649576 ], [ -123.591154176, 48.050649576 ], [ -123.591154176, 48.045649576 ], [ -123.596154176, 48.045649576 ], [ -123.596154176, 48.050649576 ] ] ] } },
{ "type": "Feature", "properties": { "id": 18, "left": -123.596154176, "top": 48.045649575999995, "right": -123.591154176, "bottom": 48.040649575999993 }, "geometry": { "type": "Polygon", "coordinates": [ [ [ -123.596154176, 48.045649576 ], [ -123.591154176, 48.045649576 ], [ -123.591154176, 48.040649576 ], [ -123.596154176, 48.040649576 ], [ -123.596154176, 48.045649576 ] ] ] } },
{ "type": "Feature", "properties": { "id": 19, "left": -123.596154176, "top": 48.040649576, "right": -123.591154176, "bottom": 48.035649575999997 }, "geometry": { "type": "Polygon", "coordinates": [ [ [ -123.596154176, 48.040649576 ], [ -123.591154176, 48.040649576 ], [ -123.591154176, 48.035649576 ], [ -123.596154176, 48.035649576 ], [ -123.596154176, 48.040649576 ] ] ] } },
{ "type": "Feature", "properties": { "id": 20, "left": -123.596154176, "top": 48.035649575999997, "right": -123.591154176, "bottom": 48.030649575999995 }, "geometry": { "type": "Polygon", "coordinates": [ [ [ -123.596154176, 48.035649576 ], [ -123.591154176, 48.035649576 ], [ -123.591154176, 48.030649576 ], [ -123.596154176, 48.030649576 ], [ -123.596154176, 48.035649576 ] ] ] } },
{ "type": "Feature", "properties": { "id": 21, "left": -123.596154176, "top": 48.030649576000002, "right": -123.591154176, "bottom": 48.025649576 }, "geometry": { "type": "Polygon", "coordinates": [ [ [ -123.596154176, 48.030649576 ], [ -123.591154176, 48.030649576 ], [ -123.591154176, 48.025649576 ], [ -123.596154176, 48.025649576 ], [ -123.596154176, 48.030649576 ] ] ] } },
{ "type": "Feature", "properties": { "id": 22, "left": -123.596154176, "top": 48.025649576, "right": -123.591154176, "bottom": 48.020649575999997 }, "geometry": { "type": "Polygon", "coordinates": [ [ [ -123.596154176, 48.025649576 ], [ -123.591154176, 48.025649576 ], [ -123.591154176, 48.020649576 ], [ -123.596154176, 48.020649576 ], [ -123.596154176, 48.025649576 ] ] ] } },
{ "type": "Feature", "properties": { "id": 23, "left": -123.596154176, "top": 48.020649575999997, "right": -123.591154176, "bottom": 48.015649575999994 }, "geometry": { "type": "Polygon", "coordinates": [ [ [ -123.596154176, 48.020649576 ], [ -123.591154176, 48.020649576 ], [ -123.591154176, 48.015649576 ], [ -123.596154176, 48.015649576 ], [ -123.596154176, 48.020649576 ] ] ] } },
{ "type": "Feature", "properties": { "id": 24, "left": -123.596154176, "top": 48.015649576000001, "right": -123.591154176, "bottom": 48.010649576 }, "geometry": { "type": "Polygon", "coordinates": [ [ [ -123.596154176, 48.015649576 ], [ -123.591154176, 48.015649576 ], [ -123.591154176, 48.010649576 ], [ -123.596154176, 48.010649576 ], [ -123.596154176, 48.015649576 ] ] ] } },
{ "type": "Feature", "properties": { "id": 25, "left": -123.596154176, "top": 48.010649576, "right": -123.591154176, "bottom": 48.005649575999996 }, "geometry": { "type": "Polygon", "coordinates": [ [ [ -123.596154176, 48.010649576 ], [ -123.591154176, 48.010649576 ], [ -123.591154176, 48.005649576 ], [ -123.596154176, 48.005649576 ], [ -123.596154176, 48.010649576 ] ] ] } },
{ "type": "Feature", "properties": { "id": 26, "left": -123.596154176, "top": 48.005649575999996, "right": -123.591154176, "bottom": 48.000649575999994 }, "geometry": { "type": "Polygon", "coordinates": [ [ [ -123.596154176, 48.005649576 ], [ -123.591154176, 48.005649576 ], [ -123.591154176, 48.000649576 ], [ -123.596154176, 48.000649576 ], [ -123.596154176, 48.005649576 ] ] ] } },
{ "type": "Feature", "properties": { "id": 27, "left": -123.59115417599999, "top": 48.065649575999998, "right": -123.58615417599999, "bottom": 48.060649575999996 }, "geometry": { "type": "Polygon", "coordinates": [ [ [ -123.591154175999989, 48.065649576 ], [ -123.586154176, 48.065649576 ], [ -123.586154176, 48.060649576 ], [ -123.591154175999989, 48.060649576 ], [ -123.591154175999989, 48.065649576 ] ] ] } },
{ "type": "Feature", "properties": { "id": 28, "left": -123.59115417599999, "top": 48.060649575999996, "right": -123.58615417599999, "bottom": 48.055649575999993 }, "geometry": { "type": "Polygon", "coordinates": [ [ [ -123.591154175999989, 48.060649576 ], [ -123.586154176, 48.060649576 ], [ -123.586154176, 48.055649576 ], [ -123.591154175999989, 48.055649576 ], [ -123.591154175999989, 48.060649576 ] ] ] } },
{ "type": "Feature", "properties": { "id": 29, "left": -123.59115417599999, "top": 48.055649576, "right": -123.58615417599999, "bottom": 48.050649575999998 }, "geometry": { "type": "Polygon", "coordinates": [ [ [ -123.591154175999989, 48.055649576 ], [ -123.586154176, 48.055649576 ], [ -123.586154176, 48.050649576 ], [ -123.591154175999989, 48.050649576 ], [ -123.591154175999989, 48.055649576 ] ] ] } },
{ "type": "Feature", "properties": { "id": 30, "left": -123.59115417599999, "top": 48.050649575999998, "right": -123.58615417599999, "bottom": 48.045649575999995 }, "geometry": { "type": "Polygon", "coordinates": [ [ [ -123.591154175999989, 48.050649576 ], [ -123.586154176, 48.050649576 ], [ -123.586154176, 48.045649576 ], [ -123.591154175999989, 48.045649576 ], [ -123.591154175999989, 48.050649576 ] ] ] } },
{ "type": "Feature", "properties": { "id": 31, "left": -123.59115417599999, "top": 48.045649575999995, "right": -123.58615417599999, "bottom": 48.040649575999993 }, "geometry": { "type": "Polygon", "coordinates": [ [ [ -123.591154175999989, 48.045649576 ], [ -123.586154176, 48.045649576 ], [ -123.586154176, 48.040649576 ], [ -123.591154175999989, 48.040649576 ], [ -123.591154175999989, 48.045649576 ] ] ] } },
{ "type": "Feature", "properties": { "id": 32, "left": -123.59115417599999, "top": 48.040649576, "right": -123.58615417599999, "bottom": 48.035649575999997 }, "geometry": { "type": "Polygon", "coordinates": [ [ [ -123.591154175999989, 48.040649576 ], [ -123.586154176, 48.040649576 ], [ -123.586154176, 48.035649576 ], [ -123.591154175999989, 48.035649576 ], [ -123.591154175999989, 48.040649576 ] ] ] } },
{ "type": "Feature", "properties": { "id": 33, "left": -123.59115417599999, "top": 48.035649575999997, "right": -123.58615417599999, "bottom": 48.030649575999995 }, "geometry": { "type": "Polygon", "coordinates": [ [ [ -123.591154175999989, 48.035649576 ], [ -123.586154176, 48.035649576 ], [ -123.586154176, 48.030649576 ], [ -123.591154175999989, 48.030649576 ], [ -123.591154175999989, 48.035649576 ] ] ] } },
{ "type": "Feature", "properties": { "id": 34, "left": -123.59115417599999, "top": 48.030649576000002, "right": -123.58615417599999, "bottom": 48.025649576 }, "geometry": { "type": "Polygon", "coordinates": [ [ [ -123.591154175999989, 48.030649576 ], [ -123.586154176, 48.030649576 ], [ -123.586154176, 48.025649576 ], [ -123.591154175999989, 48.025649576 ], [ -123.591154175999989, 48.030649576 ] ] ] } },
{ "type": "Feature", "properties": { "id": 35, "left": -123.59115417599999, "top": 48.025649576, "right": -123.58615417599999, "bottom": 48.020649575999997 }, "geometry": { "type": "Polygon", "coordinates": [ [ [ -123.591154175999989, 48.025649576 ], [ -123.586154176, 48.025649576 ], [ -123.586154176, 48.020649576 ], [ -123.591154175999989, 48.020649576 ], [ -123.591154175999989, 48.025649576 ] ] ] } },
{ "type": "Feature", "properties": { "id": 36, "left": -123.59115417599999, "top": 48.020649575999997, "right": -123.58615417599999, "bottom": 48.015649575999994 }, "geometry": { "type": "Polygon", "coordinates": [ [ [ -123.591154175999989, 48.020649576 ], [ -123.586154176, 48.020649576 ], [ -123.586154176, 48.015649576 ], [ -123.591154175999989, 48.015649576 ], [ -123.591154175999989, 48.020649576 ] ] ] } },
{ "type": "Feature", "properties": { "id": 37, "left": -123.59115417599999, "top": 48.015649576000001, "right": -123.58615417599999, "bottom": 48.010649576 }, "geometry": { "type": "Polygon", "coordinates": [ [ [ -123.591154175999989, 48.015649576 ], [ -123.586154176, 48.015649576 ], [ -123.586154176, 48.010649576 ], [ -123.591154175999989, 48.010649576 ], [ -123.591154175999989, 48.015649576 ] ] ] } },
{ "type": "Feature", "properties": { "id": 38, "left": -123.59115417599999, "top": 48.010649576, "right": -123.58615417599999, "bottom": 48.005649575999996 }, "geometry": { "type": "Polygon", "coordinates": [ [ [ -123.591154175999989, 48.010649576 ], [ -123.586154176, 48.010649576 ], [ -123.586154176, 48.005649576 ], [ -123.591154175999989, 48.005649576 ], [ -123.591154175999989, 48.010649576 ] ] ] } },
{ "type": "Feature", "properties": { "id": 39, "left": -123.59115417599999, "top": 48.005649575999996, "right": -123.58615417599999, "bottom": 48.000649575999994 }, "geometry": { "type": "Polygon", "coordinates": [ [ [ -123.591154175999989, 48.005649576 ], [ -123.586154176, 48.005649576 ], [ -123.586154176, 48.000649576 ], [ -123.591154175999989, 48.000649576 ], [ -123.591154175999989, 48.005649576 ] ] ] } },
{ "type": "Feature", "properties": { "id": 40, "left": -123.58615417599999, "top": 48.065649575999998, "right": -123.581154176, "bottom": 48.060649575999996 }, "geometry": { "type": "Polygon", "coordinates": [ [ [ -123.586154176, 48.065649576 ], [ -123.581154176, 48.065649576 ], [ -123.581154176, 48.060649576 ], [ -123.586154176, 48.060649576 ], [ -123.586154176, 48.065649576 ] ] ] } },
{ "type": "Feature", "properties": { "id": 41, "left": -123.58615417599999, "top": 48.060649575999996, "right": -123.581154176, "bottom": 48.055649575999993 }, "geometry": { "type": "Polygon", "coordinates": [ [ [ -123.586154176, 48.060649576 ], [ -123.581154176, 48.060649576 ], [ -123.581154176, 48.055649576 ], [ -123.586154176, 48.055649576 ], [ -123.586154176, 48.060649576 ] ] ] } },
{ "type": "Feature", "properties": { "id": 42, "left": -123.58615417599999, "top": 48.055649576, "right": -123.581154176, "bottom": 48.050649575999998 }, "geometry": { "type": "Polygon", "coordinates": [ [ [ -123.586154176, 48.055649576 ], [ -123.581154176, 48.055649576 ], [ -123.581154176, 48.050649576 ], [ -123.586154176, 48.050649576 ], [ -123.586154176, 48.055649576 ] ] ] } },
{ "type": "Feature", "properties": { "id": 43, "left": -123.58615417599999, "top": 48.050649575999998, "right": -123.581154176, "bottom": 48.045649575999995 }, "geometry": { "type": "Polygon", "coordinates": [ [ [ -123.586154176, 48.050649576 ], [ -123.581154176, 48.050649576 ], [ -123.581154176, 48.045649576 ], [ -123.586154176, 48.045649576 ], [ -123.586154176, 48.050649576 ] ] ] } },
{ "type": "Feature", "properties": { "id": 44, "left": -123.58615417599999, "top": 48.045649575999995, "right": -123.581154176, "bottom": 48.040649575999993 }, "geometry": { "type": "Polygon", "coordinates": [ [ [ -123.586154176, 48.045649576 ], [ -123.581154176, 48.045649576 ], [ -123.581154176, 48.040649576 ], [ -123.586154176, 48.040649576 ], [ -123.586154176, 48.045649576 ] ] ] } },
{ "type": "Feature", "properties": { "id": 45, "left": -123.58615417599999, "top": 48.040649576, "right": -123.581154176, "bottom": 48.035649575999997 }, "geometry": { "type": "Polygon", "coordinates": [ [ [ -123.586154176, 48.040649576 ], [ -123.581154176, 48.040649576 ], [ -123.581154176, 48.035649576 ], [ -123.586154176, 48.035649576 ], [ -123.586154176, 48.040649576 ] ] ] } },
{ "type": "Feature", "properties": { "id": 46, "left": -123.58615417599999, "top": 48.035649575999997, "right": -123.581154176, "bottom": 48.030649575999995 }, "geometry": { "type": "Polygon", "coordinates": [ [ [ -123.586154176, 48.035649576 ], [ -123.581154176, 48.035649576 ], [ -123.581154176, 48.030649576 ], [ -123.586154176, 48.030649576 ], [ -123.586154176, 48.035649576 ] ] ] } },
{ "type": "Feature", "properties": { "id": 47, "left": -123.58615417599999, "top": 48.030649576000002, "right": -123.581154176, "bottom": 48.025649576 }, "geometry": { "type": "Polygon", "coordinates": [ [ [ -123.586154176, 48.030649576 ], [ -123.581154176, 48.030649576 ], [ -123.581154176, 48.025649576 ], [ -123.586154176, 48.025649576 ], [ -123.586154176, 48.030649576 ] ] ] } },
{ "type": "Feature", "properties": { "id": 48, "left": -123.58615417599999, "top": 48.025649576, "right": -123.581154176, "bottom": 48.020649575999997 }, "geometry": { "type": "Polygon", "coordinates": [ [ [ -123.586154176, 48.025649576 ], [ -123.581154176, 48.025649576 ], [ -123.581154176, 48.020649576 ], [ -123.586154176, 48.020649576 ], [ -123.586154176, 48.025649576 ] ] ] } },
{ "type": "Feature", "properties": { "id": 49, "left": -123.58615417599999, "top": 48.020649575999997, "right": -123.581154176, "bottom": 48.015649575999994 }, "geometry": { "type": "Polygon", "coordinates": [ [ [ -123.586154176, 48.020649576 ], [ -123.581154176, 48.020649576 ], [ -123.581154176, 48.015649576 ], [ -123.586154176, 48.015649576 ], [ -123.586154176, 48.020649576 ] ] ] } },
{ "type": "Feature", "properties": { "id": 50, "left": -123.58615417599999, "top": 48.015649576000001, "right": -123.581154176, "bottom": 48.010649576 }, "geometry": { "type": "Polygon", "coordinates": [ [ [ -123.586154176, 48.015649576 ], [ -123.581154176, 48.015649576 ], [ -123.581154176, 48.010649576 ], [ -123.586154176, 48.010649576 ], [ -123.586154176, 48.015649576 ] ] ] } },
{ "type": "Feature", "properties": { "id": 51, "left": -123.58615417599999, "top": 48.010649576, "right": -123.581154176, "bottom": 48.005649575999996 }, "geometry": { "type": "Polygon", "coordinates": [ [ [ -123.586154176, 48.010649576 ], [ -123.581154176, 48.010649576 ], [ -123.581154176, 48.005649576 ], [ -123.586154176, 48.005649576 ], [ -123.586154176, 48.010649576 ] ] ] } },
{ "type": "Feature", "properties": { "id": 52, "left": -123.58615417599999, "top": 48.005649575999996, "right": -123.581154176, "bottom": 48.000649575999994 }, "geometry": { "type": "Polygon", "coordinates": [ [ [ -123.586154176, 48.005649576 ], [ -123.581154176, 48.005649576 ], [ -123.581154176, 48.000649576 ], [ -123.586154176, 48.000649576 ], [ -123.586154176, 48.005649576 ] ] ] } },
{ "type": "Feature", "properties": { "id": 53, "left": -123.581154176, "top": 48.065649575999998, "right": -123.576154176, "bottom": 48.060649575999996 }, "geometry": { "type": "Polygon", "coordinates": [ [ [ -123.581154176, 48.065649576 ], [ -123.576154176, 48.065649576 ], [ -123.576154176, 48.060649576 ], [ -123.581154176, 48.060649576 ], [ -123.581154176, 48.065649576 ] ] ] } },
{ "type": "Feature", "properties": { "id": 54, "left": -123.581154176, "top": 48.060649575999996, "right": -123.576154176, "bottom": 48.055649575999993 }, "geometry": { "type": "Polygon", "coordinates": [ [ [ -123.581154176, 48.060649576 ], [ -123.576154176, 48.060649576 ], [ -123.576154176, 48.055649576 ], [ -123.581154176, 48.055649576 ], [ -123.581154176, 48.060649576 ] ] ] } },
{ "type": "Feature", "properties": { "id": 55, "left": -123.581154176, "top": 48.055649576, "right": -123.576154176, "bottom": 48.050649575999998 }, "geometry": { "type": "Polygon", "coordinates": [ [ [ -123.581154176, 48.055649576 ], [ -123.576154176, 48.055649576 ], [ -123.576154176, 48.050649576 ], [ -123.581154176, 48.050649576 ], [ -123.581154176, 48.055649576 ] ] ] } },
{ "type": "Feature", "properties": { "id": 56, "left": -123.581154176, "top": 48.050649575999998, "right": -123.576154176, "bottom": 48.045649575999995 }, "geometry": { "type": "Polygon", "coordinates": [ [ [ -123.581154176, 48.050649576 ], [ -123.576154176, 48.050649576 ], [ -123.576154176, 48.045649576 ], [ -123.581154176, 48.045649576 ], [ -123.581154176, 48.050649576 ] ] ] } },
{ "type": "Feature", "properties": { "id": 57, "left": -123.581154176, "top": 48.045649575999995, "right": -123.576154176, "bottom": 48.040649575999993 }, "geometry": { "type": "Polygon", "coordinates": [ [ [ -123.581154176, 48.045649576 ], [ -123.576154176, 48.045649576 ], [ -123.576154176, 48.040649576 ], [ -123.581154176, 48.040649576 ], [ -123.581154176, 48.045649576 ] ] ] } },
{ "type": "Feature", "properties": { "id": 58, "left": -123.581154176, "top": 48.040649576, "right": -123.576154176, "bottom": 48.035649575999997 }, "geometry": { "type": "Polygon", "coordinates": [ [ [ -123.581154176, 48.040649576 ], [ -123.576154176, 48.040649576 ], [ -123.576154176, 48.035649576 ], [ -123.581154176, 48.035649576 ], [ -123.581154176, 48.040649576 ] ] ] } },
{ "type": "Feature", "properties": { "id": 59, "left": -123.581154176, "top": 48.035649575999997, "right": -123.576154176, "bottom": 48.030649575999995 }, "geometry": { "type": "Polygon", "coordinates": [ [ [ -123.581154176, 48.035649576 ], [ -123.576154176, 48.035649576 ], [ -123.576154176, 48.030649576 ], [ -123.581154176, 48.030649576 ], [ -123.581154176, 48.035649576 ] ] ] } },
{ "type": "Feature", "properties": { "id": 60, "left": -123.581154176, "top": 48.030649576000002, "right": -123.576154176, "bottom": 48.025649576 }, "geometry": { "type": "Polygon", "coordinates": [ [ [ -123.581154176, 48.030649576 ], [ -123.576154176, 48.030649576 ], [ -123.576154176, 48.025649576 ], [ -123.581154176, 48.025649576 ], [ -123.581154176, 48.030649576 ] ] ] } },
{ "type": "Feature", "properties": { "id": 61, "left": -123.581154176, "top": 48.025649576, "right": -123.576154176, "bottom": 48.020649575999997 }, "geometry": { "type": "Polygon", "coordinates": [ [ [ -123.581154176, 48.025649576 ], [ -123.576154176, 48.025649576 ], [ -123.576154176, 48.020649576 ], [ -123.581154176, 48.020649576 ], [ -123.581154176, 48.025649576 ] ] ] } },
{ "type": "Feature", "properties": { "id": 62, "left": -123.581154176, "top": 48.020649575999997, "right": -123.576154176, "bottom": 48.015649575999994 }, "geometry": { "type": "Polygon", "coordinates": [ [ [ -123.581154176, 48.020649576 ], [ -123.576154176, 48.020649576 ], [ -123.576154176, 48.015649576 ], [ -123.581154176, 48.015649576 ], [ -123.581154176, 48.020649576 ] ] ] } },
{ "type": "Feature", "properties": { "id": 63, "left": -123.581154176, "top": 48.015649576000001, "right": -123.576154176, "bottom": 48.010649576 }, "geometry": { "type": "Polygon", "coordinates": [ [ [ -123.581154176, 48.015649576 ], [ -123.576154176, 48.015649576 ], [ -123.576154176, 48.010649576 ], [ -123.581154176, 48.010649576 ], [ -123.581154176, 48.015649576 ] ] ] } },
{ "type": "Feature", "properties": { "id": 64, "left": -123.581154176, "top": 48.010649576, "right": -123.576154176, "bottom": 48.005649575999996 }, "geometry": { "type": "Polygon", "coordinates": [ [ [ -123.581154176, 48.010649576 ], [ -123.576154176, 48.010649576 ], [ -123.576154176, 48.005649576 ], [ -123.581154176, 48.005649576 ], [ -123.581154176, 48.010649576 ] ] ] } },
{ "type": "Feature", "properties": { "id": 65, "left": -123.581154176, "top": 48.005649575999996, "right": -123.576154176, "bottom": 48.000649575999994 }, "geometry": { "type": "Polygon", "coordinates": [ [ [ -123.581154176, 48.005649576 ], [ -123.576154176, 48.005649576 ], [ -123.576154176, 48.000649576 ], [ -123.581154176, 48.000649576 ], [ -123.581154176, 48.005649576 ] ] ] } }
]
}
