{
"type": "FeatureCollection",
"name": "LR_budget_reaches_epsg4326",
"crs": { "type": "name", "properties": { "name": "urn:ogc:def:crs:OGC:1.3:CRS84" } },
"features": [
{ "type": "Feature", "properties": { "id": 1, "id_2": 1 }, "geometry": { "type": "MultiPolygon", "coordinates": [ [ [ [ -123.556727269507491, 48.095920329582206 ], [ -123.556554848810691, 48.096160980717983 ], [ -123.556929320752673, 48.096672133925054 ], [ -123.556273312695438, 48.096807077592594 ], [ -123.556073635777153, 48.096692640384155 ], [ -123.555952676052115, 48.096566586672516 ], [ -123.555960847237429, 48.096319853499246 ], [ -123.555951710363161, 48.096311297979831 ], [ -123.555955647321994, 48.096302047594705 ], [ -123.555916736894574, 48.096146811771995 ], [ -123.555821100789828, 48.096043658340236 ], [ -123.556727269507491, 48.095920329582206 ] ] ] ] } },
{ "type": "Feature", "properties": { "id": 1, "id_2": 1 }, "geometry": { "type": "MultiPolygon", "coordinates": [ [ [ [ -123.556857682017238, 48.097534574380013 ], [ -123.556643859394768, 48.097383134197329 ], [ -123.556532496949274, 48.097100701494682 ], [ -123.556450673874636, 48.097039316204366 ], [ -123.556419407023071, 48.096940687375245 ], [ -123.556270448436024, 48.096807091457649 ], [ -123.556928550445022, 48.09667108246893 ], [ -123.557137493251773, 48.096956283871705 ], [ -123.557482248382527, 48.097338216422621 ], [ -123.556857682017238, 48.097534574380013 ] ] ] ] } },
{ "type": "Feature", "properties": { "id": 1, "id_2": 1 }, "geometry": { "type": "MultiPolygon", "coordinates": [ [ [ [ -123.557524486147273, 48.098151050410557 ], [ -123.557244182544054, 48.09780831064905 ], [ -123.556856943891262, 48.097534051603439 ], [ -123.557480242468273, 48.097335994215776 ], [ -123.557893921704121, 48.097794274584587 ], [ -123.558042361639849, 48.098014970763366 ], [ -123.557524486147273, 48.098151050410557 ] ] ] ] } },
{ "type": "Feature", "properties": { "id": 1, "id_2": 1 }, "geometry": { "type": "MultiPolygon", "coordinates": [ [ [ [ -123.557975564771439, 48.098891797999528 ], [ -123.557945665712836, 48.098822517883384 ], [ -123.557909170710516, 48.0987776686083 ], [ -123.557705203054738, 48.098372018256093 ], [ -123.557525180253947, 48.098151899119308 ], [ -123.558042062477483, 48.098014525979565 ], [ -123.55852142300779, 48.098727210917744 ], [ -123.558533493797853, 48.098785879018173 ], [ -123.557975564771439, 48.098891797999528 ] ] ] ] } },
{ "type": "Feature", "properties": { "id": 1, "id_2": 1 }, "geometry": { "type": "MultiPolygon", "coordinates": [ [ [ [ -123.558533275482574, 48.098784817933662 ], [ -123.558658628512703, 48.099394067682674 ], [ -123.55864169102675, 48.099685850512707 ], [ -123.558126464612641, 48.099734417150394 ], [ -123.558133078496311, 48.099489141815042 ], [ -123.558147380627332, 48.099445527864063 ], [ -123.558151107730154, 48.099289512384736 ], [ -123.558112490836876, 48.099250523201789 ], [ -123.557993596723634, 48.098956561390565 ], [ -123.55799566215272, 48.098938366208287 ], [ -123.557974858167952, 48.098890160707093 ], [ -123.558533275482574, 48.098784817933662 ] ] ] ] } },
{ "type": "Feature", "properties": { "id": 1, "id_2": 1 }, "geometry": { "type": "MultiPolygon", "coordinates": [ [ [ [ -123.558641516989184, 48.099688848649592 ], [ -123.558631243977587, 48.099865820766539 ], [ -123.558452925520029, 48.100403608603102 ], [ -123.558337945958499, 48.100566911606172 ], [ -123.557969550431821, 48.100499019532606 ], [ -123.55800065180253, 48.100400363826211 ], [ -123.557998924404444, 48.100240747017949 ], [ -123.558062460414874, 48.100106208207961 ], [ -123.558151935793802, 48.099866335851296 ], [ -123.55812432815712, 48.099813647008993 ], [ -123.558126478326741, 48.099733908565817 ], [ -123.558641516989184, 48.099688848649592 ] ] ] ] } },
{ "type": "Feature", "properties": { "id": 1, "id_2": 1 }, "geometry": { "type": "MultiPolygon", "coordinates": [ [ [ [ -123.558339107280844, 48.100565262210694 ], [ -123.55805820685606, 48.100964214261488 ], [ -123.558004445673262, 48.101024436967855 ], [ -123.557632855492344, 48.10090826126163 ], [ -123.557809609523161, 48.100764075828081 ], [ -123.557963997792513, 48.100516632849633 ], [ -123.557969150776486, 48.100500287264474 ], [ -123.558339107280844, 48.100565262210694 ] ] ], [ [ [ -123.557346535750767, 48.101136953429204 ], [ -123.557348902759074, 48.101134831745917 ], [ -123.557367359254997, 48.101141393429394 ], [ -123.557346535750767, 48.101136953429204 ] ] ] ] } },
{ "type": "Feature", "properties": { "id": 1, "id_2": 1 }, "geometry": { "type": "MultiPolygon", "coordinates": [ [ [ [ -123.557369422174062, 48.101142126841459 ], [ -123.557771706877702, 48.101285146587024 ], [ -123.557726429471231, 48.101335865125293 ], [ -123.557221809499154, 48.101751887360166 ], [ -123.557085464652985, 48.101854662300518 ], [ -123.556690164723634, 48.10174227154036 ], [ -123.557191044877641, 48.101411019145559 ], [ -123.557169165540998, 48.101295939736502 ], [ -123.557346458622391, 48.101137022563748 ], [ -123.557369422174062, 48.101142126841459 ] ] ] ] } },
{ "type": "Feature", "properties": { "id": 1, "id_2": 1 }, "geometry": { "type": "MultiPolygon", "coordinates": [ [ [ [ -123.557085202603034, 48.101854859829743 ], [ -123.556630839785925, 48.102197348382042 ], [ -123.556304032140417, 48.102326369650385 ], [ -123.555943428423376, 48.102191904637209 ], [ -123.556389759057566, 48.101940938925196 ], [ -123.556692202315077, 48.101740924011395 ], [ -123.557085202603034, 48.101854859829743 ] ] ] ] } },
{ "type": "Feature", "properties": { "id": 1, "id_2": 1 }, "geometry": { "type": "MultiPolygon", "coordinates": [ [ [ [ -123.556304299354821, 48.102326264156751 ], [ -123.555886569557572, 48.102491178535885 ], [ -123.555683186921655, 48.102717088483196 ], [ -123.555537393744814, 48.102796922358323 ], [ -123.555149434874139, 48.102631491754657 ], [ -123.555361494182861, 48.10251911216529 ], [ -123.555946638714616, 48.102190099548508 ], [ -123.556304299354821, 48.102326264156751 ] ] ] ] } },
{ "type": "Feature", "properties": { "id": 1, "id_2": 1 }, "geometry": { "type": "MultiPolygon", "coordinates": [ [ [ [ -123.555534739140214, 48.102798375970877 ], [ -123.555295501684412, 48.102929377402397 ], [ -123.554607168819061, 48.103389809697326 ], [ -123.554574840003184, 48.10341149960891 ], [ -123.55403962672429, 48.103127063496146 ], [ -123.554203338418148, 48.103108786139188 ], [ -123.554316012168087, 48.103054797586715 ], [ -123.554321906107091, 48.103053796623541 ], [ -123.554351790611477, 48.103037654005071 ], [ -123.554677529595423, 48.102881572034896 ], [ -123.555149723401868, 48.102631338851673 ], [ -123.555534739140214, 48.102798375970877 ] ] ] ] } },
{ "type": "Feature", "properties": { "id": 1, "id_2": 1 }, "geometry": { "type": "MultiPolygon", "coordinates": [ [ [ [ -123.554574641706012, 48.103411632649518 ], [ -123.553786345234158, 48.103940504704447 ], [ -123.553587537485484, 48.103840988299474 ], [ -123.553293780400409, 48.103429858211733 ], [ -123.553177281513229, 48.10315106493487 ], [ -123.553193637155744, 48.103149929514259 ], [ -123.553199734909597, 48.103145099416963 ], [ -123.55336524120014, 48.10315251017559 ], [ -123.553592027655739, 48.103177033795568 ], [ -123.554036768477999, 48.10312738259875 ], [ -123.554574641706012, 48.103411632649518 ] ] ] ] } },
{ "type": "Feature", "properties": { "id": 1, "id_2": 1 }, "geometry": { "type": "MultiPolygon", "coordinates": [ [ [ [ -123.553293780400409, 48.103429858211733 ], [ -123.553285186514074, 48.103429899588157 ], [ -123.553578922928395, 48.103839110984381 ], [ -123.553785595699551, 48.103941007563243 ], [ -123.553757509248229, 48.103959850604006 ], [ -123.553380344908362, 48.104183256588783 ], [ -123.553099061233993, 48.103971900826515 ], [ -123.552770196126886, 48.103225146087247 ], [ -123.552731839013305, 48.103141689881383 ], [ -123.552822794031314, 48.103166225455482 ], [ -123.552969027148563, 48.103165521896621 ], [ -123.55318120478826, 48.103150792578482 ], [ -123.553293780400409, 48.103429858211733 ] ] ] ] } },
{ "type": "Feature", "properties": { "id": 1, "id_2": 1 }, "geometry": { "type": "MultiPolygon", "coordinates": [ [ [ [ -123.553096237744583, 48.103975752041713 ], [ -123.553380673414622, 48.104183062005845 ], [ -123.552941995937772, 48.104442900118485 ], [ -123.552877321195979, 48.104398944292463 ], [ -123.552358547333981, 48.103574430599259 ], [ -123.552208515341917, 48.103097282085656 ], [ -123.552293855567257, 48.103087142265274 ], [ -123.552383555871103, 48.103091286483227 ], [ -123.55262294990905, 48.10311231637143 ], [ -123.55272736476023, 48.103140482926612 ], [ -123.553096237744583, 48.103975752041713 ] ] ] ] } },
{ "type": "Feature", "properties": { "id": 1, "id_2": 1 }, "geometry": { "type": "MultiPolygon", "coordinates": [ [ [ [ -123.552352797502621, 48.103572539422821 ], [ -123.552865862464657, 48.104398999420191 ], [ -123.552934893567695, 48.104447106969872 ], [ -123.55256450171531, 48.104666494638067 ], [ -123.551470366011927, 48.10356526454607 ], [ -123.551420820967238, 48.103538375289283 ], [ -123.551514770030025, 48.103421017612405 ], [ -123.551680764250449, 48.103257604162195 ], [ -123.55184263711088, 48.103179280984989 ], [ -123.552023384034754, 48.103119278494155 ], [ -123.552202282824823, 48.103098022608435 ], [ -123.552352797502621, 48.103572539422821 ] ] ] ] } },
{ "type": "Feature", "properties": { "id": 1, "id_2": 1 }, "geometry": { "type": "MultiPolygon", "coordinates": [ [ [ [ -123.551458784321895, 48.103553807245653 ], [ -123.551846835361744, 48.103943382293288 ], [ -123.55256450609906, 48.104666492041545 ], [ -123.552388428202306, 48.10477078408163 ], [ -123.55235437214435, 48.104789059190004 ], [ -123.552347684777999, 48.104794916568331 ], [ -123.552164360474762, 48.104903499799377 ], [ -123.552017359747865, 48.105031182926965 ], [ -123.551547100094865, 48.104846663236685 ], [ -123.551595667534386, 48.104566283485475 ], [ -123.551410767487468, 48.104421341068551 ], [ -123.55141419833997, 48.104206417577728 ], [ -123.55141132523147, 48.103937797566687 ], [ -123.551254992404424, 48.103785042557035 ], [ -123.55124337777346, 48.103770318867262 ], [ -123.551247965207196, 48.103708818110753 ], [ -123.551373572015876, 48.103639365736477 ], [ -123.551418561188115, 48.103541198113859 ], [ -123.551422745015856, 48.103535971845389 ], [ -123.551458784321895, 48.103553807245653 ] ] ] ] } },
{ "type": "Feature", "properties": { "id": 1, "id_2": 1 }, "geometry": { "type": "MultiPolygon", "coordinates": [ [ [ [ -123.552013750422148, 48.105034317935143 ], [ -123.551971163079557, 48.105071308648363 ], [ -123.551970673513708, 48.105073011550743 ], [ -123.551949498109892, 48.105071412706003 ], [ -123.551843813869013, 48.105318613501638 ], [ -123.551729081987745, 48.105732738340492 ], [ -123.551584882199847, 48.106345307739453 ], [ -123.551180209934486, 48.106329689711906 ], [ -123.551270945428698, 48.105945351750528 ], [ -123.551343825442601, 48.105669286168094 ], [ -123.551337688791421, 48.105524787755364 ], [ -123.551369874091051, 48.105419319805932 ], [ -123.551535641261495, 48.104846718232103 ], [ -123.552013750422148, 48.105034317935143 ] ] ] ] } },
{ "type": "Feature", "properties": { "id": 1, "id_2": 1 }, "geometry": { "type": "MultiPolygon", "coordinates": [ [ [ [ -123.551584354593103, 48.106347549018004 ], [ -123.551374431816825, 48.107239287585344 ], [ -123.551023281435249, 48.107213725661396 ], [ -123.551060276657438, 48.107012947404925 ], [ -123.551151760847787, 48.106450193349282 ], [ -123.551180618147399, 48.106327960613918 ], [ -123.551584354593103, 48.106347549018004 ] ] ] ] } },
{ "type": "Feature", "properties": { "id": 1, "id_2": 1 }, "geometry": { "type": "MultiPolygon", "coordinates": [ [ [ [ -123.551374894077796, 48.107237323964021 ], [ -123.551210957145955, 48.107933696235321 ], [ -123.55131201943469, 48.107943228748034 ], [ -123.551385373058949, 48.108034439046889 ], [ -123.551415014123521, 48.108135808545192 ], [ -123.550860961959216, 48.108105210273791 ], [ -123.551014100225188, 48.107760503954978 ], [ -123.550942522210505, 48.107652011923747 ], [ -123.551023662584569, 48.107211657118448 ], [ -123.551374894077796, 48.107237323964021 ] ] ] ] } },
{ "type": "Feature", "properties": { "id": 1, "id_2": 1 }, "geometry": { "type": "MultiPolygon", "coordinates": [ [ [ [ -123.550416594662622, 48.108975610154531 ], [ -123.550368832619725, 48.108972485934139 ], [ -123.550624567696033, 48.108626358640194 ], [ -123.550692799639606, 48.108614586448098 ], [ -123.550802517131515, 48.108236765297164 ], [ -123.550860612737111, 48.108105996349238 ], [ -123.551415668423132, 48.108138046180265 ], [ -123.551531559885206, 48.10853437946367 ], [ -123.551429427192389, 48.109022764022683 ], [ -123.550416594662622, 48.108975610154531 ] ] ] ] } },
{ "type": "Feature", "properties": { "id": 1, "id_2": 1 }, "geometry": { "type": "MultiPolygon", "coordinates": [ [ [ [ -123.551283389581187, 48.109923185623749 ], [ -123.549815128408596, 48.109791446417688 ], [ -123.549939042224906, 48.109554178482171 ], [ -123.55037423025712, 48.108965180499538 ], [ -123.551430282099531, 48.109018676011871 ], [ -123.551387267885161, 48.109224361379546 ], [ -123.551305955465978, 48.109725393290994 ], [ -123.551284505112676, 48.109921497782572 ], [ -123.551283389581187, 48.109923185623749 ] ] ] ] } },
{ "type": "Feature", "properties": { "id": 1, "id_2": 1 }, "geometry": { "type": "MultiPolygon", "coordinates": [ [ [ [ -123.551274835651938, 48.109927064278885 ], [ -123.551199799492295, 48.110144249826931 ], [ -123.551246969171004, 48.110264657270072 ], [ -123.551236871760111, 48.110356968635294 ], [ -123.551241691627538, 48.110359102548387 ], [ -123.550436937290328, 48.110612258418904 ], [ -123.549408001332907, 48.110849358158653 ], [ -123.549203780122212, 48.110706936241762 ], [ -123.549201817109022, 48.110522709095342 ], [ -123.549524969683034, 48.110347028072034 ], [ -123.549816830334365, 48.109788187616644 ], [ -123.551274835651938, 48.109927064278885 ] ] ] ] } },
{ "type": "Feature", "properties": { "id": 1, "id_2": 1 }, "geometry": { "type": "MultiPolygon", "coordinates": [ [ [ [ -123.551535855965895, 48.110489942248478 ], [ -123.551544115101748, 48.110492994558754 ], [ -123.551998875427429, 48.110694327874683 ], [ -123.552062005250036, 48.110717146230854 ], [ -123.550663535144707, 48.111440099000532 ], [ -123.550087366428968, 48.111147361544631 ], [ -123.549813200424808, 48.110962548932491 ], [ -123.549499621339521, 48.110843163681196 ], [ -123.549462293967807, 48.110835666914426 ], [ -123.550436998762081, 48.110618014556323 ], [ -123.551247225748639, 48.110361552684473 ], [ -123.551528244655344, 48.110485968269842 ], [ -123.551535855965895, 48.110489942248478 ] ] ] ] } },
{ "type": "Feature", "properties": { "id": 1, "id_2": 1 }, "geometry": { "type": "MultiPolygon", "coordinates": [ [ [ [ -123.552059279884887, 48.110716161145234 ], [ -123.552174591648068, 48.110757840593521 ], [ -123.552290315725159, 48.110843217723122 ], [ -123.55292309474801, 48.1110704322437 ], [ -123.552176176198387, 48.111956676245242 ], [ -123.551485389666539, 48.111664496469153 ], [ -123.55138220546965, 48.111661153960419 ], [ -123.550663473645884, 48.111434342864129 ], [ -123.552059279884887, 48.110716161145234 ] ] ] ] } },
{ "type": "Feature", "properties": { "id": 1, "id_2": 1 }, "geometry": { "type": "MultiPolygon", "coordinates": [ [ [ [ -123.5529116345337, 48.111070487381681 ], [ -123.553395229622851, 48.111279228850186 ], [ -123.553718631702097, 48.11151176596136 ], [ -123.554277676780927, 48.111831794755396 ], [ -123.554346357484889, 48.111921452173767 ], [ -123.554597791141717, 48.112267375515714 ], [ -123.553158960224991, 48.112757850236299 ], [ -123.552858473865371, 48.112525201356718 ], [ -123.552489021618001, 48.112273695157405 ], [ -123.552159026690461, 48.11196059626414 ], [ -123.5529116345337, 48.111070487381681 ] ] ] ] } },
{ "type": "Feature", "properties": { "id": 1, "id_2": 1 }, "geometry": { "type": "MultiPolygon", "coordinates": [ [ [ [ -123.554603521380301, 48.112267347862264 ], [ -123.554619313935959, 48.112277772467806 ], [ -123.554890807592955, 48.112632177627333 ], [ -123.554949522697171, 48.112821662383404 ], [ -123.554934247983695, 48.112940944483746 ], [ -123.554756290457007, 48.113220536681297 ], [ -123.554541870544696, 48.113431986075774 ], [ -123.554295804397938, 48.113723400109066 ], [ -123.554226184883802, 48.113841537204621 ], [ -123.553590502018395, 48.113605013621097 ], [ -123.553723168275738, 48.113534169955166 ], [ -123.553768475283476, 48.113484062592931 ], [ -123.55357108698766, 48.113247081143399 ], [ -123.553158919038083, 48.112754012814513 ], [ -123.554603521380301, 48.112267347862264 ] ] ] ] } },
{ "type": "Feature", "properties": { "id": 1, "id_2": 1 }, "geometry": { "type": "MultiPolygon", "coordinates": [ [ [ [ -123.553728735135707, 48.114585650791106 ], [ -123.553394426849152, 48.114940322004855 ], [ -123.552589765028472, 48.114721612021356 ], [ -123.552714766248741, 48.114621232819395 ], [ -123.552861165757832, 48.114378758642296 ], [ -123.553133798498067, 48.114151027242606 ], [ -123.553486077783987, 48.113869184953032 ], [ -123.553509137911021, 48.113791994674514 ], [ -123.554101625833425, 48.114052899544582 ], [ -123.554008503874158, 48.114210915551112 ], [ -123.553856724223962, 48.114457252137527 ], [ -123.553728735135707, 48.114585650791106 ] ] ] ] } },
{ "type": "Feature", "properties": { "id": 1, "id_2": 1 }, "geometry": { "type": "MultiPolygon", "coordinates": [ [ [ [ -123.553382924568481, 48.11493653977297 ], [ -123.553384325602693, 48.115067012057061 ], [ -123.553590905327155, 48.115191757552211 ], [ -123.553618392375796, 48.115308725169697 ], [ -123.553550015909025, 48.115553591629187 ], [ -123.553219659385832, 48.115743225660424 ], [ -123.552646102865552, 48.115699933796058 ], [ -123.552123752819099, 48.115621854509577 ], [ -123.551790925213382, 48.115581239219622 ], [ -123.55193279306701, 48.115450078957394 ], [ -123.552069957358498, 48.115414881566615 ], [ -123.55206855963479, 48.115284409261548 ], [ -123.552296754529621, 48.115187372377747 ], [ -123.552415368732781, 48.115025622310526 ], [ -123.552601184907047, 48.114717719491551 ], [ -123.553382924568481, 48.11493653977297 ] ] ] ] } },
{ "type": "Feature", "properties": { "id": 1, "id_2": 1 }, "geometry": { "type": "MultiPolygon", "coordinates": [ [ [ [ -123.552106643202535, 48.115629611943412 ], [ -123.552634682773373, 48.115703826330467 ], [ -123.55300164849902, 48.115721249204981 ], [ -123.553231244228485, 48.115754682746875 ], [ -123.553572814663667, 48.115541968958198 ], [ -123.553660051794992, 48.115660514878066 ], [ -123.553879959959431, 48.11585901137164 ], [ -123.554095335742417, 48.116168820209388 ], [ -123.553958335858638, 48.116219369691066 ], [ -123.552486127149038, 48.116280183267598 ], [ -123.55148845363199, 48.116235086125002 ], [ -123.551390990963284, 48.116231716162154 ], [ -123.551388445242097, 48.115993796080986 ], [ -123.551519346800362, 48.115908740368624 ], [ -123.5516267092204, 48.115766233225791 ], [ -123.55167705246825, 48.115650863032002 ], [ -123.551796614733618, 48.115577374283951 ], [ -123.552106643202535, 48.115629611943412 ] ] ] ] } },
{ "type": "Feature", "properties": { "id": 1, "id_2": 1 }, "geometry": { "type": "MultiPolygon", "coordinates": [ [ [ [ -123.551488535767106, 48.116242760966038 ], [ -123.552503319209478, 48.116280100617203 ], [ -123.553981134813725, 48.116207746939665 ], [ -123.554095335742417, 48.116168820209396 ], [ -123.554258023362493, 48.116375267070033 ], [ -123.554762336181952, 48.116906262593595 ], [ -123.554498886648162, 48.116922884483678 ], [ -123.552980565349401, 48.116960901145141 ], [ -123.551967154642071, 48.117026614333767 ], [ -123.55198551390508, 48.116970549156569 ], [ -123.55220335499034, 48.116570440841635 ], [ -123.551908092967011, 48.11631791073907 ], [ -123.551694269944292, 48.116587397173397 ], [ -123.551689978772941, 48.116692624979173 ], [ -123.551566037187385, 48.11675489307833 ], [ -123.551464231071279, 48.116860588842599 ], [ -123.551459706482788, 48.11694405074752 ], [ -123.551442641937427, 48.117060622046978 ], [ -123.550998993163702, 48.117089384900638 ], [ -123.551133330544872, 48.116789406615375 ], [ -123.551396680585057, 48.116227851246364 ], [ -123.551488535767106, 48.116242760966038 ] ] ] ] } },
{ "type": "Feature", "properties": { "id": 1, "id_2": 1 }, "geometry": { "type": "MultiPolygon", "coordinates": [ [ [ [ -123.551314062787128, 48.117076361033767 ], [ -123.551441627469799, 48.117067552060732 ], [ -123.551439511686297, 48.117082005358355 ], [ -123.551453103011667, 48.117339516379154 ], [ -123.551476442542409, 48.117495401254715 ], [ -123.551601434480148, 48.117531079742825 ], [ -123.55187009756439, 48.11732300338231 ], [ -123.551965598062992, 48.11703136778047 ], [ -123.552986296111442, 48.116960873570342 ], [ -123.554458895222709, 48.116934590283499 ], [ -123.55478525919888, 48.1169061519374 ], [ -123.554791196525386, 48.116925311362259 ], [ -123.554748366205544, 48.117205664175636 ], [ -123.554858738686264, 48.117343285563805 ], [ -123.555067941084687, 48.117610908529421 ], [ -123.554662786819264, 48.117774044553805 ], [ -123.55138568315293, 48.117878079337373 ], [ -123.551171383577355, 48.117668038392985 ], [ -123.550967111325861, 48.117323632383304 ], [ -123.551010372653835, 48.117081655107754 ], [ -123.551314062787128, 48.117076361033767 ] ] ] ] } },
{ "type": "Feature", "properties": { "id": 1, "id_2": 1 }, "geometry": { "type": "MultiPolygon", "coordinates": [ [ [ [ -123.555213155196824, 48.117790575069463 ], [ -123.555530958419126, 48.118030809145687 ], [ -123.555682775273183, 48.118291033112293 ], [ -123.555322348433094, 48.118350339522671 ], [ -123.553073105221188, 48.118641331931066 ], [ -123.552844649529135, 48.118715345843931 ], [ -123.552723517325617, 48.118643013778545 ], [ -123.552621169569619, 48.118644949029637 ], [ -123.552494125486206, 48.118488167624641 ], [ -123.55201919730321, 48.118287366969618 ], [ -123.552008604136461, 48.118247337793903 ], [ -123.551961893668562, 48.118166972201976 ], [ -123.551691678698248, 48.118087679730436 ], [ -123.551565229463591, 48.118053748127195 ], [ -123.551443977407487, 48.117969902433849 ], [ -123.551374221421725, 48.117878134327839 ], [ -123.553442403899396, 48.117806791341472 ], [ -123.554657097274131, 48.117777909629964 ], [ -123.555067899748593, 48.117607071112147 ], [ -123.555213155196824, 48.117790575069463 ] ] ] ] } },
{ "type": "Feature", "properties": { "id": 1, "id_2": 1 }, "geometry": { "type": "MultiPolygon", "coordinates": [ [ [ [ -123.553090256877368, 48.118637411771942 ], [ -123.553347861080042, 48.118609308420851 ], [ -123.555333892975597, 48.118357958971266 ], [ -123.55568269250746, 48.118283358279442 ], [ -123.5559033649035, 48.118550924228202 ], [ -123.556106888118109, 48.118822410342922 ], [ -123.55615509672198, 48.119040921177032 ], [ -123.553321140037767, 48.119323233633274 ], [ -123.553153828033601, 48.11922042342993 ], [ -123.553077306546186, 48.119032748541194 ], [ -123.552908925367035, 48.118830165108697 ], [ -123.552856029097796, 48.118707615870164 ], [ -123.553090256877368, 48.118637411771942 ] ] ] ] } },
{ "type": "Feature", "properties": { "id": 1, "id_2": 1 }, "geometry": { "type": "MultiPolygon", "coordinates": [ [ [ [ -123.556155013883739, 48.119033246345801 ], [ -123.556232043665588, 48.119266968126553 ], [ -123.556359356044197, 48.119911071309026 ], [ -123.553672300056903, 48.120000800335333 ], [ -123.553647891244054, 48.119862763775764 ], [ -123.55346693003024, 48.119556626170258 ], [ -123.553298215939904, 48.119323344001558 ], [ -123.556155013883739, 48.119033246345801 ] ] ] ] } },
{ "type": "Feature", "properties": { "id": 1, "id_2": 1 }, "geometry": { "type": "MultiPolygon", "coordinates": [ [ [ [ -123.556353542086981, 48.119903424223487 ], [ -123.556361055505647, 48.12011392304251 ], [ -123.556357772400801, 48.120144814790066 ], [ -123.556161486818255, 48.120694902533607 ], [ -123.556047815843314, 48.120783717708299 ], [ -123.555692192693257, 48.120758574468631 ], [ -123.555441385846507, 48.120886428188797 ], [ -123.555154867370035, 48.12089165019875 ], [ -123.55495307683033, 48.120781333949814 ], [ -123.553627977086038, 48.120676434101163 ], [ -123.553643356297442, 48.120507504961502 ], [ -123.553687391097924, 48.120338437762051 ], [ -123.553649334425046, 48.119997073358235 ], [ -123.556353542086981, 48.119903424223487 ] ] ] ] } },
{ "type": "Feature", "properties": { "id": 1, "id_2": 1 }, "geometry": { "type": "MultiPolygon", "coordinates": [ [ [ [ -123.554935883275164, 48.120781416972477 ], [ -123.555149053479141, 48.120884003053305 ], [ -123.55497188239481, 48.120930910115916 ], [ -123.554973370415155, 48.121069057058229 ], [ -123.555051266112201, 48.121383365267654 ], [ -123.555053002412848, 48.121544536685114 ], [ -123.555045921942607, 48.121951357983193 ], [ -123.554753790137198, 48.121968118938476 ], [ -123.553842386832287, 48.121961001850053 ], [ -123.553515165782528, 48.121912689312445 ], [ -123.553678528361289, 48.121647107031663 ], [ -123.553623689310243, 48.121344199690348 ], [ -123.553547575172942, 48.121194899361456 ], [ -123.553645088140868, 48.120668676442037 ], [ -123.554935883275164, 48.120781416972477 ] ] ] ] } },
{ "type": "Feature", "properties": { "id": 1, "id_2": 1 }, "geometry": { "type": "MultiPolygon", "coordinates": [ [ [ [ -123.55382519288024, 48.121961084708069 ], [ -123.554776715406106, 48.121968008275317 ], [ -123.555063157229881, 48.121955112356936 ], [ -123.555086498152193, 48.121994064651588 ], [ -123.555117207291971, 48.122585861598679 ], [ -123.555292142890707, 48.122715378702708 ], [ -123.55530093000057, 48.122744512176098 ], [ -123.555083839537602, 48.122810800332068 ], [ -123.553077598102931, 48.122797447049223 ], [ -123.553093721226588, 48.12269759150913 ], [ -123.553183528285388, 48.122520629051969 ], [ -123.55317848322801, 48.122435017744912 ], [ -123.553307398931977, 48.122128606868301 ], [ -123.553328093112526, 48.122105470842634 ], [ -123.553515000875905, 48.121897339650843 ], [ -123.55382519288024, 48.121961084708069 ] ] ] ] } },
{ "type": "Feature", "properties": { "id": 1, "id_2": 1 }, "geometry": { "type": "MultiPolygon", "coordinates": [ [ [ [ -123.555061037924204, 48.122822423299304 ], [ -123.555313054754862, 48.12273086116187 ], [ -123.555329191354033, 48.122742808162272 ], [ -123.555439931666655, 48.122878156939869 ], [ -123.555579678932375, 48.123080874968899 ], [ -123.555754850966522, 48.123379361852649 ], [ -123.555859963448171, 48.123559221326033 ], [ -123.555856840378297, 48.123801006046556 ], [ -123.55298534773739, 48.123814858403016 ], [ -123.552972401886464, 48.12367676663542 ], [ -123.552964569781963, 48.123481086065986 ], [ -123.552972408177169, 48.123143338408958 ], [ -123.553083247122515, 48.122789744636925 ], [ -123.555061037924204, 48.122822423299304 ] ] ] ] } },
{ "type": "Feature", "properties": { "id": 1, "id_2": 1 }, "geometry": { "type": "MultiPolygon", "coordinates": [ [ [ [ -123.555851108858207, 48.123801033767414 ], [ -123.55582373470078, 48.123920132157814 ], [ -123.555825763385855, 48.124108165369719 ], [ -123.555838758403979, 48.124250094187609 ], [ -123.555973152131813, 48.124487376098656 ], [ -123.556078226246711, 48.124663397914013 ], [ -123.553172543156037, 48.124700445998741 ], [ -123.553107146891847, 48.124482016854046 ], [ -123.553045958546491, 48.124121575756419 ], [ -123.55297380231039, 48.123807238729128 ], [ -123.555851108858207, 48.123801033767414 ] ] ] ] } },
{ "type": "Feature", "properties": { "id": 1, "id_2": 1 }, "geometry": { "type": "MultiPolygon", "coordinates": [ [ [ [ -123.556078226246711, 48.124663397914013 ], [ -123.556095669631262, 48.124686339186667 ], [ -123.556281567622278, 48.124915696274535 ], [ -123.556565776277381, 48.125225166855721 ], [ -123.555019767770659, 48.125908063007167 ], [ -123.554904925982981, 48.125889429494258 ], [ -123.55457256689678, 48.125898708954729 ], [ -123.554273524707256, 48.125808048882874 ], [ -123.554180206797852, 48.125658832049169 ], [ -123.554109527346668, 48.125482642709287 ], [ -123.553965161724264, 48.125383560753455 ], [ -123.553690700128129, 48.125446285143951 ], [ -123.553421887121246, 48.125501306454623 ], [ -123.553317273713489, 48.125367493753181 ], [ -123.553222599459062, 48.12509164147518 ], [ -123.553329769984657, 48.124929945845494 ], [ -123.553172543156037, 48.124700445998741 ], [ -123.556078226246711, 48.124663397914013 ] ] ] ] } },
{ "type": "Feature", "properties": { "id": 1, "id_2": 1 }, "geometry": { "type": "MultiPolygon", "coordinates": [ [ [ [ -123.556536910605473, 48.125206118580934 ], [ -123.556617568690228, 48.12524410408713 ], [ -123.556768251318232, 48.125396878681656 ], [ -123.557010310320322, 48.125518509353306 ], [ -123.557447415151501, 48.125654544076752 ], [ -123.557815990721721, 48.125813935440668 ], [ -123.558070349093938, 48.126012256409595 ], [ -123.556710725424892, 48.126668214166166 ], [ -123.556623437318365, 48.126590956376241 ], [ -123.556497048288421, 48.12642831613875 ], [ -123.556373441862817, 48.126523238137516 ], [ -123.556421059543155, 48.126807960796292 ], [ -123.556373551137128, 48.126830880646175 ], [ -123.556165253895713, 48.126814472088419 ], [ -123.556025281793282, 48.126701226021787 ], [ -123.556058235383702, 48.126528573916524 ], [ -123.555896419184876, 48.126406553161345 ], [ -123.555526355467151, 48.126109008846839 ], [ -123.5549854185806, 48.125912066494784 ], [ -123.556536910605473, 48.125206118580934 ] ] ] ] } },
{ "type": "Feature", "properties": { "id": 1, "id_2": 1 }, "geometry": { "type": "MultiPolygon", "coordinates": [ [ [ [ -123.556419009278585, 48.12679570161913 ], [ -123.556425578158766, 48.12683497899986 ], [ -123.556347930923124, 48.126828862441826 ], [ -123.556419009278585, 48.12679570161913 ] ] ], [ [ [ -123.558081895767344, 48.126019875563678 ], [ -123.558220206615175, 48.126088280863122 ], [ -123.558520255828583, 48.126271028449551 ], [ -123.558861198896366, 48.126481928590614 ], [ -123.559117651599678, 48.126740876383742 ], [ -123.55942333341244, 48.127087884995404 ], [ -123.55976078651679, 48.127546755222376 ], [ -123.559373098614358, 48.127740523325748 ], [ -123.557998039958548, 48.127766679903132 ], [ -123.557881561666051, 48.127650808728681 ], [ -123.557876265607845, 48.127629696454903 ], [ -123.557780575775666, 48.127550348683521 ], [ -123.557744284761426, 48.127514246522381 ], [ -123.557502686339262, 48.127221564636784 ], [ -123.557331570879143, 48.126932168283815 ], [ -123.557382105790211, 48.126594535141074 ], [ -123.557148560989532, 48.126544877948021 ], [ -123.557094846816582, 48.126588672275524 ], [ -123.557096808400786, 48.126770054204037 ], [ -123.556831340187415, 48.126774968536182 ], [ -123.556704355051068, 48.126662575825087 ], [ -123.558081895767344, 48.126019875563678 ] ] ] ] } },
{ "type": "Feature", "properties": { "id": 1, "id_2": 1 }, "geometry": { "type": "MultiPolygon", "coordinates": [ [ [ [ -123.559407573692056, 48.127748030747519 ], [ -123.559749322650731, 48.127546811056433 ], [ -123.55972706207983, 48.127608321241915 ], [ -123.559649066283512, 48.127815932038708 ], [ -123.559743946839063, 48.12810712836577 ], [ -123.559550559660835, 48.128246224030377 ], [ -123.559655737138314, 48.128429917195817 ], [ -123.559705262755045, 48.128767385692399 ], [ -123.559630100247333, 48.129235940087746 ], [ -123.559515457823323, 48.129236498261115 ], [ -123.558013226023732, 48.129205425695993 ], [ -123.556793649510496, 48.129194213869354 ], [ -123.556976317867381, 48.129157748970698 ], [ -123.557510852109985, 48.128977393716347 ], [ -123.557800378167158, 48.128612949756267 ], [ -123.557810972391792, 48.128605899075659 ], [ -123.557815620581849, 48.128593763044208 ], [ -123.558002696377798, 48.128358276101196 ], [ -123.558034614282235, 48.127803063457989 ], [ -123.557997515962199, 48.127766158639453 ], [ -123.559407573692056, 48.127748030747519 ] ] ] ] } },
{ "type": "Feature", "properties": { "id": 1, "id_2": 1 }, "geometry": { "type": "MultiPolygon", "coordinates": [ [ [ [ -123.559664576364597, 48.129243447426397 ], [ -123.55967310558421, 48.12936419598946 ], [ -123.559559040648878, 48.129457196627527 ], [ -123.559520285404005, 48.12948180538384 ], [ -123.559175279844055, 48.129583538696458 ], [ -123.55877785856066, 48.129938531642551 ], [ -123.557954001273984, 48.130088363330245 ], [ -123.553713808002669, 48.130262374388636 ], [ -123.553128295167866, 48.130188441623886 ], [ -123.553436433848347, 48.130056479535142 ], [ -123.55393839284514, 48.129823804781957 ], [ -123.554120667058072, 48.129715473069837 ], [ -123.554135948269803, 48.129706689700875 ], [ -123.555408864117126, 48.129535372869228 ], [ -123.556641059768367, 48.129224674107434 ], [ -123.55677128651557, 48.129198678025432 ], [ -123.559664576364597, 48.129243447426397 ] ] ] ] } },
{ "type": "Feature", "properties": { "id": 1, "id_2": 1 }, "geometry": { "type": "MultiPolygon", "coordinates": [ [ [ [ -123.558280994942663, 48.130639391051574 ], [ -123.558078291890354, 48.130978085049328 ], [ -123.558010501884937, 48.131070516799966 ], [ -123.558151737247201, 48.131407540499559 ], [ -123.556752542337094, 48.131368275756351 ], [ -123.55504958191834, 48.131443604094684 ], [ -123.555028314414969, 48.130868623561589 ], [ -123.555196559201448, 48.130388937893748 ], [ -123.556679220629064, 48.130185863381236 ], [ -123.555606360811979, 48.130198310555606 ], [ -123.554374447943715, 48.130538019388545 ], [ -123.553563403678183, 48.130708808646276 ], [ -123.552106682395191, 48.13157371961907 ], [ -123.551687269057169, 48.13159225711243 ], [ -123.55125177159978, 48.131609697174135 ], [ -123.551227199219042, 48.131456310733739 ], [ -123.551317109867526, 48.131287024742157 ], [ -123.551528065417742, 48.131079082315402 ], [ -123.552266982924266, 48.130591820286689 ], [ -123.552546406637717, 48.130452197984717 ], [ -123.553162853417888, 48.130203625732989 ], [ -123.553782759929945, 48.130277392603688 ], [ -123.555868301765045, 48.130175222060089 ], [ -123.557885214662008, 48.130088697249271 ], [ -123.558708822407269, 48.129915841614022 ], [ -123.558280994942663, 48.130639391051574 ] ] ] ] } },
{ "type": "Feature", "properties": { "id": 1, "id_2": 1 }, "geometry": { "type": "MultiPolygon", "coordinates": [ [ [ [ -123.552180571446087, 48.131529850014985 ], [ -123.551937147353669, 48.131674375953892 ], [ -123.551812764932905, 48.132204635674562 ], [ -123.551903746564449, 48.132603259541661 ], [ -123.552761747788026, 48.133093129878752 ], [ -123.550834332102141, 48.133315596009233 ], [ -123.55074162588663, 48.133223937736361 ], [ -123.550599941549251, 48.132840855950313 ], [ -123.550618769019493, 48.132457005090863 ], [ -123.550586336066928, 48.132171930967374 ], [ -123.550614304414694, 48.131929204168586 ], [ -123.550680089649731, 48.131811069566979 ], [ -123.550831169087061, 48.13166989377509 ], [ -123.551297137841871, 48.131563428283457 ], [ -123.552180571446087, 48.131529850014985 ] ] ], [ [ [ -123.556844094162187, 48.131352481789307 ], [ -123.558083115198727, 48.131423224167953 ], [ -123.558093427491684, 48.132374900786871 ], [ -123.558923900753712, 48.13283137796887 ], [ -123.557938904579942, 48.132928266454961 ], [ -123.555898904840546, 48.1329777443487 ], [ -123.555251754989328, 48.132492810107181 ], [ -123.5550589037083, 48.13169562009643 ], [ -123.555048737955389, 48.131420787291596 ], [ -123.556844094162187, 48.131352481789307 ] ] ] ] } },
{ "type": "Feature", "properties": { "id": 1, "id_2": 1 }, "geometry": { "type": "MultiPolygon", "coordinates": [ [ [ [ -123.552048158835788, 48.133171618257293 ], [ -123.552743433788791, 48.133082673782695 ], [ -123.553037938680816, 48.133250815944905 ], [ -123.553929731460627, 48.133529491580376 ], [ -123.556220463127048, 48.133778137547495 ], [ -123.555685845971013, 48.134112349668357 ], [ -123.556218111999016, 48.134218609699346 ], [ -123.556349778477568, 48.134326360055795 ], [ -123.555615430745917, 48.134367111888821 ], [ -123.554791576009379, 48.134524595914925 ], [ -123.554330810934218, 48.134327263661639 ], [ -123.553617481814953, 48.134100445565899 ], [ -123.553313071264114, 48.134131052961642 ], [ -123.55325600089526, 48.134131327698974 ], [ -123.552493878649315, 48.134105852366012 ], [ -123.551758452277326, 48.133955881072687 ], [ -123.551115575873126, 48.133673422401024 ], [ -123.550905624087719, 48.133473492613788 ], [ -123.550788143112655, 48.133285116520625 ], [ -123.552048158835788, 48.133171618257293 ] ] ], [ [ [ -123.558053388929224, 48.132912360202127 ], [ -123.558602879510886, 48.132832938680551 ], [ -123.558969094548345, 48.132769756464214 ], [ -123.559015287885813, 48.132800232650567 ], [ -123.559244421937507, 48.132783767508329 ], [ -123.559748716514136, 48.13276596212873 ], [ -123.560413521038086, 48.13274737199049 ], [ -123.560965848348403, 48.132928882623816 ], [ -123.561382773435241, 48.133310607615826 ], [ -123.561708485124143, 48.133738828181258 ], [ -123.561689070287571, 48.134061282017193 ], [ -123.56106994337371, 48.13406430611073 ], [ -123.559400805578548, 48.134156995693203 ], [ -123.559088214939038, 48.134008781391287 ], [ -123.557727502172384, 48.133471218888452 ], [ -123.556845967412968, 48.133510565698472 ], [ -123.556614925453218, 48.133262570839584 ], [ -123.556136860435117, 48.133156050379654 ], [ -123.555888856627192, 48.132970214934822 ], [ -123.558053388929224, 48.132912360202127 ] ] ] ] } },
{ "type": "Feature", "properties": { "id": 1, "id_2": 1 }, "geometry": { "type": "MultiPolygon", "coordinates": [ [ [ [ -123.554905237933738, 48.134431944662673 ], [ -123.555683726223734, 48.134320730438446 ], [ -123.556315400247314, 48.134298226404013 ], [ -123.556808652439216, 48.134701878634573 ], [ -123.557564849653645, 48.135467311205126 ], [ -123.558043608331531, 48.136055235906156 ], [ -123.557055569120138, 48.136064037603141 ], [ -123.556481617225089, 48.136005416315626 ], [ -123.556411164181057, 48.13585225321949 ], [ -123.556050175490626, 48.135643887442626 ], [ -123.555925752436863, 48.135250326113578 ], [ -123.55518464502515, 48.13487661481139 ], [ -123.555005877283463, 48.134780812730099 ], [ -123.554768479798398, 48.134509356978036 ], [ -123.554905237933738, 48.134431944662673 ] ] ], [ [ [ -123.560680456897074, 48.134096907679194 ], [ -123.561665804850676, 48.134030694864641 ], [ -123.56164454823822, 48.134184302999259 ], [ -123.561901475079665, 48.134612859073634 ], [ -123.562134302304429, 48.134934079455228 ], [ -123.562436428836037, 48.135301011514692 ], [ -123.562506731334722, 48.135438821262504 ], [ -123.562189883309628, 48.135824132097419 ], [ -123.561412558151829, 48.136042837618625 ], [ -123.56083910323774, 48.136030286921589 ], [ -123.560373319966018, 48.136034448624876 ], [ -123.560579948861459, 48.1356267802405 ], [ -123.560779962353052, 48.135081630978469 ], [ -123.56033028326155, 48.134597695785772 ], [ -123.55941038538451, 48.134161537914324 ], [ -123.560680456897074, 48.134096907679194 ] ] ] ] } },
{ "type": "Feature", "properties": { "id": 1, "id_2": 1 }, "geometry": { "type": "MultiPolygon", "coordinates": [ [ [ [ -123.558030117965217, 48.136038669694656 ], [ -123.558223990057357, 48.13627674403434 ], [ -123.558424914820449, 48.136812685726326 ], [ -123.558854019461961, 48.137398307253484 ], [ -123.558980339727199, 48.138050700909425 ], [ -123.559251955300013, 48.138107424734741 ], [ -123.559869723259851, 48.138097161459598 ], [ -123.56015986183553, 48.137863567162704 ], [ -123.559794669706221, 48.137176060242211 ], [ -123.56036443299584, 48.136051982016227 ], [ -123.561435657008957, 48.136058075205803 ], [ -123.561391969354347, 48.136257844069299 ], [ -123.561121640565219, 48.136704326333629 ], [ -123.561264919682429, 48.137225540944819 ], [ -123.561460928348083, 48.138375864776577 ], [ -123.560453232719055, 48.138503586336675 ], [ -123.558988544972465, 48.13878702669593 ], [ -123.558737366321012, 48.138511381800136 ], [ -123.558450388991758, 48.138162111750177 ], [ -123.557338296099729, 48.13661253994534 ], [ -123.557078168553574, 48.136033227227848 ], [ -123.558030117965217, 48.136038669694656 ] ] ] ] } },
{ "type": "Feature", "properties": { "id": 1, "id_2": 1 }, "geometry": { "type": "MultiPolygon", "coordinates": [ [ [ [ -123.560407534560866, 48.138519159579282 ], [ -123.561415063254358, 48.138376088821786 ], [ -123.561782653853982, 48.138435694330603 ], [ -123.562243484123798, 48.138632996310413 ], [ -123.562773954970595, 48.138906707532477 ], [ -123.563235296946374, 48.139150054259737 ], [ -123.563948065581627, 48.139315413668122 ], [ -123.564692602010865, 48.139523167152397 ], [ -123.564742409219264, 48.139589751604426 ], [ -123.565028690214291, 48.139617346267279 ], [ -123.564047364055597, 48.140005694919772 ], [ -123.5621893882997, 48.14059416727698 ], [ -123.561890064410704, 48.140459897175859 ], [ -123.561342611035911, 48.139961933012685 ], [ -123.56098426504694, 48.139905637489989 ], [ -123.560528835680842, 48.139893348208616 ], [ -123.560183462057282, 48.140032889236721 ], [ -123.560044280502325, 48.140193191614784 ], [ -123.559768076975729, 48.140380768652804 ], [ -123.559700364436367, 48.140380056677238 ], [ -123.559489466562013, 48.140214047853327 ], [ -123.559553442799171, 48.140119763643447 ], [ -123.559685703555999, 48.139627906549983 ], [ -123.55901147771192, 48.138786915159052 ], [ -123.560407534560866, 48.138519159579282 ] ] ] ] } },
{ "type": "Feature", "properties": { "id": 1, "id_2": 1 }, "geometry": { "type": "MultiPolygon", "coordinates": [ [ [ [ -123.564116332013796, 48.140020706846251 ], [ -123.565006518478199, 48.139632573946706 ], [ -123.565283063716052, 48.139754017440126 ], [ -123.565651687816583, 48.13984286258215 ], [ -123.566107016879357, 48.14026482244477 ], [ -123.56630157604603, 48.140608626582065 ], [ -123.56635166414037, 48.14099214001034 ], [ -123.566264993925387, 48.141453079294337 ], [ -123.565943919335112, 48.14145466072091 ], [ -123.563635611385891, 48.142084404567782 ], [ -123.564678527640609, 48.141672434430475 ], [ -123.564772529301109, 48.141495382455524 ], [ -123.564888001177025, 48.141435596801088 ], [ -123.564886305910747, 48.141281082672187 ], [ -123.564933437286228, 48.141192309535846 ], [ -123.564883529143259, 48.141027992881078 ], [ -123.564882429115542, 48.140927729366098 ], [ -123.564818066964079, 48.140812464748677 ], [ -123.564730994989262, 48.140525785466373 ], [ -123.564555472565104, 48.140485416913407 ], [ -123.564519617920865, 48.140465150921479 ], [ -123.564417685742939, 48.140453726971174 ], [ -123.564144128967243, 48.140390810344691 ], [ -123.56382796761811, 48.140410577228899 ], [ -123.563825228291009, 48.140410514292078 ], [ -123.563824164707754, 48.140410814987206 ], [ -123.563136653803525, 48.140453796129492 ], [ -123.562965873361065, 48.140664606763202 ], [ -123.562734204880215, 48.140764132000847 ], [ -123.562465345558437, 48.140961350340191 ], [ -123.562449826605928, 48.140977939121605 ], [ -123.562300608477784, 48.14092891238186 ], [ -123.562402076097143, 48.140689573432468 ], [ -123.562189779984223, 48.14059434297706 ], [ -123.564116332013796, 48.140020706846251 ] ] ] ] } },
{ "type": "Feature", "properties": { "id": 1, "id_2": 1 }, "geometry": { "type": "MultiPolygon", "coordinates": [ [ [ [ -123.565926634549939, 48.141447070626555 ], [ -123.56625959808899, 48.14148380669333 ], [ -123.566124695084085, 48.14173007776219 ], [ -123.565786082500765, 48.142222958119717 ], [ -123.565464457410741, 48.142487821203709 ], [ -123.565414140510526, 48.1425177277942 ], [ -123.565106300909292, 48.143114204103391 ], [ -123.564869358027323, 48.143254665970758 ], [ -123.564708238626196, 48.143279761539311 ], [ -123.563634507911416, 48.143668792047094 ], [ -123.563649672558114, 48.144006426488851 ], [ -123.563618546908373, 48.1443059119159 ], [ -123.56200471640193, 48.144597796746162 ], [ -123.561921008149156, 48.144283522857769 ], [ -123.561791095857885, 48.143938773940341 ], [ -123.561750509298889, 48.143938972313741 ], [ -123.561731833020787, 48.143841798235194 ], [ -123.561737997161387, 48.143774215630422 ], [ -123.561757430394138, 48.143703816033913 ], [ -123.561814322116504, 48.143453218486655 ], [ -123.561897522658583, 48.143129935910842 ], [ -123.561848701822171, 48.142976898876412 ], [ -123.562532512513499, 48.142706002838274 ], [ -123.563469590762693, 48.142149984133766 ], [ -123.56354311804688, 48.142120940277842 ], [ -123.565926634549939, 48.141447070626555 ] ] ] ] } }
]
}
