{
"type": "FeatureCollection",
"name": "LR_budget_reaches",
"crs": { "type": "name", "properties": { "name": "urn:ogc:def:crs:EPSG::6339" } },
"features": [
{ "type": "Feature", "properties": { "id": 1 }, "geometry": { "type": "MultiPolygon", "coordinates": [ [ [ [ 458615.329954181448556, 5327124.569640149362385 ], [ 458546.656723076943308, 5327111.133573194034398 ], [ 458555.18755923898425, 5327145.896730555221438 ], [ 458530.234863465011586, 5327194.095954869873822 ], [ 458582.272964053496253, 5327209.664730866439641 ], [ 458601.680616322148126, 5327192.816329445689917 ], [ 458611.704348812578246, 5327174.475031697191298 ], [ 458605.519492595107295, 5327153.36121219675988 ], [ 458608.292014347738586, 5327136.086268968880177 ], [ 458615.329954181448556, 5327124.569640149362385 ] ] ] ] } },
{ "type": "Feature", "properties": { "id": 1 }, "geometry": { "type": "MultiPolygon", "coordinates": [ [ [ [ 458530.341498916968703, 5327193.989319417625666 ], [ 458519.571318262373097, 5327210.197908124886453 ], [ 458505.495438595011365, 5327241.122189211659133 ], [ 458492.059371639799792, 5327269.060677642934024 ], [ 458540.6851377634448, 5327291.45412256848067 ], [ 458552.841579294356052, 5327282.07020279020071 ], [ 458566.064375345536973, 5327251.14592170342803 ], [ 458571.502783398842439, 5327224.5936941485852 ], [ 458582.486234957468696, 5327209.664730865508318 ], [ 458530.341498916968703, 5327193.989319417625666 ] ] ] ] } },
{ "type": "Feature", "properties": { "id": 1 }, "geometry": { "type": "MultiPolygon", "coordinates": [ [ [ [ 458492.059371639799792, 5327268.740771286189556 ], [ 458460.282006936147809, 5327315.660370177589357 ], [ 458453.030796198407188, 5327335.707835158333182 ], [ 458445.992856364755426, 5327342.745774992741644 ], [ 458493.765538872219622, 5327361.08707274030894 ], [ 458504.002542266622186, 5327334.854751542210579 ], [ 458519.144776454253588, 5327312.887848424725235 ], [ 458527.675612616294529, 5327303.503928646445274 ], [ 458541.538221379625611, 5327291.774028924293816 ], [ 458492.059371639799792, 5327268.740771286189556 ] ] ] ] } },
{ "type": "Feature", "properties": { "id": 1 }, "geometry": { "type": "MultiPolygon", "coordinates": [ [ [ [ 458446.206127268611453, 5327342.745774992741644 ], [ 458425.305578671570402, 5327374.309868792071939 ], [ 458415.281846181140281, 5327424.428531244397163 ], [ 458412.50932442850899, 5327429.973574749194086 ], [ 458466.680134057474788, 5327444.902538033202291 ], [ 458480.54274282080587, 5327402.888169934973121 ], [ 458486.727599038276821, 5327384.1203303784132 ], [ 458492.485913447686471, 5327364.072865397669375 ], [ 458493.978809776017442, 5327361.300343644805253 ], [ 458446.206127268611453, 5327342.745774992741644 ] ] ] ] } },
{ "type": "Feature", "properties": { "id": 1 }, "geometry": { "type": "MultiPolygon", "coordinates": [ [ [ [ 458466.680134057532996, 5327444.689267129637301 ], [ 458412.935866236628499, 5327429.973574750125408 ], [ 458404.618300978618208, 5327438.717681815847754 ], [ 458403.978488266468048, 5327447.675059786066413 ], [ 458401.845779225986917, 5327477.106444545090199 ], [ 458399.926341089478228, 5327486.277093419805169 ], [ 458400.139611993567087, 5327491.39559511654079 ], [ 458402.272321034048218, 5327508.670538344420493 ], [ 458401.419237417867407, 5327529.997628750279546 ], [ 458462.201445072423667, 5327538.101923104375601 ], [ 458461.988174168393016, 5327527.438377900980413 ], [ 458464.973966825113166, 5327510.589976481162012 ], [ 458456.656401567102876, 5327503.552036647684872 ], [ 458457.082943375222385, 5327492.888491445221007 ], [ 458466.680134057532996, 5327444.689267129637301 ] ] ] ] } },
{ "type": "Feature", "properties": { "id": 1 }, "geometry": { "type": "MultiPolygon", "coordinates": [ [ [ [ 458462.201445072540082, 5327537.888652198947966 ], [ 458401.632508322014473, 5327530.424170556478202 ], [ 458402.272321034164634, 5327547.912384688854218 ], [ 458404.831571882765274, 5327566.680224245414138 ], [ 458415.495117085345555, 5327606.348612398840487 ], [ 458419.333993358246516, 5327612.746739520691335 ], [ 458425.305578671686817, 5327630.44822455663234 ], [ 458480.329471916891634, 5327614.879448560997844 ], [ 458474.357886603451334, 5327611.680385 ], [ 458469.879197618342005, 5327605.282257879152894 ], [ 458462.414715976570733, 5327588.007314650341868 ], [ 458461.348361456301063, 5327567.959849669598043 ], [ 458462.201445072540082, 5327537.888652198947966 ] ] ] ] } },
{ "type": "Feature", "properties": { "id": 1 }, "geometry": { "type": "MultiPolygon", "coordinates": [ [ [ [ 458480.329471916891634, 5327615.305990369059145 ], [ 458424.239224151417147, 5327630.44822455663234 ], [ 458425.732120479748119, 5327632.154391789808869 ], [ 458434.476227545877919, 5327641.964853376150131 ], [ 458436.182394778297748, 5327651.348773154430091 ], [ 458438.101832914748229, 5327658.813254795968533 ], [ 458449.618461733509321, 5327680.566887008957565 ], [ 458468.173030385922175, 5327704.453228263184428 ], [ 458491.632829831563868, 5327696.135663004592061 ], [ 458511.893565716454759, 5327689.524264979176223 ], [ 458507.201605827314779, 5327683.552679665386677 ], [ 458506.77506401919527, 5327676.728010736405849 ], [ 458509.547585771884769, 5327667.557361861690879 ], [ 458505.7087094989256, 5327658.173442083410919 ], [ 458497.604415145004168, 5327649.642605921253562 ], [ 458491.846100735652726, 5327643.884291511960328 ], [ 458481.609097341191955, 5327624.903181051835418 ], [ 458480.329471916891634, 5327615.305990369059145 ] ] ] ] } },
{ "type": "Feature", "properties": { "id": 1 }, "geometry": { "type": "MultiPolygon", "coordinates": [ [ [ [ 458511.680294812365901, 5327689.524264979176223 ], [ 458468.386301290011033, 5327704.239957358688116 ], [ 458468.812843098130543, 5327707.865562727674842 ], [ 458469.879197618342005, 5327719.382191546261311 ], [ 458475.210970219632145, 5327725.353776860050857 ], [ 458483.741806381673086, 5327736.870405678637326 ], [ 458498.884040569304489, 5327750.946285345591605 ], [ 458518.291692837956361, 5327774.406084791757166 ], [ 458566.064375345420558, 5327753.718807098455727 ], [ 458562.865311784669757, 5327750.306472633965313 ], [ 458554.761017430690117, 5327738.576572910882533 ], [ 458544.310743132198695, 5327728.552840420976281 ], [ 458528.528696232417133, 5327710.424813576042652 ], [ 458520.637672782526352, 5327698.481642949394882 ], [ 458511.680294812365901, 5327689.524264979176223 ] ] ] ] } },
{ "type": "Feature", "properties": { "id": 1 }, "geometry": { "type": "MultiPolygon", "coordinates": [ [ [ [ 458565.851104441273492, 5327753.505536194890738 ], [ 458518.504963741928805, 5327774.406084791757166 ], [ 458520.637672782409936, 5327776.752064736559987 ], [ 458537.912616010580678, 5327791.681028020568192 ], [ 458550.922141157672741, 5327805.330365879461169 ], [ 458574.808482411433943, 5327828.576894421130419 ], [ 458621.51481039862847, 5327802.131302318535745 ], [ 458609.358368867717218, 5327790.827944403514266 ], [ 458588.244549366645515, 5327776.112252024002373 ], [ 458565.851104441273492, 5327753.505536194890738 ] ] ] ] } },
{ "type": "Feature", "properties": { "id": 1 }, "geometry": { "type": "MultiPolygon", "coordinates": [ [ [ [ 458621.08826859050896, 5327801.918031414970756 ], [ 458574.595211507345084, 5327828.790165324695408 ], [ 458581.633151341055054, 5327835.614834254607558 ], [ 458594.855947392235976, 5327845.851837649010122 ], [ 458606.585847115027718, 5327860.780800933018327 ], [ 458630.258917464700062, 5327882.534433146007359 ], [ 458680.377579916734248, 5327850.117255730554461 ], [ 458677.818329068133608, 5327848.197817593812943 ], [ 458666.728242057433818, 5327841.586419568397105 ], [ 458654.785071430611424, 5327836.04137606266886 ], [ 458649.879840637440793, 5327827.723810805007815 ], [ 458650.946195157652255, 5327812.368305712938309 ], [ 458643.268442611850332, 5327808.102887632325292 ], [ 458621.08826859050896, 5327801.918031414970756 ] ] ] ] } },
{ "type": "Feature", "properties": { "id": 1 }, "geometry": { "type": "MultiPolygon", "coordinates": [ [ [ [ 458680.164309012587182, 5327850.117255730554461 ], [ 458630.898730176792014, 5327882.534433146007359 ], [ 458635.377419161843136, 5327887.65293484274298 ], [ 458651.586007869744208, 5327902.155356318689883 ], [ 458671.633472850546241, 5327918.363945026881993 ], [ 458688.481874270597473, 5327932.01328288577497 ], [ 458708.102797443279997, 5327947.582058881409466 ], [ 458765.046128824935295, 5327901.728814510628581 ], [ 458758.008188991283532, 5327900.449189086444676 ], [ 458747.771185596822761, 5327896.610312812961638 ], [ 458735.82801496994216, 5327888.719289363361895 ], [ 458725.164469767361879, 5327880.188453201204538 ], [ 458710.448777387849987, 5327878.05574416089803 ], [ 458694.026917775918264, 5327864.406406302005053 ], [ 458680.164309012587182, 5327850.117255730554461 ] ] ] ] } },
{ "type": "Feature", "properties": { "id": 1 }, "geometry": { "type": "MultiPolygon", "coordinates": [ [ [ [ 458764.832857920962851, 5327902.155356319621205 ], [ 458708.102797443396412, 5327947.582058883272111 ], [ 458769.311546906072181, 5328004.098848456516862 ], [ 458787.866115558485035, 5327990.022968789562583 ], [ 458809.406476867676247, 5327944.169724417850375 ], [ 458818.577125741867349, 5327910.472921578213573 ], [ 458808.340122347406577, 5327905.14114897698164 ], [ 458795.330597200314514, 5327903.008439936675131 ], [ 458784.453781093703583, 5327895.970500102266669 ], [ 458776.136215835693292, 5327896.823583718389273 ], [ 458764.832857920962851, 5327902.155356319621205 ] ] ] ] } },
{ "type": "Feature", "properties": { "id": 1 }, "geometry": { "type": "MultiPolygon", "coordinates": [ [ [ [ 458818.363854837836698, 5327910.046379769220948 ], [ 458809.406476867676247, 5327944.169724417850375 ], [ 458810.046289579826407, 5327944.169724417850375 ], [ 458788.505928270693403, 5327989.809697885066271 ], [ 458769.09827600204153, 5328004.312119360081851 ], [ 458798.103118953004014, 5328034.170045927166939 ], [ 458824.335440151276998, 5328004.312119360081851 ], [ 458848.221781404979993, 5327921.136466780677438 ], [ 458855.259721238689963, 5327897.676667334511876 ], [ 458847.581968692829832, 5327898.956292758695781 ], [ 458818.363854837836698, 5327910.046379769220948 ] ] ] ] } },
{ "type": "Feature", "properties": { "id": 1 }, "geometry": { "type": "MultiPolygon", "coordinates": [ [ [ [ 458854.833179430570453, 5327896.823583718389273 ], [ 458855.259721238689963, 5327898.103209142573178 ], [ 458824.548711055307649, 5328004.738661168143153 ], [ 458797.889848048915155, 5328034.170045927166939 ], [ 458833.932630833529402, 5328059.122741701081395 ], [ 458841.183841571270023, 5328051.658260059542954 ], [ 458879.146062492392957, 5327959.738500413484871 ], [ 458893.008671255724039, 5327891.49181111715734 ], [ 458854.833179430570453, 5327896.823583718389273 ] ] ] ] } },
{ "type": "Feature", "properties": { "id": 1 }, "geometry": { "type": "MultiPolygon", "coordinates": [ [ [ [ 458893.648483967699576, 5327890.851998406462371 ], [ 458879.572604300337844, 5327959.525229510851204 ], [ 458842.036925187334418, 5328051.658260060474277 ], [ 458834.359172641474288, 5328059.762554414570332 ], [ 458864.217099208617583, 5328081.942728435620666 ], [ 458945.260042748064734, 5327958.245604086667299 ], [ 458964.454424112685956, 5327942.463557186536491 ], [ 458958.909380607306957, 5327931.800011984072626 ], [ 458941.847708283225074, 5327913.885256043635309 ], [ 458919.66753426194191, 5327900.235918184742332 ], [ 458893.648483967699576, 5327890.851998406462371 ] ] ] ] } },
{ "type": "Feature", "properties": { "id": 1 }, "geometry": { "type": "MultiPolygon", "coordinates": [ [ [ [ 458964.880965920805465, 5327942.890098992735147 ], [ 458946.113126364303753, 5327956.965978660620749 ], [ 458917.534825221460778, 5328000.473243086598814 ], [ 458864.217099208675791, 5328081.942728434689343 ], [ 458880.425687916518655, 5328094.738982677459717 ], [ 458902.605861937860027, 5328123.317283820360899 ], [ 458940.568082858982962, 5328100.710567990317941 ], [ 458936.729206586023793, 5328069.573015999048948 ], [ 458950.378544445324223, 5328053.364427291788161 ], [ 458949.952002637204714, 5328029.478086037561297 ], [ 458949.952002637204714, 5327999.62015947047621 ], [ 458961.468631455965806, 5327982.558487146161497 ], [ 458972.985260274726897, 5327960.378313125111163 ], [ 458964.880965920805465, 5327942.890098992735147 ] ] ] ] } },
{ "type": "Feature", "properties": { "id": 1 }, "geometry": { "type": "MultiPolygon", "coordinates": [ [ [ [ 458941.421166474930942, 5328100.71056798659265 ], [ 458903.458945553866215, 5328123.317283815704286 ], [ 458905.165112786286045, 5328130.141952745616436 ], [ 458913.269407140207477, 5328174.502300787717104 ], [ 458921.373701494128909, 5328235.924321155063808 ], [ 458929.477995848108549, 5328267.914956762455404 ], [ 458975.544511123152915, 5328264.929164106026292 ], [ 458954.217420717992354, 5328164.26529739331454 ], [ 458941.421166474930942, 5328100.71056798659265 ] ] ] ] } },
{ "type": "Feature", "properties": { "id": 1 }, "geometry": { "type": "MultiPolygon", "coordinates": [ [ [ [ 458977.250678355630953, 5328264.502622297033668 ], [ 458929.051454040047247, 5328268.341498570516706 ], [ 458926.065661383327097, 5328316.540722886100411 ], [ 458934.169955737306736, 5328369.005365282297134 ], [ 458993.032725255412515, 5328362.180696352384984 ], [ 458977.250678355630953, 5328264.502622297033668 ] ] ] ] } },
{ "type": "Feature", "properties": { "id": 1 }, "geometry": { "type": "MultiPolygon", "coordinates": [ [ [ [ 458992.819454351440072, 5328361.967425447888672 ], [ 458934.169955737364944, 5328368.792094377800822 ], [ 458942.700791899405885, 5328407.180857107043266 ], [ 458945.473313652095385, 5328466.896710241213441 ], [ 459023.957006342883687, 5328459.858770407736301 ], [ 459026.516257191542536, 5328435.972429153509438 ], [ 459009.667855771491304, 5328398.43675004132092 ], [ 458992.819454351440072, 5328361.967425447888672 ] ] ] ] } },
{ "type": "Feature", "properties": { "id": 1 }, "geometry": { "type": "MultiPolygon", "coordinates": [ [ [ [ 458946.113126364245545, 5328467.10998114477843 ], [ 458946.966209980426356, 5328488.223800645209849 ], [ 458941.207895571074914, 5328506.565098393708467 ], [ 458948.885648116876837, 5328554.124509997665882 ], [ 458950.165273541235365, 5328565.001326103694737 ], [ 459028.009153519873507, 5328559.029740790836513 ], [ 459058.506892799166963, 5328555.830677229911089 ], [ 459044.217742227774579, 5328488.650342454202473 ], [ 459030.568404368474148, 5328459.218957694247365 ], [ 458946.113126364245545, 5328467.10998114477843 ] ] ] ] } },
{ "type": "Feature", "properties": { "id": 1 }, "geometry": { "type": "MultiPolygon", "coordinates": [ [ [ [ 458949.952002637204714, 5328564.574784296564758 ], [ 458943.553875515644904, 5328595.072523575276136 ], [ 458948.459106308815535, 5328629.835680935531855 ], [ 458964.241153208597098, 5328664.812109200283885 ], [ 459078.980899588146713, 5328648.603520492091775 ], [ 459059.14670551137533, 5328613.200550420209765 ], [ 459052.74857838981552, 5328586.968229221180081 ], [ 459053.81493291008519, 5328567.773847856558859 ], [ 459058.080350991105661, 5328555.617406326346099 ], [ 458949.952002637204714, 5328564.574784296564758 ] ] ] ] } },
{ "type": "Feature", "properties": { "id": 1 }, "geometry": { "type": "MultiPolygon", "coordinates": [ [ [ [ 459078.980899588088505, 5328648.176978685893118 ], [ 458964.880965920747258, 5328665.238651010207832 ], [ 458970.639280330156907, 5328689.338263167999685 ], [ 458964.880965920747258, 5328711.94497899711132 ], [ 459027.795882615842856, 5328740.949821948073804 ], [ 459104.573408074269537, 5328766.755601339042187 ], [ 459119.715642261900939, 5328750.760283534415066 ], [ 459120.142184069962241, 5328730.499547650106251 ], [ 459111.184806099859998, 5328704.907039163634181 ], [ 459094.549675583839417, 5328654.575105807743967 ], [ 459088.364819366368465, 5328651.802584054879844 ], [ 459078.980899588088505, 5328648.176978685893118 ] ] ] ] } },
{ "type": "Feature", "properties": { "id": 1 }, "geometry": { "type": "MultiPolygon", "coordinates": [ [ [ [ 458965.307507728692144, 5328712.584791706874967 ], [ 458945.899855460040271, 5328727.940296798013151 ], [ 458924.999306862999219, 5328739.670196521095932 ], [ 458905.591654594347347, 5328752.466450763866305 ], [ 459011.587293907767162, 5328833.082852494902909 ], [ 459054.241474718030076, 5328800.23913327138871 ], [ 459074.50221060286276, 5328779.55185557808727 ], [ 459097.748739144473802, 5328766.115788623690605 ], [ 459100.521260897105094, 5328765.262705006636679 ], [ 459027.795882615668233, 5328741.589634657837451 ], [ 458965.734049536811654, 5328712.798062610439956 ], [ 458965.307507728692144, 5328712.584791706874967 ] ] ] ] } },
{ "type": "Feature", "properties": { "id": 1 }, "geometry": { "type": "MultiPolygon", "coordinates": [ [ [ [ 459011.587293907534331, 5328832.443039783276618 ], [ 458904.525300073903054, 5328751.400096244178712 ], [ 458890.022878598421812, 5328767.6086849514395 ], [ 458843.103279707138427, 5328793.20119343791157 ], [ 458899.406798376643565, 5328891.305809301324189 ], [ 458950.591815348947421, 5328858.462090077809989 ], [ 458958.269567894749343, 5328858.035548269748688 ], [ 459011.587293907534331, 5328832.443039783276618 ] ] ] ] } },
{ "type": "Feature", "properties": { "id": 1 }, "geometry": { "type": "MultiPolygon", "coordinates": [ [ [ [ 458900.686423800943885, 5328891.73235110938549 ], [ 458843.956363323377445, 5328793.20119343791157 ], [ 458808.12685144279385, 5328816.660992883145809 ], [ 458784.240510189032648, 5328842.680043177679181 ], [ 458742.439412995008752, 5328878.936096866615117 ], [ 458719.406155357486568, 5328927.135321182198822 ], [ 458826.894690999295563, 5328980.879589002579451 ], [ 458849.074865020578727, 5328954.860538708977401 ], [ 458876.373540739121381, 5328926.708779374137521 ], [ 458900.686423800943885, 5328891.73235110938549 ] ] ] ] } },
{ "type": "Feature", "properties": { "id": 1 }, "geometry": { "type": "MultiPolygon", "coordinates": [ [ [ [ 458826.894690999179147, 5328980.453047193586826 ], [ 458718.979613549308851, 5328927.135321180336177 ], [ 458714.287653660168871, 5328931.827281069941819 ], [ 458699.785232184687629, 5328958.699414980597794 ], [ 458692.960563255066518, 5328981.30613080970943 ], [ 458696.372897719906177, 5329017.988726306706667 ], [ 458709.169151962967589, 5329046.140485641546547 ], [ 458746.278289267851505, 5329110.121756856329739 ], [ 458797.889848048216663, 5329082.396539330482483 ], [ 458797.463306240097154, 5329076.851495824754238 ], [ 458785.520135613274761, 5329067.467576046474278 ], [ 458782.107801148435101, 5329061.922532540746033 ], [ 458796.610222623916343, 5329035.476940439082682 ], [ 458826.894690999179147, 5328980.453047193586826 ] ] ] ] } },
{ "type": "Feature", "properties": { "id": 1 }, "geometry": { "type": "MultiPolygon", "coordinates": [ [ [ [ 458798.742931664339267, 5329081.969997522421181 ], [ 458745.425205651554279, 5329110.121756857261062 ], [ 458768.885005097195972, 5329159.174064788967371 ], [ 458785.946677421277855, 5329184.340031467378139 ], [ 458811.112644099281169, 5329223.581877812743187 ], [ 458870.828497233625967, 5329198.84245294239372 ], [ 458861.444577455346007, 5329187.752365931868553 ], [ 458850.354490444704425, 5329160.880232021212578 ], [ 458829.880483655782882, 5329135.714265343733132 ], [ 458803.434891553479247, 5329104.576713351532817 ], [ 458798.742931664339267, 5329081.969997522421181 ] ] ] ] } },
{ "type": "Feature", "properties": { "id": 1 }, "geometry": { "type": "MultiPolygon", "coordinates": [ [ [ [ 458869.975413617386948, 5329198.415911135263741 ], [ 458811.965727715461981, 5329223.155336004681885 ], [ 458811.965727715461981, 5329237.657757480628788 ], [ 458791.918262734659947, 5329255.999055229127407 ], [ 458794.050971775199287, 5329261.117556925863028 ], [ 458800.02255708858138, 5329291.828567109070718 ], [ 458824.761981958523393, 5329312.72911570686847 ], [ 458867.416162768786307, 5329307.610614009201527 ], [ 458906.231467306090053, 5329298.653236038982868 ], [ 458930.970892176032066, 5329293.961276150308549 ], [ 458920.307346973451786, 5329279.458854674361646 ], [ 458910.070343578991015, 5329275.619978401809931 ], [ 458910.070343578991015, 5329261.117556925863028 ], [ 458893.008671254909132, 5329250.454011723399162 ], [ 458884.051293284748681, 5329232.539255782961845 ], [ 458869.975413617386948, 5329198.415911135263741 ] ] ] ] } },
{ "type": "Feature", "properties": { "id": 1 }, "geometry": { "type": "MultiPolygon", "coordinates": [ [ [ [ 458930.544350367912557, 5329293.53473433945328 ], [ 458907.511092730390374, 5329299.506319653242826 ], [ 458868.269246384967119, 5329308.037155815400183 ], [ 458840.970570666424464, 5329310.169864855706692 ], [ 458823.908898342342582, 5329314.00874112918973 ], [ 458798.316389856219757, 5329290.548941683024168 ], [ 458791.918262734659947, 5329303.771737733855844 ], [ 458775.709674026817083, 5329325.9519117558375 ], [ 458759.927627127035521, 5329360.501798211596906 ], [ 458770.164630521496292, 5329366.046841717325151 ], [ 458879.78587520372821, 5329372.018427031114697 ], [ 458954.00414981355425, 5329366.473383525386453 ], [ 458961.255360551294871, 5329366.046841717325151 ], [ 458961.255360551294871, 5329339.601249614730477 ], [ 458951.444898964953609, 5329330.217329836450517 ], [ 458943.340604610973969, 5329314.435282937251031 ], [ 458939.501728338073008, 5329301.639028693549335 ], [ 458930.544350367912557, 5329293.53473433945328 ] ] ] ] } },
{ "type": "Feature", "properties": { "id": 1 }, "geometry": { "type": "MultiPolygon", "coordinates": [ [ [ [ 458960.828818743291777, 5329365.620299910195172 ], [ 458954.004149813670665, 5329367.326467142440379 ], [ 458878.506249779602513, 5329372.01842703204602 ], [ 458768.458463289192878, 5329364.767216294072568 ], [ 458759.927627127151936, 5329360.501798212528229 ], [ 458747.984456500271335, 5329383.535055850632489 ], [ 458710.875319195387419, 5329442.824367176741362 ], [ 458730.496242368069943, 5329444.530534408986568 ], [ 458843.529821515199728, 5329447.942868873476982 ], [ 458991.113287118554581, 5329461.16566492523998 ], [ 458980.876283724152017, 5329427.895403892733157 ], [ 458960.828818743291777, 5329365.620299910195172 ] ] ] ] } },
{ "type": "Feature", "properties": { "id": 1 }, "geometry": { "type": "MultiPolygon", "coordinates": [ [ [ [ 458990.26020350237377, 5329460.312581309117377 ], [ 458967.653487672971096, 5329459.886039501056075 ], [ 458843.103279707080219, 5329447.942868873476982 ], [ 458733.482035024790093, 5329445.810159833170474 ], [ 458709.169151962967589, 5329442.824367176741362 ], [ 458708.74261015484808, 5329444.95707621704787 ], [ 458712.15494461968774, 5329476.094628208316863 ], [ 458704.050650265766308, 5329491.450133300386369 ], [ 458688.695145174046047, 5329521.308059867471457 ], [ 458718.979613549192436, 5329539.222815807908773 ], [ 458962.961527783831116, 5329549.033277394250035 ], [ 458978.743574683612678, 5329525.573477948084474 ], [ 458993.67253796721343, 5329487.184715219773352 ], [ 458990.26020350237377, 5329460.312581309117377 ] ] ] ] } },
{ "type": "Feature", "properties": { "id": 1 }, "geometry": { "type": "MultiPolygon", "coordinates": [ [ [ [ 458688.695145173929632, 5329520.881518059410155 ], [ 458678.031599971407559, 5329541.355524848215282 ], [ 458654.571800525765866, 5329568.227658758871257 ], [ 458643.481713515124284, 5329597.232501709833741 ], [ 458670.353847425547428, 5329603.630628830753267 ], [ 458837.984778009762522, 5329634.768180822953582 ], [ 458855.046450333844405, 5329642.872475176118314 ], [ 458864.003828304004855, 5329634.768180822953582 ], [ 458904.525300073670223, 5329635.621264439076185 ], [ 458913.056136235769372, 5329613.014548609033227 ], [ 458916.895012508670334, 5329590.407832779921591 ], [ 458920.307346973509993, 5329581.450454809702933 ], [ 458940.354811954312027, 5329572.493076839484274 ], [ 458949.738731732533779, 5329568.654200566932559 ], [ 458958.69610970269423, 5329559.270280788652599 ], [ 458963.814611399895512, 5329549.033277394250035 ], [ 458809.833018674980849, 5329542.208608464337885 ], [ 458719.406155357311945, 5329539.649357615970075 ], [ 458688.695145173929632, 5329520.881518059410155 ] ] ] ] } },
{ "type": "Feature", "properties": { "id": 1 }, "geometry": { "type": "MultiPolygon", "coordinates": [ [ [ [ 458854.193366717605386, 5329642.019391559995711 ], [ 458836.705152585462201, 5329634.341639013960958 ], [ 458817.510771220840979, 5329631.355846357531846 ], [ 458669.500763809366617, 5329604.48371244687587 ], [ 458643.481713515124284, 5329596.379418093711138 ], [ 458627.273124807223212, 5329626.237344660796225 ], [ 458612.344161523622461, 5329656.521813035942614 ], [ 458608.931827058841009, 5329680.834696097299457 ], [ 458820.07002206944162, 5329710.692622664384544 ], [ 458832.439734504441731, 5329699.175993845798075 ], [ 458837.984778009762522, 5329678.275445248931646 ], [ 458850.354490444704425, 5329655.668729419820011 ], [ 458854.193366717605386, 5329642.019391559995711 ] ] ] ] } },
{ "type": "Feature", "properties": { "id": 1 }, "geometry": { "type": "MultiPolygon", "coordinates": [ [ [ [ 458821.77618930186145, 5329710.692622664384544 ], [ 458608.931827058841009, 5329679.981612481176853 ], [ 458603.386783553520218, 5329706.000662774778903 ], [ 458594.429405583359767, 5329777.65968653652817 ], [ 458794.477513583318796, 5329786.190522698685527 ], [ 458796.183680815738626, 5329770.83501760661602 ], [ 458809.406476866919547, 5329736.711672957986593 ], [ 458821.77618930186145, 5329710.692622664384544 ] ] ] ] } },
{ "type": "Feature", "properties": { "id": 1 }, "geometry": { "type": "MultiPolygon", "coordinates": [ [ [ [ 458796.183680815738626, 5329785.763980890624225 ], [ 458594.855947391421068, 5329776.806602920405567 ], [ 458594.429405583359767, 5329802.399111405946314 ], [ 458609.78491067502182, 5329864.674215389415622 ], [ 458618.315746837062761, 5329874.484676975756884 ], [ 458644.761338939424604, 5329871.498884318396449 ], [ 458663.529178495926317, 5329885.574763986282051 ], [ 458684.85626890102867, 5329886.001305794343352 ], [ 458699.785232184629422, 5329873.63159335963428 ], [ 458798.316389856219757, 5329861.261880923993886 ], [ 458797.036764431919437, 5329842.494041367433965 ], [ 458793.624429967137985, 5329823.726201810874045 ], [ 458796.183680815738626, 5329785.763980890624225 ] ] ] ] } },
{ "type": "Feature", "properties": { "id": 1 }, "geometry": { "type": "MultiPolygon", "coordinates": [ [ [ [ 458797.036764431919437, 5329860.408797308802605 ], [ 458701.064857608929742, 5329873.63159335963428 ], [ 458685.28281070914818, 5329885.148222178220749 ], [ 458698.505606760329101, 5329890.266723875887692 ], [ 458698.505606760329101, 5329905.622228967025876 ], [ 458692.960563254950102, 5329940.598657231777906 ], [ 458692.960563254950102, 5329958.513413172215223 ], [ 458693.813646871189121, 5330003.726844830438495 ], [ 458715.567279084410984, 5330005.433012062683702 ], [ 458783.387426572677214, 5330004.153386638499796 ], [ 458807.700309634499718, 5329998.608343133702874 ], [ 458795.330597199499607, 5329969.176958374679089 ], [ 458799.169473472458776, 5329935.480155534110963 ], [ 458804.714516977779567, 5329918.845025018788874 ], [ 458797.036764431919437, 5329860.408797308802605 ] ] ] ] } },
{ "type": "Feature", "properties": { "id": 1 }, "geometry": { "type": "MultiPolygon", "coordinates": [ [ [ [ 458807.700309634499718, 5329996.902175901457667 ], [ 458784.667051996977534, 5330004.153386638499796 ], [ 458713.861111851991154, 5330005.433012063615024 ], [ 458692.534021446888801, 5330004.153386638499796 ], [ 458683.150101668608841, 5330028.03972789272666 ], [ 458684.429727092909161, 5330045.954483833163977 ], [ 458675.472349122806918, 5330092.020999107509851 ], [ 458691.680937830649782, 5330099.272209845483303 ], [ 458840.970570666482672, 5330096.712958997115493 ], [ 458839.690945242182352, 5330085.622871986590326 ], [ 458832.866276312503032, 5330066.001948813907802 ], [ 458833.719359928742051, 5330039.556356711313128 ], [ 458821.77618930186145, 5330019.935433538630605 ], [ 458807.700309634499718, 5329996.902175901457667 ] ] ] ] } },
{ "type": "Feature", "properties": { "id": 1 }, "geometry": { "type": "MultiPolygon", "coordinates": [ [ [ [ 458840.544028858363163, 5330095.859875380992889 ], [ 458693.387105063069612, 5330100.551835269667208 ], [ 458674.192723698506597, 5330090.314831875264645 ], [ 458665.235345728346147, 5330106.949962391518056 ], [ 458654.998342333885375, 5330129.556678220629692 ], [ 458642.202088090823963, 5330162.826939253136516 ], [ 458634.524335544963833, 5330182.874404233880341 ], [ 458634.950877353083342, 5330209.746538144536316 ], [ 458848.648323212284595, 5330209.746538144536316 ], [ 458849.501406828523614, 5330194.39103305246681 ], [ 458849.927948636643123, 5330172.637400839477777 ], [ 458849.074865020404104, 5330135.101721726357937 ], [ 458840.544028858363163, 5330095.859875380992889 ] ] ] ] } },
{ "type": "Feature", "properties": { "id": 1 }, "geometry": { "type": "MultiPolygon", "coordinates": [ [ [ [ 458849.501406828523614, 5330208.89345452748239 ], [ 458635.377419161144644, 5330209.746538143604994 ], [ 458637.510128201683983, 5330222.969334194436669 ], [ 458637.510128201683983, 5330243.869882791303098 ], [ 458636.657044585444964, 5330259.651929691433907 ], [ 458626.846582999103703, 5330286.09752179402858 ], [ 458619.16883045330178, 5330305.718444966711104 ], [ 458835.425527161103673, 5330308.277695815078914 ], [ 458840.117487050243653, 5330283.964812752790749 ], [ 458844.382905131264124, 5330243.869882791303098 ], [ 458849.501406828523614, 5330208.89345452748239 ] ] ] ] } },
{ "type": "Feature", "properties": { "id": 1 }, "geometry": { "type": "MultiPolygon", "coordinates": [ [ [ [ 458835.425527161103673, 5330308.277695815078914 ], [ 458619.16883045330178, 5330305.718444966711104 ], [ 458617.889205028943252, 5330308.277695815078914 ], [ 458604.239867169701029, 5330333.870204301550984 ], [ 458583.339318572659977, 5330368.42009075731039 ], [ 458698.932148568390403, 5330443.491448983550072 ], [ 458707.462984730431344, 5330441.358739943243563 ], [ 458732.202409600373358, 5330442.211823559366167 ], [ 458754.38258362171473, 5330431.974820164963603 ], [ 458761.207252551335841, 5330415.339689648710191 ], [ 458766.325754248537123, 5330395.718766476027668 ], [ 458776.989299451117404, 5330384.628679465502501 ], [ 458797.463306240038946, 5330391.45334839541465 ], [ 458817.510771220840979, 5330397.424933708272874 ], [ 458825.18852376670111, 5330382.495970425195992 ], [ 458832.013192696322221, 5330351.784960241056979 ], [ 458823.908898342342582, 5330333.870204301550984 ], [ 458835.425527161103673, 5330308.277695815078914 ] ] ] ] } },
{ "type": "Feature", "properties": { "id": 1 }, "geometry": { "type": "MultiPolygon", "coordinates": [ [ [ [ 458701.491399416991044, 5330443.917990790680051 ], [ 458585.472027613199316, 5330366.287381716072559 ], [ 458579.500442299759015, 5330370.552799797616899 ], [ 458568.410355289117433, 5330387.61447212100029 ], [ 458550.495599348796532, 5330401.26380998082459 ], [ 458518.078421933052596, 5330416.619315071962774 ], [ 458490.779746214509942, 5330434.534071012400091 ], [ 458472.011906658008229, 5330456.714245034381747 ], [ 458630.685459272062872, 5330569.321282372809947 ], [ 458626.420041191042401, 5330544.581857503391802 ], [ 458622.15462311002193, 5330513.017763703130186 ], [ 458634.097793736844324, 5330499.368425844237208 ], [ 458661.396469455386978, 5330466.098164811730385 ], [ 458701.491399416991044, 5330443.917990790680051 ] ] ] ] } },
{ "type": "Feature", "properties": { "id": 1 }, "geometry": { "type": "MultiPolygon", "coordinates": [ [ [ [ 458631.538542888243683, 5330567.61511514056474 ], [ 458471.15882304176921, 5330457.567328650504351 ], [ 458460.921819647308439, 5330465.245081195607781 ], [ 458438.741645626025274, 5330485.719087985344231 ], [ 458411.44296990748262, 5330511.311596470884979 ], [ 458396.940548432001378, 5330534.344854108989239 ], [ 458372.201123562059365, 5330576.9990349188447 ], [ 458347.461698692117352, 5330628.184051890857518 ], [ 458376.466541643079836, 5330649.511142295785248 ], [ 458658.837218606786337, 5330655.482727609574795 ], [ 458656.277967758185696, 5330648.658058679662645 ], [ 458645.187880747544114, 5330606.856961485929787 ], [ 458631.538542888243683, 5330567.61511514056474 ] ] ] ] } },
{ "type": "Feature", "properties": { "id": 1 }, "geometry": { "type": "MultiPolygon", "coordinates": [ [ [ [ 458659.690302223025355, 5330653.776560377329588 ], [ 458373.907290794479195, 5330650.364225912839174 ], [ 458348.314782308356371, 5330628.184051890857518 ], [ 458350.020949540776201, 5330635.008720820769668 ], [ 458355.992534854158293, 5330658.041978458873928 ], [ 458349.167865924537182, 5330690.459155874326825 ], [ 458363.670287400018424, 5330705.814660965465009 ], [ 458355.992534854158293, 5330726.288667755201459 ], [ 458352.580200389376841, 5330763.824346867389977 ], [ 458358.551785702817142, 5330815.862447456456721 ], [ 458367.082621864858083, 5330815.862447456456721 ], [ 458478.836575587629341, 5330811.597029374912381 ], [ 458722.818489822151605, 5330806.478527678176761 ], [ 458723.671573438332416, 5330794.53535705152899 ], [ 458702.344483033230063, 5330750.175009008497 ], [ 458692.107479638769291, 5330723.729416905902326 ], [ 458677.605058163288049, 5330693.018406722694635 ], [ 458659.690302223025355, 5330653.776560377329588 ] ] ] ] } },
{ "type": "Feature", "properties": { "id": 1 }, "geometry": { "type": "MultiPolygon", "coordinates": [ [ [ [ 458721.112322589731775, 5330805.625444062054157 ], [ 458355.992534854158293, 5330816.715531072579324 ], [ 458355.139451237977482, 5330838.042621477507055 ], [ 458392.675130350980908, 5330854.251210185699165 ], [ 458422.533056918124203, 5330893.493056531064212 ], [ 458483.955077284772415, 5330909.701645235531032 ], [ 458799.596015280520078, 5330926.763317562639713 ], [ 458843.103279706963804, 5330918.232481401413679 ], [ 458820.07002206944162, 5330903.730059925466776 ], [ 458782.534342956438195, 5330878.137551438994706 ], [ 458768.885005097137764, 5330866.194380812346935 ], [ 458735.614744065213017, 5330838.042621477507055 ], [ 458721.112322589731775, 5330805.625444062054157 ] ] ] ] } },
{ "type": "Feature", "properties": { "id": 1 }, "geometry": { "type": "MultiPolygon", "coordinates": [ [ [ [ 458427.651558615267277, 5330890.933805679902434 ], [ 458460.06873603106942, 5330971.123665602877736 ], [ 458475.424241122731473, 5331008.659344715997577 ], [ 458480.542742819932755, 5331018.89634811040014 ], [ 458470.305739425530192, 5331056.432027223519981 ], [ 458574.381940602441318, 5331051.313525525853038 ], [ 458951.444898964895401, 5331073.493699546903372 ], [ 458983.862076380639337, 5331075.199866780079901 ], [ 458985.568243613059167, 5331058.138194455765188 ], [ 458978.743574683438055, 5331039.370354899205267 ], [ 458944.620230035216082, 5330989.891505159437656 ], [ 458886.610544133349322, 5330947.237324348650873 ], [ 458840.544028858304955, 5330919.938648630864918 ], [ 458794.477513583260588, 5330928.469484792090952 ], [ 458639.216295433987398, 5330918.232481397688389 ], [ 458489.073578982031904, 5330909.701645235531032 ], [ 458427.651558615267277, 5330890.933805679902434 ] ] ] ] } },
{ "type": "Feature", "properties": { "id": 1 }, "geometry": { "type": "MultiPolygon", "coordinates": [ [ [ [ 458980.449741915799677, 5331070.081365082412958 ], [ 458567.557271672820207, 5331049.607358293607831 ], [ 458475.424241122731473, 5331058.138194455765188 ], [ 458475.424241122731473, 5331163.92056286521256 ], [ 458414.002220756025054, 5331215.105579837225378 ], [ 458487.367411749612074, 5331225.342583231627941 ], [ 458840.544028858304955, 5331235.579586626030505 ], [ 459016.279253796441481, 5331264.584429576992989 ], [ 459023.103922726062592, 5331254.347426182590425 ], [ 459033.340926120523363, 5331211.693245372734964 ], [ 459031.634758888103534, 5331169.03906456194818 ], [ 459035.047093352943193, 5331119.560214822180569 ], [ 459021.397755493642762, 5331083.730702941305935 ], [ 458980.449741915799677, 5331070.081365082412958 ] ] ] ] } },
{ "type": "Feature", "properties": { "id": 1 }, "geometry": { "type": "MultiPolygon", "coordinates": [ [ [ [ 459019.691588261222932, 5331261.172095112502575 ], [ 458925.852390478714369, 5331249.228924485854805 ], [ 458842.250196090666577, 5331233.873419393785298 ], [ 458739.880162146117073, 5331232.167252161540091 ], [ 458478.836575587571133, 5331223.636415999382734 ], [ 458437.888562009728048, 5331215.105579837225378 ], [ 458410.589886291185394, 5331208.280910907313228 ], [ 458407.177551826345734, 5331211.693245372734964 ], [ 458390.115879502263851, 5331209.987078139558434 ], [ 458352.580200389260426, 5331208.280910907313228 ], [ 458303.101350649434607, 5331206.574743675068021 ], [ 458262.153337071591523, 5331227.048750463873148 ], [ 458231.442326888209209, 5331269.702931274659932 ], [ 458207.555985634506214, 5331317.475613782182336 ], [ 458209.262152866926044, 5331353.305125662125647 ], [ 458255.328668141970411, 5331353.305125662125647 ], [ 458661.39646945532877, 5331384.016135845333338 ], [ 458722.81848982203519, 5331401.077808169648051 ], [ 458756.941834470257163, 5331378.897634148597717 ], [ 458809.833018674922641, 5331353.305125662125647 ], [ 458833.719359928625636, 5331356.717460127547383 ], [ 458893.435213062970433, 5331353.305125662125647 ], [ 458948.032564500055742, 5331336.243453337810934 ], [ 459004.336083169560879, 5331298.707774225622416 ], [ 459019.691588261222932, 5331261.172095112502575 ] ] ] ] } },
{ "type": "Feature", "properties": { "id": 1 }, "geometry": { "type": "MultiPolygon", "coordinates": [ [ [ [ 458724.52465705445502, 5331399.371640937402844 ], [ 458714.287653659994248, 5331390.840804775245488 ], [ 458656.277967758127488, 5331378.897634148597717 ], [ 458507.841418538533617, 5331372.072965218685567 ], [ 458284.333511092932895, 5331356.717460127547383 ], [ 458210.968320099345874, 5331349.892791197635233 ], [ 458212.674487331707496, 5331366.954463521949947 ], [ 458193.906647775205784, 5331414.727146029472351 ], [ 458176.844975451123901, 5331450.556657909415662 ], [ 458154.664801429840736, 5331491.504671487025917 ], [ 458149.546299732581247, 5331506.860176579095423 ], [ 458173.432640986342449, 5331549.514357388950884 ], [ 458231.442326888209209, 5331573.400698643177748 ], [ 458274.096507698472124, 5331571.694531410932541 ], [ 458555.614101045939606, 5331573.400698643177748 ], [ 458598.26828185620252, 5331566.576029713265598 ], [ 458603.386783553403802, 5331549.514357388950884 ], [ 458657.98413499048911, 5331501.741674882359803 ], [ 458692.107479638711084, 5331455.675159607082605 ], [ 458724.52465705445502, 5331399.371640937402844 ] ] ] ] } },
{ "type": "Feature", "properties": { "id": 1 }, "geometry": { "type": "MultiPolygon", "coordinates": [ [ [ [ 458553.907933813519776, 5331569.988364178687334 ], [ 458229.736159655789379, 5331575.106865875422955 ], [ 458233.148494120629039, 5331597.287039897404611 ], [ 458253.622500909492373, 5331646.765889637172222 ], [ 458243.38549751508981, 5331704.77557553909719 ], [ 458229.736159655789379, 5331832.738117969594896 ], [ 458304.80751788179623, 5331846.387455828487873 ], [ 458414.002220755966846, 5331877.098466012626886 ], [ 458454.950234333809931, 5331808.851776715368032 ], [ 458489.073578981973697, 5331742.311254652217031 ], [ 458512.959920235676691, 5331694.538572144694626 ], [ 458533.433927024598233, 5331639.941220707260072 ], [ 458553.907933813519776, 5331569.988364178687334 ] ] ] ] } },
{ "type": "Feature", "properties": { "id": 1 }, "geometry": { "type": "MultiPolygon", "coordinates": [ [ [ [ 458412.296053523547016, 5331877.098466012626886 ], [ 458308.219852346635889, 5331848.093623061664402 ], [ 458233.148494120629039, 5331832.738117969594896 ], [ 458205.849818402086385, 5331839.562786899507046 ], [ 458171.726473753864411, 5331861.74296092055738 ], [ 458132.484627408499364, 5331892.45397110376507 ], [ 458098.36128276027739, 5331919.752646822482347 ], [ 458045.470098555611912, 5331938.520486379042268 ], [ 457965.28023863240378, 5331972.643831026740372 ], [ 458038.645429625990801, 5332015.298011837527156 ], [ 458420.826889685587958, 5332192.739404007792473 ], [ 458415.708387988386676, 5332117.668045781552792 ], [ 458373.054207178181969, 5332025.535015231929719 ], [ 458362.817203783721197, 5331970.937663794495165 ], [ 458412.296053523547016, 5331877.098466012626886 ] ] ] ] } },
{ "type": "Feature", "properties": { "id": 1 }, "geometry": { "type": "MultiPolygon", "coordinates": [ [ [ [ 458420.826889685587958, 5332185.914735077880323 ], [ 458033.526927928731311, 5332017.004179069772363 ], [ 457966.986405864765402, 5331974.349998259916902 ], [ 457946.512399075902067, 5331987.999336118809879 ], [ 457914.095221660099924, 5331999.942506745457649 ], [ 457888.502713173977099, 5332037.47818585857749 ], [ 457871.441040849895217, 5332083.544701133854687 ], [ 457868.028706385055557, 5332126.198881943710148 ], [ 457874.853375314676668, 5332177.383898916654289 ], [ 457898.739716568437871, 5332177.383898916654289 ], [ 458270.684173233632464, 5332325.820448135957122 ], [ 458291.158180022495799, 5332317.289611973799765 ], [ 458326.987691903137602, 5332317.289611973799765 ], [ 458362.817203783721197, 5332303.640274114906788 ], [ 458393.528213967045303, 5332231.98125035315752 ], [ 458420.826889685587958, 5332185.914735077880323 ] ] ] ] } },
{ "type": "Feature", "properties": { "id": 1 }, "geometry": { "type": "MultiPolygon", "coordinates": [ [ [ [ 458271.110715041635558, 5332324.114280902780592 ], [ 458097.934740952099673, 5332258.426842454820871 ], [ 457900.019341992621776, 5332176.530815299600363 ], [ 457875.279917122679763, 5332180.79623338021338 ], [ 457885.516920517140534, 5332208.094909098930657 ], [ 457911.109429003321566, 5332262.692260536365211 ], [ 457939.261188338045031, 5332296.815605184063315 ], [ 457947.792024500085972, 5332323.261197286657989 ], [ 457958.029027894546743, 5332371.886963410302997 ], [ 457992.152372542710509, 5332379.56471595633775 ], [ 458072.342232465976849, 5332422.218896766193211 ], [ 458071.48914884973783, 5332459.754575879313052 ], [ 458074.048399698396679, 5332493.024836911819875 ], [ 458194.333189583208878, 5332524.588930711150169 ], [ 458200.304774896649178, 5332489.612502446398139 ], [ 458209.688694674870931, 5332451.223739717155695 ], [ 458238.693537625833414, 5332451.223739717155695 ], [ 458259.167544414754957, 5332448.664488868787885 ], [ 458274.52304950641701, 5332435.868234626017511 ], [ 458274.52304950641701, 5332417.100395069457591 ], [ 458254.049042717553675, 5332398.33255551289767 ], [ 458231.868868696212303, 5332379.56471595633775 ], [ 458242.958955706853885, 5332350.559873005375266 ], [ 458271.110715041635558, 5332324.114280902780592 ] ] ] ] } }
]
}
