{
"type": "FeatureCollection",
"name": "LR_global_clipper",
"crs": { "type": "name", "properties": { "name": "urn:ogc:def:crs:EPSG::6339" } },
"features": [
{ "type": "Feature", "properties": { "id": 1 }, "geometry": { "type": "MultiPolygon", "coordinates": [ [ [ [ 458547.888672792876605, 5327029.940115628764033 ], [ 458547.082222834927961, 5327043.649764913134277 ], [ 458547.082222834927961, 5327064.617463819682598 ], [ 458543.04997304524295, 5327101.714161884970963 ], [ 458560.791872119880281, 5327138.004409992136061 ], [ 458518.050024349242449, 5327226.713905365206301 ], [ 458462.404977251542732, 5327320.262100486084819 ], [ 458416.437329649168532, 5327424.294145059771836 ], [ 458406.759930153901223, 5327498.487541189417243 ], [ 458409.179280027747154, 5327550.906788455322385 ], [ 458422.888929312641267, 5327610.584085343405604 ], [ 458452.727577756333631, 5327672.680732103995979 ], [ 458456.778591978305485, 5327679.345303888432682 ], [ 458484.349704367108643, 5327666.232213850133121 ], [ 458471.074314299505204, 5327650.301745768636465 ], [ 458459.380789909395389, 5327622.882447198964655 ], [ 458456.55821505660424, 5327609.979247871786356 ], [ 458456.55821505660424, 5327592.237348797731102 ], [ 458451.719515309028793, 5327577.318024575710297 ], [ 458444.864690666552633, 5327550.705175964161754 ], [ 458446.877646799141075, 5327544.834053910337389 ], [ 458445.964656242867932, 5327508.770926939323545 ], [ 458444.864690666552633, 5327503.931078403256834 ], [ 458444.461465687549207, 5327486.592404307797551 ], [ 458447.305145981314126, 5327482.238018858246505 ], [ 458455.92020084959222, 5327449.500810357742012 ], [ 458455.751765098713804, 5327447.479581347666681 ], [ 458459.380789909395389, 5327434.576382020488381 ], [ 458462.061807059275452, 5327429.571816674433649 ], [ 458476.921076494443696, 5327384.374872142449021 ], [ 458510.791974727821071, 5327321.47177542373538 ], [ 458555.146722414356191, 5327273.891227904707193 ], [ 458563.211221993726213, 5327242.439679545350373 ], [ 458580.953121068305336, 5327222.278430596925318 ], [ 458605.953069764364045, 5327182.762382658198476 ], [ 458605.146619806415401, 5327155.343084088526666 ], [ 458630.146568502474111, 5327119.859285939484835 ], [ 458634.985268250107765, 5327091.633537411689758 ], [ 458637.404618123895489, 5327063.407788883894682 ], [ 458635.791718208056409, 5327024.698190902359784 ], [ 458547.888672792876605, 5327029.940115628764033 ] ] ], [ [ [ 458477.72752645239234, 5327713.809679958969355 ], [ 458515.630674475396518, 5327759.777327561751008 ], [ 458559.985422161931638, 5327808.970774995163083 ], [ 458615.630469259689562, 5327841.228773313574493 ], [ 458630.953018460480962, 5327866.228722009807825 ], [ 458659.985216946224682, 5327889.615770789794624 ], [ 458711.59801425418118, 5327940.422118140384555 ], [ 458775.307560931192711, 5328003.325214859098196 ], [ 458894.662154705903959, 5328107.357259432785213 ], [ 458909.178253948746715, 5328125.905608465895057 ], [ 458909.216056290373672, 5328126.094620173797011 ], [ 458910.791153864760417, 5328125.905608464963734 ], [ 458918.855653444130439, 5328153.324907035566866 ], [ 458927.726602981390897, 5328199.292554637417197 ], [ 458968.049100878241006, 5328443.646891892887652 ], [ 458960.533673610188998, 5328444.760288525372744 ], [ 458955.145901551062707, 5328454.937191302888095 ], [ 458944.662052097904962, 5328510.582238400354981 ], [ 458955.952351509011351, 5328587.194984404370189 ], [ 458962.403951172484085, 5328642.840031502768397 ], [ 458968.049100878066383, 5328713.001177842728794 ], [ 458911.597603822476231, 5328750.904325866140425 ], [ 458829.339708112878725, 5328796.065523510798812 ], [ 458749.50116227712715, 5328865.420219892635942 ], [ 458697.888364969170652, 5328967.83936455193907 ], [ 458692.243215263588354, 5328996.065113079734147 ], [ 458708.372214422328398, 5329033.161811144091189 ], [ 458724.501213581068441, 5329056.54885992500931 ], [ 458743.049562613596208, 5329088.806858242489398 ], [ 458748.32597646053182, 5329101.900181491859257 ], [ 458801.466781445778906, 5329071.871409150771797 ], [ 458804.894193767104298, 5329093.847170505672693 ], [ 458757.766159011749551, 5329125.325819674879313 ], [ 458764.82371147791855, 5329142.83900542370975 ], [ 458777.726910804922227, 5329173.484103825874627 ], [ 458805.952659332717303, 5329220.258201385848224 ], [ 458797.888159753347281, 5329243.645250165835023 ], [ 458793.049460005713627, 5329275.90324848331511 ], [ 458768.855961267603561, 5329337.193445286713541 ], [ 458705.952864548540674, 5329430.741640407592058 ], [ 458703.533514674752951, 5329480.7415377991274 ], [ 458697.888364969170652, 5329493.644737126305699 ], [ 458625.307868754840456, 5329600.902581531554461 ], [ 458589.017620647675358, 5329730.741024759598076 ], [ 458595.4692203112063, 5329812.998920469544828 ], [ 458608.372419638209976, 5329871.869767398573458 ], [ 458632.565918376320042, 5329879.93426697794348 ], [ 458686.598065558064263, 5329894.45036622043699 ], [ 458693.856115179485641, 5329898.482616010122001 ], [ 458689.017415431910194, 5330074.288706841878593 ], [ 458655.952967156481463, 5330111.385404907166958 ], [ 458630.146568502474111, 5330187.998150911182165 ], [ 458623.694968839001376, 5330281.546346032060683 ], [ 458593.049870437360369, 5330342.836542834527791 ], [ 458523.695174054824747, 5330401.707389764487743 ], [ 458440.630828387278598, 5330467.836286314763129 ], [ 458340.631033603043761, 5330621.061778322793543 ], [ 458342.243933518941049, 5330684.771324999630451 ], [ 458339.824583645153325, 5330739.609922139905393 ], [ 458339.824583645153325, 5330811.383968396112323 ], [ 458364.018082383263391, 5330840.416166882030666 ], [ 458401.114780448318925, 5330875.093515072949231 ], [ 458426.921179102326278, 5330933.964362001977861 ], [ 458448.69532796664862, 5330985.577159310691059 ], [ 458454.34047767217271, 5331042.028656366281211 ], [ 458445.469528134854045, 5331133.963951570913196 ], [ 458404.3405802801135, 5331178.318699258379638 ], [ 458326.114934360201005, 5331167.834849805571139 ], [ 458245.469938566500787, 5331203.31864795461297 ], [ 458204.340990711702034, 5331256.544345178641379 ], [ 458189.824891468859278, 5331351.705440214835107 ], [ 458176.921692141855601, 5331415.414986891672015 ], [ 458136.599194245005492, 5331484.769683274440467 ], [ 458144.663693824375514, 5331533.963130708783865 ], [ 458192.244241342647001, 5331572.672728689387441 ], [ 458215.631290122866631, 5331626.704875871539116 ], [ 458226.92158953397302, 5331728.317570571787655 ], [ 458210.792590375174768, 5331805.736766532063484 ], [ 458165.631392730691005, 5331846.86571438703686 ], [ 458108.373445717152208, 5331900.897861568257213 ], [ 458057.567098367144354, 5331930.736510012298822 ], [ 458009.986550848814659, 5331921.865560474805534 ], [ 457986.599502068653237, 5331969.446107992902398 ], [ 457959.986653456755448, 5331973.478357782587409 ], [ 457922.889955391641706, 5331992.833156773820519 ], [ 457871.277158083743416, 5332065.413652988150716 ], [ 457861.599758588534314, 5332134.768349370919168 ], [ 457868.857808209955692, 5332217.02624508086592 ], [ 457900.309356569487136, 5332261.38099276740104 ], [ 457939.018954550498165, 5332295.251891000196338 ], [ 457962.406003330659587, 5332361.380787551403046 ], [ 458006.760751017194707, 5332400.090385532006621 ], [ 458043.857449082308449, 5332452.509632797911763 ], [ 458052.829697451146785, 5332469.599629690870643 ], [ 458056.307020296459086, 5332469.445082008838654 ], [ 458060.94410755467834, 5332483.961181252263486 ], [ 458060.780668548599351, 5332485.110061324201524 ], [ 458059.179998283099849, 5332529.928828760050237 ], [ 458047.88969887199346, 5332558.96102724596858 ], [ 458044.371941747958772, 5332558.57016534358263 ], [ 458040.98447109531844, 5332558.961027341894805 ], [ 458018.403872272640001, 5332558.759414852596819 ], [ 458004.754344664048404, 5332554.168210111558437 ], [ 457960.7931034147623, 5332549.283627750352025 ], [ 458189.018441510910634, 5332587.186775772832334 ], [ 458197.889391048229299, 5332573.47712648846209 ], [ 458214.018390206969343, 5332440.41288342885673 ], [ 458213.505000313161872, 5332432.904556231573224 ], [ 458212.002265312126838, 5332425.090334226377308 ], [ 458207.566790543496609, 5332397.267810678109527 ], [ 458201.115190879965667, 5332361.380787549540401 ], [ 458204.622663354617544, 5332344.344492672942579 ], [ 458153.534643361694179, 5332314.606689990498126 ], [ 458083.373497021151707, 5332253.316493187099695 ], [ 457993.051101732242387, 5332200.897245921194553 ], [ 457985.913778202841058, 5332181.269606214947999 ], [ 457977.274924414989073, 5332174.687622376717627 ], [ 457977.274924414989073, 5332157.512758298777044 ], [ 457973.696302741765976, 5332147.671548697166145 ], [ 457977.274924414989073, 5332129.380815700627863 ], [ 457977.274924414989073, 5332118.236125320196152 ], [ 457981.968870363547467, 5332105.3895364087075 ], [ 457988.212401984608732, 5332073.478152567520738 ], [ 458001.236991175101139, 5332068.89542674086988 ], [ 458003.887773027585354, 5332066.623328010551631 ], [ 458011.461435463977978, 5332065.297937083989382 ], [ 458031.760699713195208, 5332058.155603366903961 ], [ 458055.296836291381624, 5332060.180217266082764 ], [ 458055.500570336938836, 5332060.171728347428143 ], [ 458055.579937884351239, 5332060.204570091329515 ], [ 458106.760545801371336, 5332064.607203030027449 ], [ 458119.636788662988693, 5332087.945393216796219 ], [ 458136.952016090683173, 5332098.881326328963041 ], [ 458157.113265039632097, 5332120.655475193634629 ], [ 458158.281227047613356, 5332122.490844063460827 ], [ 458169.341978978423867, 5332116.96046809758991 ], [ 458161.599142941064201, 5332090.413601684384048 ], [ 458199.502290964126587, 5332064.607203030027449 ], [ 458239.824788860976696, 5332008.962155933491886 ], [ 458266.437637472874485, 5332002.510556270368397 ], [ 458300.30853570625186, 5332000.897656354121864 ], [ 458326.114934360201005, 5332016.220205554738641 ], [ 458336.598783813416958, 5332033.962104629725218 ], [ 458357.298043700226117, 5332054.661364516243339 ], [ 458362.334774486720562, 5332054.545577601529658 ], [ 458384.985781289637089, 5332027.510504965670407 ], [ 458373.695481878472492, 5331973.478357784450054 ], [ 458405.147030238062143, 5331896.865611780434847 ], [ 458453.534027714282274, 5331807.34966644924134 ], [ 458553.533822498458903, 5331595.25332751031965 ], [ 458622.888518880994525, 5331561.382429277524352 ], [ 458639.017518039734568, 5331482.350333399139345 ], [ 458693.856115179485641, 5331440.414935586974025 ], [ 458771.275311141449492, 5331377.511838867329061 ], [ 458813.210708954138681, 5331356.54413996078074 ], [ 458843.855807355779689, 5331356.54413996078074 ], [ 458942.24270222405903, 5331372.673139119520783 ], [ 458984.178100036806427, 5331321.060341811738908 ], [ 459042.242497008235659, 5331237.189546186476946 ], [ 459030.95219759712927, 5331103.318853168748319 ], [ 458979.339400289172772, 5331032.351256870664656 ], [ 458868.049306093889754, 5330924.286962507292628 ], [ 458772.888211057288572, 5330866.222565535455942 ], [ 458672.888416273111943, 5330846.867766545154154 ], [ 458580.953121068305336, 5330812.996868311427534 ], [ 458555.953172372304834, 5330805.738818689249456 ], [ 458516.033899454399943, 5330785.980794719420373 ], [ 458494.196890195133165, 5330745.629799349233508 ], [ 458493.402897508232854, 5330744.851846918463707 ], [ 458493.047248524148017, 5330743.505461478605866 ], [ 458478.937201389286201, 5330717.432548294775188 ], [ 458476.114626536495052, 5330655.739126512780786 ], [ 458487.380677297362126, 5330638.733766873367131 ], [ 458487.757747802475933, 5330636.384327572770417 ], [ 458494.814184744667728, 5330627.513378273695707 ], [ 458497.485550421872176, 5330623.481128195300698 ], [ 458515.2274494964513, 5330590.819904899224639 ], [ 458527.727423844509758, 5330558.561906581744552 ], [ 458523.695174054824747, 5330521.061983537860215 ], [ 458541.03384815051686, 5330515.41683383192867 ], [ 458545.066097940201871, 5330520.255533579736948 ], [ 458545.066097940201871, 5330540.416782528162003 ], [ 458564.824121909681708, 5330540.820007507689297 ], [ 458580.146671110473108, 5330520.255533579736948 ], [ 458589.420845626736991, 5330502.110409526154399 ], [ 458598.695020143059082, 5330512.594258979894221 ], [ 458595.065995332319289, 5330547.271607170812786 ], [ 458614.4207943227957, 5330544.852257297374308 ], [ 458635.791718208114617, 5330518.642633664421737 ], [ 458650.30781745101558, 5330503.723309442400932 ], [ 458670.065841420437209, 5330472.271761083044112 ], [ 458688.210965474019758, 5330461.384686650708318 ], [ 458702.323839737917297, 5330468.642736271955073 ], [ 458704.743189611763228, 5330444.449237533845007 ], [ 458717.243163959763478, 5330449.691162260249257 ], [ 458737.001187929243315, 5330460.175011713989079 ], [ 458774.501110973302275, 5330467.029836355708539 ], [ 458795.468809879675973, 5330483.96528547257185 ], [ 458828.936483134049922, 5330461.384686650708318 ], [ 458852.726756893156562, 5330458.965336776338518 ], [ 458875.710580694372766, 5330482.352385557256639 ], [ 458914.823403654329013, 5330481.949160577729344 ], [ 458927.72660298133269, 5330433.965388081036508 ], [ 458911.19437884358922, 5330402.91706470027566 ], [ 458883.775080273742788, 5330398.078364952467382 ], [ 458870.468655967793893, 5330433.158938122913241 ], [ 458847.081607187632471, 5330434.36861305963248 ], [ 458835.388082797522657, 5330419.046063859015703 ], [ 458832.968732923734933, 5330331.949468401260674 ], [ 458863.2106063462561, 5330228.723873786628246 ], [ 458847.081607187516056, 5330104.530580263584852 ], [ 458811.597809038241394, 5329981.950186657719314 ], [ 458800.307509627135005, 5329785.176396921277046 ], [ 458842.242907439882401, 5329690.015301884151995 ], [ 458880.952505420835223, 5329617.434805669821799 ], [ 458966.436200962169096, 5329562.596208530478179 ], [ 459005.145798943121918, 5329488.40281239990145 ], [ 458989.016799784440082, 5329351.306319550611079 ], [ 458890.629904916102532, 5329222.27432628069073 ], [ 458809.984909122402314, 5329093.24233301077038 ], [ 458822.888108449405991, 5329035.177936038933694 ], [ 458879.339605504996143, 5328941.629740918986499 ], [ 458963.210401130432729, 5328872.275044536218047 ], [ 459051.919896503502969, 5328819.049347312189639 ], [ 459119.66169297019951, 5328759.372050425037742 ], [ 459119.66169297019951, 5328730.339851939119399 ], [ 459095.468194232089445, 5328710.985052948817611 ], [ 459064.016645872558001, 5328623.082007533870637 ], [ 459012.250362926628441, 5328520.322072731330991 ], [ 459007.161923838197254, 5328519.049962959252298 ], [ 458998.694199279882014, 5328477.114565145224333 ], [ 458982.56520012114197, 5328424.292092900723219 ], [ 458987.807124847720843, 5328412.195343531668186 ], [ 458978.532950331456959, 5328341.227747233584523 ], [ 458971.274900710035581, 5328278.727875493466854 ], [ 458962.00072619371349, 5328222.679603416472673 ], [ 458956.355576488189399, 5328192.03450501523912 ], [ 458956.758801467134617, 5328173.082931003533304 ], [ 458962.293741714267526, 5328181.682672875002027 ], [ 458960.791051256645005, 5328169.050681215710938 ], [ 458951.92010171932634, 5328073.08313622046262 ], [ 458956.758801466959994, 5328036.792888113297522 ], [ 458953.533001635223627, 5327999.69619004894048 ], [ 458963.210401130490936, 5327996.470390216447413 ], [ 458961.931098721164744, 5327974.082598053850234 ], [ 458952.524939187860582, 5327966.430129281245172 ], [ 458949.097526866651606, 5327955.543054848909378 ], [ 458941.83947724517202, 5327942.236630543135107 ], [ 458929.351705031876918, 5327924.162223392166197 ], [ 458917.238480125379283, 5327915.543197978287935 ], [ 458903.734716732695233, 5327908.970569778233767 ], [ 458883.573467784270179, 5327905.543157456442714 ], [ 458876.898908476927318, 5327906.05169530864805 ], [ 458859.093666660191957, 5327908.517036482691765 ], [ 458844.259032334841322, 5327914.615719483233988 ], [ 458833.371957902680151, 5327914.615719483233988 ], [ 458816.638121275464073, 5327913.002819567918777 ], [ 458816.180307629634626, 5327912.469229870475829 ], [ 458803.864895441161934, 5327913.381482625380158 ], [ 458787.001085321360733, 5327916.228619398549199 ], [ 458741.436662697931752, 5327908.970569777302444 ], [ 458733.005297183350194, 5327903.030289527960122 ], [ 458732.565713160496671, 5327902.922195096500218 ], [ 458730.327996117295697, 5327901.144009231589735 ], [ 458705.952864548715297, 5327883.970621081069112 ], [ 458654.743292219704017, 5327844.051348163746297 ], [ 458577.727321236743592, 5327780.341801485978067 ], [ 458517.646799370413646, 5327721.874179535545409 ], [ 458519.183105530100875, 5327709.071628204546869 ], [ 458505.672195247199852, 5327691.261791923083365 ], [ 458474.315823704178911, 5327708.196878663264215 ], [ 458477.72752645239234, 5327713.809679958969355 ] ], [ [ 458310.792385159409605, 5331412.189187059178948 ], [ 458402.727680364216212, 5331346.06029050797224 ], [ 458503.533925106341485, 5331285.576543662697077 ], [ 458569.153975586057641, 5331289.474764483049512 ], [ 458586.144642671977635, 5331261.786269973032176 ], [ 458621.62844082195079, 5331249.689520603977144 ], [ 458686.950887416198384, 5331175.496124472469091 ], [ 458700.660536701441742, 5331086.786629097536206 ], [ 458702.27343661733903, 5330994.851333891041577 ], [ 458689.370237290044315, 5330941.625636666081846 ], [ 458578.886593050381634, 5330919.851487801410258 ], [ 458658.725138887821231, 5330920.657937758602202 ], [ 458750.660434094548691, 5330957.754635824821889 ], [ 458811.144180941104423, 5330976.302984857931733 ], [ 458932.918124592164531, 5331082.754379307851195 ], [ 458942.595524087606464, 5331141.625226238742471 ], [ 458936.143924423959106, 5331185.979973926208913 ], [ 458852.273128796776291, 5331258.560470141470432 ], [ 458786.144232244521845, 5331290.012018501758575 ], [ 458615.908040612586774, 5331318.878155344165862 ], [ 458655.952967156481463, 5331355.737690003588796 ], [ 458616.43691921752179, 5331367.834439372643828 ], [ 458572.888621488935314, 5331421.866586553864181 ], [ 458517.243574391293805, 5331507.350282095372677 ], [ 458468.856576915073674, 5331597.67267738468945 ], [ 458454.340477672230918, 5331657.349974271841347 ], [ 458422.888929312641267, 5331722.672420864924788 ], [ 458414.017979775380809, 5331795.252917079254985 ], [ 458393.856730826955754, 5331801.704516742378473 ], [ 458347.889083224523347, 5331800.898066784255207 ], [ 458326.114934360201005, 5331775.09166813082993 ], [ 458352.727782972157001, 5331698.478922126814723 ], [ 458293.050486084830482, 5331526.705081085674465 ], [ 458277.727936883980874, 5331466.221334240399301 ], [ 458310.792385159409605, 5331412.189187059178948 ] ], [ [ 458926.466524928633589, 5329487.596362475305796 ], [ 458917.595575391140301, 5329448.483539514243603 ], [ 458901.063351253047585, 5329404.12879182677716 ], [ 458922.837500117835589, 5329375.903043298050761 ], [ 458938.966499276924878, 5329405.741691743023694 ], [ 458939.369724255870096, 5329417.435216133482754 ], [ 458948.643898772366811, 5329424.290040776133537 ], [ 458956.30517337290803, 5329435.983565165661275 ], [ 458956.708398351911455, 5329445.257739682681859 ], [ 458958.321298267808743, 5329460.580288883298635 ], [ 458957.514848309860099, 5329489.209262390621006 ], [ 458955.901948393962812, 5329506.547936487011611 ], [ 458946.627773877466097, 5329510.580186276696622 ], [ 458926.466524928633589, 5329487.596362475305796 ] ] ] ] } }
]
}
