{
"type": "FeatureCollection",
"name": "grid_epsg6339",
"crs": { "type": "name", "properties": { "name": "urn:ogc:def:crs:EPSG::6339" } },
"features": [
{ "type": "Feature", "properties": { "id": 1, "left": -123.60115417599999, "top": 48.065649575999998, "right": -123.596154176, "bottom": 48.060649575999996 }, "geometry": { "type": "Polygon", "coordinates": [ [ [ 455213.6113407764351, 5323771.730412930250168 ], [ 455586.113264789804816, 5323768.834944928064942 ], [ 455581.811751898785587, 5323213.102744523435831 ], [ 455209.273748470004648, 5323215.998265950940549 ], [ 455213.6113407764351, 5323771.730412930250168 ] ] ] } },
{ "type": "Feature", "properties": { "id": 2, "left": -123.60115417599999, "top": 48.060649575999996, "right": -123.596154176, "bottom": 48.055649575999993 }, "geometry": { "type": "Polygon", "coordinates": [ [ [ 455209.273748470004648, 5323215.998265950940549 ], [ 455581.811751898785587, 5323213.102744523435831 ], [ 455577.510579988185782, 5322657.371024891734123 ], [ 455204.936500003270339, 5322660.26659965608269 ], [ 455209.273748470004648, 5323215.998265950940549 ] ] ] } },
{ "type": "Feature", "properties": { "id": 3, "left": -123.60115417599999, "top": 48.055649576, "right": -123.596154176, "bottom": 48.050649575999998 }, "geometry": { "type": "Polygon", "coordinates": [ [ [ 455204.936500003270339, 5322660.26659965608269 ], [ 455577.510579988185782, 5322657.371024891734123 ], [ 455573.209749090252444, 5322101.639786037616432 ], [ 455200.599595408828463, 5322104.535414050333202 ], [ 455204.936500003270339, 5322660.26659965608269 ] ] ] } },
{ "type": "Feature", "properties": { "id": 4, "left": -123.60115417599999, "top": 48.050649575999998, "right": -123.596154176, "bottom": 48.045649575999995 }, "geometry": { "type": "Polygon", "coordinates": [ [ [ 455200.599595408828463, 5322104.535414050333202 ], [ 455573.209749090252444, 5322101.639786037616432 ], [ 455568.90925923717441, 5321545.909027971327305 ], [ 455196.263034719158895, 5321548.804709145799279 ], [ 455200.599595408828463, 5322104.535414050333202 ] ] ] } },
{ "type": "Feature", "properties": { "id": 5, "left": -123.60115417599999, "top": 48.045649575999995, "right": -123.596154176, "bottom": 48.040649575999993 }, "geometry": { "type": "Polygon", "coordinates": [ [ [ 455196.263034719158895, 5321548.804709145799279 ], [ 455568.90925923717441, 5321545.909027971327305 ], [ 455564.609110461256932, 5320990.178750702179968 ], [ 455191.92681796674151, 5320993.07448494900018 ], [ 455196.263034719158895, 5321548.804709145799279 ] ] ] } },
{ "type": "Feature", "properties": { "id": 6, "left": -123.60115417599999, "top": 48.040649576, "right": -123.596154176, "bottom": 48.035649575999997 }, "geometry": { "type": "Polygon", "coordinates": [ [ [ 455191.92681796674151, 5320993.07448494900018 ], [ 455564.609110461256932, 5320990.178750702179968 ], [ 455560.309302794688847, 5320434.448954235762358 ], [ 455187.590945184056181, 5320437.344741467386484 ], [ 455191.92681796674151, 5320993.07448494900018 ] ] ] } },
{ "type": "Feature", "properties": { "id": 7, "left": -123.60115417599999, "top": 48.035649575999997, "right": -123.596154176, "bottom": 48.030649575999995 }, "geometry": { "type": "Polygon", "coordinates": [ [ [ 455187.590945184056181, 5320437.344741467386484 ], [ 455560.309302794688847, 5320434.448954235762358 ], [ 455556.009836269717198, 5319878.719638582319021 ], [ 455183.255416403640993, 5319881.615478709340096 ], [ 455187.590945184056181, 5320437.344741467386484 ] ] ] } },
{ "type": "Feature", "properties": { "id": 8, "left": -123.60115417599999, "top": 48.030649576000002, "right": -123.596154176, "bottom": 48.025649576 }, "geometry": { "type": "Polygon", "coordinates": [ [ [ 455183.255416403640993, 5319881.615478709340096 ], [ 455556.009836269717198, 5319878.719638582319021 ], [ 455551.710710918530822, 5319322.990803749300539 ], [ 455178.920231657975819, 5319325.886696683242917 ], [ 455183.255416403640993, 5319881.615478709340096 ] ] ] } },
{ "type": "Feature", "properties": { "id": 9, "left": -123.60115417599999, "top": 48.025649576, "right": -123.596154176, "bottom": 48.020649575999997 }, "geometry": { "type": "Polygon", "coordinates": [ [ [ 455178.920231657975819, 5319325.886696683242917 ], [ 455551.710710918530822, 5319322.990803749300539 ], [ 455547.411926773376763, 5318767.262449745088816 ], [ 455174.585390979540534, 5318770.15839540027082 ], [ 455178.920231657975819, 5319325.886696683242917 ] ] ] } },
{ "type": "Feature", "properties": { "id": 10, "left": -123.60115417599999, "top": 48.020649575999997, "right": -123.596154176, "bottom": 48.015649575999994 }, "geometry": { "type": "Polygon", "coordinates": [ [ [ 455174.585390979540534, 5318770.15839540027082 ], [ 455547.411926773376763, 5318767.262449745088816 ], [ 455543.113483866502065, 5318211.534576578997076 ], [ 455170.250894400815014, 5318214.430574865080416 ], [ 455174.585390979540534, 5318770.15839540027082 ] ] ] } },
{ "type": "Feature", "properties": { "id": 11, "left": -123.60115417599999, "top": 48.015649576000001, "right": -123.596154176, "bottom": 48.010649576 }, "geometry": { "type": "Polygon", "coordinates": [ [ [ 455170.250894400815014, 5318214.430574865080416 ], [ 455543.113483866502065, 5318211.534576578997076 ], [ 455538.815382230037358, 5317655.807184256613255 ], [ 455165.916741954279132, 5317658.70323508605361 ], [ 455170.250894400815014, 5318214.430574865080416 ] ] ] } },
{ "type": "Feature", "properties": { "id": 12, "left": -123.60115417599999, "top": 48.010649576, "right": -123.596154176, "bottom": 48.005649575999996 }, "geometry": { "type": "Polygon", "coordinates": [ [ [ 455165.916741954279132, 5317658.70323508605361 ], [ 455538.815382230037358, 5317655.807184256613255 ], [ 455534.517621896229684, 5317100.080272789113224 ], [ 455161.582933672470972, 5317102.976376072503626 ], [ 455165.916741954279132, 5317658.70323508605361 ] ] ] } },
{ "type": "Feature", "properties": { "id": 13, "left": -123.60115417599999, "top": 48.005649575999996, "right": -123.596154176, "bottom": 48.000649575999994 }, "geometry": { "type": "Polygon", "coordinates": [ [ [ 455161.582933672470972, 5317102.976376072503626 ], [ 455534.517621896229684, 5317100.080272789113224 ], [ 455530.220202897326089, 5316544.353842181153595 ], [ 455157.2494695878122, 5316547.249997830949724 ], [ 455161.582933672470972, 5317102.976376072503626 ] ] ] } },
{ "type": "Feature", "properties": { "id": 14, "left": -123.596154176, "top": 48.065649575999998, "right": -123.591154176, "bottom": 48.060649575999996 }, "geometry": { "type": "Polygon", "coordinates": [ [ [ 455586.113264789804816, 5323768.834944928064942 ], [ 455958.615224493551068, 5323765.963661540299654 ], [ 455954.349790962529369, 5323210.231408158317208 ], [ 455581.811751898785587, 5323213.102744523435831 ], [ 455586.113264789804816, 5323768.834944928064942 ] ] ] } },
{ "type": "Feature", "properties": { "id": 15, "left": -123.596154176, "top": 48.060649575999996, "right": -123.591154176, "bottom": 48.055649575999993 }, "geometry": { "type": "Polygon", "coordinates": [ [ [ 455581.811751898785587, 5323213.102744523435831 ], [ 455954.349790962529369, 5323210.231408158317208 ], [ 455950.084695552533958, 5322654.499635633081198 ], [ 455577.510579988185782, 5322657.371024891734123 ], [ 455581.811751898785587, 5323213.102744523435831 ] ] ] } },
{ "type": "Feature", "properties": { "id": 16, "left": -123.596154176, "top": 48.055649576, "right": -123.591154176, "bottom": 48.050649575999998 }, "geometry": { "type": "Polygon", "coordinates": [ [ [ 455577.510579988185782, 5322657.371024891734123 ], [ 455950.084695552533958, 5322654.499635633081198 ], [ 455945.819938295637257, 5322098.768343975767493 ], [ 455573.209749090252444, 5322101.639786037616432 ], [ 455577.510579988185782, 5322657.371024891734123 ] ] ] } },
{ "type": "Feature", "properties": { "id": 17, "left": -123.596154176, "top": 48.050649575999998, "right": -123.591154176, "bottom": 48.045649575999995 }, "geometry": { "type": "Polygon", "coordinates": [ [ [ 455573.209749090252444, 5322101.639786037616432 ], [ 455945.819938295637257, 5322098.768343975767493 ], [ 455941.555519223795272, 5321543.037533193826675 ], [ 455568.90925923717441, 5321545.909027971327305 ], [ 455573.209749090252444, 5322101.639786037616432 ] ] ] } },
{ "type": "Feature", "properties": { "id": 18, "left": -123.596154176, "top": 48.045649575999995, "right": -123.591154176, "bottom": 48.040649575999993 }, "geometry": { "type": "Polygon", "coordinates": [ [ [ 455568.90925923717441, 5321545.909027971327305 ], [ 455941.555519223795272, 5321543.037533193826675 ], [ 455937.291438368905801, 5320987.307203294709325 ], [ 455564.609110461256932, 5320990.178750702179968 ], [ 455568.90925923717441, 5321545.909027971327305 ] ] ] } },
{ "type": "Feature", "properties": { "id": 19, "left": -123.596154176, "top": 48.040649576, "right": -123.591154176, "bottom": 48.035649575999997 }, "geometry": { "type": "Polygon", "coordinates": [ [ [ 455564.609110461256932, 5320990.178750702179968 ], [ 455937.291438368905801, 5320987.307203294709325 ], [ 455933.027695762983058, 5320431.577354287728667 ], [ 455560.309302794688847, 5320434.448954235762358 ], [ 455564.609110461256932, 5320990.178750702179968 ] ] ] } },
{ "type": "Feature", "properties": { "id": 20, "left": -123.596154176, "top": 48.035649575999997, "right": -123.591154176, "bottom": 48.030649575999995 }, "geometry": { "type": "Polygon", "coordinates": [ [ [ 455560.309302794688847, 5320434.448954235762358 ], [ 455933.027695762983058, 5320431.577354287728667 ], [ 455928.764291437983047, 5319875.847986181266606 ], [ 455556.009836269717198, 5319878.719638582319021 ], [ 455560.309302794688847, 5320434.448954235762358 ] ] ] } },
{ "type": "Feature", "properties": { "id": 21, "left": -123.596154176, "top": 48.030649576000002, "right": -123.591154176, "bottom": 48.025649576 }, "geometry": { "type": "Polygon", "coordinates": [ [ [ 455556.009836269717198, 5319878.719638582319021 ], [ 455928.764291437983047, 5319875.847986181266606 ], [ 455924.501225425745361, 5319320.119098980911076 ], [ 455551.710710918530822, 5319322.990803749300539 ], [ 455556.009836269717198, 5319878.719638582319021 ] ] ] } },
{ "type": "Feature", "properties": { "id": 22, "left": -123.596154176, "top": 48.025649576, "right": -123.591154176, "bottom": 48.020649575999997 }, "geometry": { "type": "Polygon", "coordinates": [ [ [ 455551.710710918530822, 5319322.990803749300539 ], [ 455924.501225425745361, 5319320.119098980911076 ], [ 455920.238497758400626, 5318764.390692697837949 ], [ 455547.411926773376763, 5318767.262449745088816 ], [ 455551.710710918530822, 5319322.990803749300539 ] ] ] } },
{ "type": "Feature", "properties": { "id": 23, "left": -123.596154176, "top": 48.020649575999997, "right": -123.591154176, "bottom": 48.015649575999994 }, "geometry": { "type": "Polygon", "coordinates": [ [ [ 455547.411926773376763, 5318767.262449745088816 ], [ 455920.238497758400626, 5318764.390692697837949 ], [ 455915.976108467730228, 5318208.662767340429127 ], [ 455543.113483866502065, 5318211.534576578997076 ], [ 455547.411926773376763, 5318767.262449745088816 ] ] ] } },
{ "type": "Feature", "properties": { "id": 24, "left": -123.596154176, "top": 48.015649576000001, "right": -123.591154176, "bottom": 48.010649576 }, "geometry": { "type": "Polygon", "coordinates": [ [ [ 455543.113483866502065, 5318211.534576578997076 ], [ 455915.976108467730228, 5318208.662767340429127 ], [ 455911.714057585806586, 5317652.935322915203869 ], [ 455538.815382230037358, 5317655.807184256613255 ], [ 455543.113483866502065, 5318211.534576578997076 ] ] ] } },
{ "type": "Feature", "properties": { "id": 25, "left": -123.596154176, "top": 48.010649576, "right": -123.591154176, "bottom": 48.005649575999996 }, "geometry": { "type": "Polygon", "coordinates": [ [ [ 455538.815382230037358, 5317655.807184256613255 ], [ 455911.714057585806586, 5317652.935322915203869 ], [ 455907.452345144469291, 5317097.208359431475401 ], [ 455534.517621896229684, 5317100.080272789113224 ], [ 455538.815382230037358, 5317655.807184256613255 ] ] ] } },
{ "type": "Feature", "properties": { "id": 26, "left": -123.596154176, "top": 48.005649575999996, "right": -123.591154176, "bottom": 48.000649575999994 }, "geometry": { "type": "Polygon", "coordinates": [ [ [ 455534.517621896229684, 5317100.080272789113224 ], [ 455907.452345144469291, 5317097.208359431475401 ], [ 455903.190971175732557, 5316541.481876894831657 ], [ 455530.220202897326089, 5316544.353842181153595 ], [ 455534.517621896229684, 5317100.080272789113224 ] ] ] } },
{ "type": "Feature", "properties": { "id": 27, "left": -123.59115417599999, "top": 48.065649575999998, "right": -123.58615417599999, "bottom": 48.060649575999996 }, "geometry": { "type": "Polygon", "coordinates": [ [ [ 455958.615224493551068, 5323765.963661540299654 ], [ 456331.117219588020816, 5323763.1165627297014 ], [ 456326.887865361990407, 5323207.384256814606488 ], [ 455954.349790962529369, 5323210.231408158317208 ], [ 455958.615224493551068, 5323765.963661540299654 ] ] ] } },
{ "type": "Feature", "properties": { "id": 28, "left": -123.59115417599999, "top": 48.060649575999996, "right": -123.58615417599999, "bottom": 48.055649575999993 }, "geometry": { "type": "Polygon", "coordinates": [ [ [ 455954.349790962529369, 5323210.231408158317208 ], [ 456326.887865361990407, 5323207.384256814606488 ], [ 456322.658846397709567, 5322651.652431844733655 ], [ 455950.084695552533958, 5322654.499635633081198 ], [ 455954.349790962529369, 5323210.231408158317208 ] ] ] } },
{ "type": "Feature", "properties": { "id": 29, "left": -123.59115417599999, "top": 48.055649576, "right": -123.58615417599999, "bottom": 48.050649575999998 }, "geometry": { "type": "Polygon", "coordinates": [ [ [ 455950.084695552533958, 5322654.499635633081198 ], [ 456322.658846397709567, 5322651.652431844733655 ], [ 456318.430162726901472, 5322095.921087828464806 ], [ 455945.819938295637257, 5322098.768343975767493 ], [ 455950.084695552533958, 5322654.499635633081198 ] ] ] } },
{ "type": "Feature", "properties": { "id": 30, "left": -123.59115417599999, "top": 48.050649575999998, "right": -123.58615417599999, "bottom": 48.045649575999995 }, "geometry": { "type": "Polygon", "coordinates": [ [ [ 455945.819938295637257, 5322098.768343975767493 ], [ 456318.430162726901472, 5322095.921087828464806 ], [ 456314.201814381231088, 5321540.190224775113165 ], [ 455941.555519223795272, 5321543.037533193826675 ], [ 455945.819938295637257, 5322098.768343975767493 ] ] ] } },
{ "type": "Feature", "properties": { "id": 31, "left": -123.59115417599999, "top": 48.045649575999995, "right": -123.58615417599999, "bottom": 48.040649575999993 }, "geometry": { "type": "Polygon", "coordinates": [ [ [ 455941.555519223795272, 5321543.037533193826675 ], [ 456314.201814381231088, 5321540.190224775113165 ], [ 456309.973801392363384, 5320984.459842692129314 ], [ 455937.291438368905801, 5320987.307203294709325 ], [ 455941.555519223795272, 5321543.037533193826675 ] ] ] } },
{ "type": "Feature", "properties": { "id": 32, "left": -123.59115417599999, "top": 48.040649576, "right": -123.58615417599999, "bottom": 48.035649575999997 }, "geometry": { "type": "Polygon", "coordinates": [ [ [ 455937.291438368905801, 5320987.307203294709325 ], [ 456309.973801392363384, 5320984.459842692129314 ], [ 456305.746123792021535, 5320428.72994158603251 ], [ 455933.027695762983058, 5320431.577354287728667 ], [ 455937.291438368905801, 5320987.307203294709325 ] ] ] } },
{ "type": "Feature", "properties": { "id": 33, "left": -123.59115417599999, "top": 48.035649575999997, "right": -123.58615417599999, "bottom": 48.030649575999995 }, "geometry": { "type": "Polygon", "coordinates": [ [ [ 455933.027695762983058, 5320431.577354287728667 ], [ 456305.746123792021535, 5320428.72994158603251 ], [ 456301.518781611928716, 5319873.000521467067301 ], [ 455928.764291437983047, 5319875.847986181266606 ], [ 455933.027695762983058, 5320431.577354287728667 ] ] ] } },
{ "type": "Feature", "properties": { "id": 34, "left": -123.59115417599999, "top": 48.030649576000002, "right": -123.58615417599999, "bottom": 48.025649576 }, "geometry": { "type": "Polygon", "coordinates": [ [ [ 455928.764291437983047, 5319875.847986181266606 ], [ 456301.518781611928716, 5319873.000521467067301 ], [ 456297.291774883691687, 5319317.271582341752946 ], [ 455924.501225425745361, 5319320.119098980911076 ], [ 455928.764291437983047, 5319875.847986181266606 ] ] ] } },
{ "type": "Feature", "properties": { "id": 35, "left": -123.59115417599999, "top": 48.025649576, "right": -123.58615417599999, "bottom": 48.020649575999997 }, "geometry": { "type": "Polygon", "coordinates": [ [ [ 455924.501225425745361, 5319320.119098980911076 ], [ 456297.291774883691687, 5319317.271582341752946 ], [ 456293.065103639033623, 5318761.543124221265316 ], [ 455920.238497758400626, 5318764.390692697837949 ], [ 455924.501225425745361, 5319320.119098980911076 ] ] ] } },
{ "type": "Feature", "properties": { "id": 36, "left": -123.59115417599999, "top": 48.020649575999997, "right": -123.58615417599999, "bottom": 48.015649575999994 }, "geometry": { "type": "Polygon", "coordinates": [ [ [ 455920.238497758400626, 5318764.390692697837949 ], [ 456293.065103639033623, 5318761.543124221265316 ], [ 456288.838767909561284, 5318205.815147113986313 ], [ 455915.976108467730228, 5318208.662767340429127 ], [ 455920.238497758400626, 5318764.390692697837949 ] ] ] } },
{ "type": "Feature", "properties": { "id": 37, "left": -123.59115417599999, "top": 48.015649576000001, "right": -123.58615417599999, "bottom": 48.010649576 }, "geometry": { "type": "Polygon", "coordinates": [ [ [ 455915.976108467730228, 5318208.662767340429127 ], [ 456288.838767909561284, 5318205.815147113986313 ], [ 456284.612767726997845, 5317650.087651023641229 ], [ 455911.714057585806586, 5317652.935322915203869 ], [ 455915.976108467730228, 5318208.662767340429127 ] ] ] } },
{ "type": "Feature", "properties": { "id": 38, "left": -123.59115417599999, "top": 48.010649576, "right": -123.58615417599999, "bottom": 48.005649575999996 }, "geometry": { "type": "Polygon", "coordinates": [ [ [ 455911.714057585806586, 5317652.935322915203869 ], [ 456284.612767726997845, 5317650.087651023641229 ], [ 456280.387103123066481, 5317094.360635961405933 ], [ 455907.452345144469291, 5317097.208359431475401 ], [ 455911.714057585806586, 5317652.935322915203869 ] ] ] } },
{ "type": "Feature", "properties": { "id": 39, "left": -123.59115417599999, "top": 48.005649575999996, "right": -123.58615417599999, "bottom": 48.000649575999994 }, "geometry": { "type": "Polygon", "coordinates": [ [ [ 455907.452345144469291, 5317097.208359431475401 ], [ 456280.387103123066481, 5317094.360635961405933 ], [ 456276.161774129373953, 5316538.634101934731007 ], [ 455903.190971175732557, 5316541.481876894831657 ], [ 455907.452345144469291, 5317097.208359431475401 ] ] ] } },
{ "type": "Feature", "properties": { "id": 40, "left": -123.58615417599999, "top": 48.065649575999998, "right": -123.581154176, "bottom": 48.060649575999996 }, "geometry": { "type": "Polygon", "coordinates": [ [ [ 456331.117219588020816, 5323763.1165627297014 ], [ 456703.619249773502816, 5323760.293648459017277 ], [ 456699.425974797981326, 5323204.561290458776057 ], [ 456326.887865361990407, 5323207.384256814606488 ], [ 456331.117219588020816, 5323763.1165627297014 ] ] ] } },
{ "type": "Feature", "properties": { "id": 41, "left": -123.58615417599999, "top": 48.060649575999996, "right": -123.581154176, "bottom": 48.055649575999993 }, "geometry": { "type": "Polygon", "coordinates": [ [ [ 456326.887865361990407, 5323207.384256814606488 ], [ 456699.425974797981326, 5323204.561290458776057 ], [ 456695.233032224932685, 5322648.829413489438593 ], [ 456322.658846397709567, 5322651.652431844733655 ], [ 456326.887865361990407, 5323207.384256814606488 ] ] ] } },
{ "type": "Feature", "properties": { "id": 42, "left": -123.58615417599999, "top": 48.055649576, "right": -123.581154176, "bottom": 48.050649575999998 }, "geometry": { "type": "Polygon", "coordinates": [ [ [ 456322.658846397709567, 5322651.652431844733655 ], [ 456695.233032224932685, 5322648.829413489438593 ], [ 456691.040422085672617, 5322093.098017560318112 ], [ 456318.430162726901472, 5322095.921087828464806 ], [ 456322.658846397709567, 5322651.652431844733655 ] ] ] } },
{ "type": "Feature", "properties": { "id": 43, "left": -123.58615417599999, "top": 48.050649575999998, "right": -123.581154176, "bottom": 48.045649575999995 }, "geometry": { "type": "Polygon", "coordinates": [ [ [ 456318.430162726901472, 5322095.921087828464806 ], [ 456691.040422085672617, 5322093.098017560318112 ], [ 456686.848144411633257, 5321537.367102678865194 ], [ 456314.201814381231088, 5321540.190224775113165 ], [ 456318.430162726901472, 5322095.921087828464806 ] ] ] } },
{ "type": "Feature", "properties": { "id": 44, "left": -123.58615417599999, "top": 48.045649575999995, "right": -123.581154176, "bottom": 48.040649575999993 }, "geometry": { "type": "Polygon", "coordinates": [ [ [ 456314.201814381231088, 5321540.190224775113165 ], [ 456686.848144411633257, 5321537.367102678865194 ], [ 456682.65619923430495, 5320981.636668853461742 ], [ 456309.973801392363384, 5320984.459842692129314 ], [ 456314.201814381231088, 5321540.190224775113165 ] ] ] } },
{ "type": "Feature", "properties": { "id": 45, "left": -123.58615417599999, "top": 48.040649576, "right": -123.581154176, "bottom": 48.035649575999997 }, "geometry": { "type": "Polygon", "coordinates": [ [ [ 456309.973801392363384, 5320984.459842692129314 ], [ 456682.65619923430495, 5320981.636668853461742 ], [ 456678.464586585003417, 5320425.90671609248966 ], [ 456305.746123792021535, 5320428.72994158603251 ], [ 456309.973801392363384, 5320984.459842692129314 ] ] ] } },
{ "type": "Feature", "properties": { "id": 46, "left": -123.58615417599999, "top": 48.035649575999997, "right": -123.581154176, "bottom": 48.030649575999995 }, "geometry": { "type": "Polygon", "coordinates": [ [ [ 456305.746123792021535, 5320428.72994158603251 ], [ 456678.464586585003417, 5320425.90671609248966 ], [ 456674.273306495219003, 5319870.17724440433085 ], [ 456301.518781611928716, 5319873.000521467067301 ], [ 456305.746123792021535, 5320428.72994158603251 ] ] ] } },
{ "type": "Feature", "properties": { "id": 47, "left": -123.58615417599999, "top": 48.030649576000002, "right": -123.581154176, "bottom": 48.025649576 }, "geometry": { "type": "Polygon", "coordinates": [ [ [ 456301.518781611928716, 5319873.000521467067301 ], [ 456674.273306495219003, 5319870.17724440433085 ], [ 456670.082358996325638, 5319314.448253797367215 ], [ 456297.291774883691687, 5319317.271582341752946 ], [ 456301.518781611928716, 5319873.000521467067301 ] ] ] } },
{ "type": "Feature", "properties": { "id": 48, "left": -123.58615417599999, "top": 48.025649576, "right": -123.581154176, "bottom": 48.020649575999997 }, "geometry": { "type": "Polygon", "coordinates": [ [ [ 456297.291774883691687, 5319317.271582341752946 ], [ 456670.082358996325638, 5319314.448253797367215 ], [ 456665.891744119755458, 5318758.719744279980659 ], [ 456293.065103639033623, 5318761.543124221265316 ], [ 456297.291774883691687, 5319317.271582341752946 ] ] ] } },
{ "type": "Feature", "properties": { "id": 49, "left": -123.58615417599999, "top": 48.020649575999997, "right": -123.581154176, "bottom": 48.015649575999994 }, "geometry": { "type": "Polygon", "coordinates": [ [ [ 456293.065103639033623, 5318761.543124221265316 ], [ 456665.891744119755458, 5318758.719744279980659 ], [ 456661.7014618969406, 5318202.991715860553086 ], [ 456288.838767909561284, 5318205.815147113986313 ], [ 456293.065103639033623, 5318761.543124221265316 ] ] ] } },
{ "type": "Feature", "properties": { "id": 50, "left": -123.58615417599999, "top": 48.015649576000001, "right": -123.581154176, "bottom": 48.010649576 }, "geometry": { "type": "Polygon", "coordinates": [ [ [ 456288.838767909561284, 5318205.815147113986313 ], [ 456661.7014618969406, 5318202.991715860553086 ], [ 456657.511512359196786, 5317647.264168545603752 ], [ 456284.612767726997845, 5317650.087651023641229 ], [ 456288.838767909561284, 5318205.815147113986313 ] ] ] } },
{ "type": "Feature", "properties": { "id": 51, "left": -123.58615417599999, "top": 48.010649576, "right": -123.581154176, "bottom": 48.005649575999996 }, "geometry": { "type": "Polygon", "coordinates": [ [ [ 456284.612767726997845, 5317650.087651023641229 ], [ 456657.511512359196786, 5317647.264168545603752 ], [ 456653.32189553801436, 5317091.537102344445884 ], [ 456280.387103123066481, 5317094.360635961405933 ], [ 456284.612767726997845, 5317650.087651023641229 ] ] ] } },
{ "type": "Feature", "properties": { "id": 52, "left": -123.58615417599999, "top": 48.005649575999996, "right": -123.581154176, "bottom": 48.000649575999994 }, "geometry": { "type": "Polygon", "coordinates": [ [ [ 456280.387103123066481, 5317094.360635961405933 ], [ 456653.32189553801436, 5317091.537102344445884 ], [ 456649.132611464709044, 5316535.810517264530063 ], [ 456276.161774129373953, 5316538.634101934731007 ], [ 456280.387103123066481, 5317094.360635961405933 ] ] ] } },
{ "type": "Feature", "properties": { "id": 53, "left": -123.581154176, "top": 48.065649575999998, "right": -123.576154176, "bottom": 48.060649575999996 }, "geometry": { "type": "Polygon", "coordinates": [ [ [ 456703.619249773502816, 5323760.293648459017277 ], [ 457076.121314750402234, 5323757.494918691925704 ], [ 457071.964118971372955, 5323201.762509053573012 ], [ 456699.425974797981326, 5323204.561290458776057 ], [ 456703.619249773502816, 5323760.293648459017277 ] ] ] } },
{ "type": "Feature", "properties": { "id": 54, "left": -123.581154176, "top": 48.060649575999996, "right": -123.576154176, "bottom": 48.055649575999993 }, "geometry": { "type": "Polygon", "coordinates": [ [ [ 456699.425974797981326, 5323204.561290458776057 ], [ 457071.964118971372955, 5323201.762509053573012 ], [ 457067.807252735481597, 5322646.030580529943109 ], [ 456695.233032224932685, 5322648.829413489438593 ], [ 456699.425974797981326, 5323204.561290458776057 ] ] ] } },
{ "type": "Feature", "properties": { "id": 55, "left": -123.581154176, "top": 48.055649576, "right": -123.576154176, "bottom": 48.050649575999998 }, "geometry": { "type": "Polygon", "coordinates": [ [ [ 456695.233032224932685, 5322648.829413489438593 ], [ 457067.807252735481597, 5322646.030580529943109 ], [ 457063.650716073694639, 5322090.299133132211864 ], [ 456691.040422085672617, 5322093.098017560318112 ], [ 456695.233032224932685, 5322648.829413489438593 ] ] ] } },
{ "type": "Feature", "properties": { "id": 56, "left": -123.581154176, "top": 48.050649575999998, "right": -123.576154176, "bottom": 48.045649575999995 }, "geometry": { "type": "Polygon", "coordinates": [ [ [ 456691.040422085672617, 5322093.098017560318112 ], [ 457063.650716073694639, 5322090.299133132211864 ], [ 457059.494509017269593, 5321534.568166867829859 ], [ 456686.848144411633257, 5321537.367102678865194 ], [ 456691.040422085672617, 5322093.098017560318112 ] ] ] } },
{ "type": "Feature", "properties": { "id": 57, "left": -123.581154176, "top": 48.045649575999995, "right": -123.576154176, "bottom": 48.040649575999993 }, "geometry": { "type": "Polygon", "coordinates": [ [ [ 456686.848144411633257, 5321537.367102678865194 ], [ 457059.494509017269593, 5321534.568166867829859 ], [ 457055.338631597347558, 5320978.83768174611032 ], [ 456682.65619923430495, 5320981.636668853461742 ], [ 456686.848144411633257, 5321537.367102678865194 ] ] ] } },
{ "type": "Feature", "properties": { "id": 58, "left": -123.581154176, "top": 48.040649576, "right": -123.576154176, "bottom": 48.035649575999997 }, "geometry": { "type": "Polygon", "coordinates": [ [ [ 456682.65619923430495, 5320981.636668853461742 ], [ 457055.338631597347558, 5320978.83768174611032 ], [ 457051.183083845011424, 5320423.107677772641182 ], [ 456678.464586585003417, 5320425.90671609248966 ], [ 456682.65619923430495, 5320981.636668853461742 ] ] ] } },
{ "type": "Feature", "properties": { "id": 59, "left": -123.581154176, "top": 48.035649575999997, "right": -123.576154176, "bottom": 48.030649575999995 }, "geometry": { "type": "Polygon", "coordinates": [ [ [ 456678.464586585003417, 5320425.90671609248966 ], [ 457051.183083845011424, 5320423.107677772641182 ], [ 457047.027865791460499, 5319867.378154957666993 ], [ 456674.273306495219003, 5319870.17724440433085 ], [ 456678.464586585003417, 5320425.90671609248966 ] ] ] } },
{ "type": "Feature", "properties": { "id": 60, "left": -123.581154176, "top": 48.030649576000002, "right": -123.576154176, "bottom": 48.025649576 }, "geometry": { "type": "Polygon", "coordinates": [ [ [ 456674.273306495219003, 5319870.17724440433085 ], [ 457047.027865791460499, 5319867.378154957666993 ], [ 457042.872977467835881, 5319311.649113308638334 ], [ 456670.082358996325638, 5319314.448253797367215 ], [ 456674.273306495219003, 5319870.17724440433085 ] ] ] } },
{ "type": "Feature", "properties": { "id": 61, "left": -123.581154176, "top": 48.025649576, "right": -123.576154176, "bottom": 48.020649575999997 }, "geometry": { "type": "Polygon", "coordinates": [ [ [ 456670.082358996325638, 5319314.448253797367215 ], [ 457042.872977467835881, 5319311.649113308638334 ], [ 457038.718418905278668, 5318755.920552833005786 ], [ 456665.891744119755458, 5318758.719744279980659 ], [ 456670.082358996325638, 5319314.448253797367215 ] ] ] } },
{ "type": "Feature", "properties": { "id": 62, "left": -123.581154176, "top": 48.020649575999997, "right": -123.576154176, "bottom": 48.015649575999994 }, "geometry": { "type": "Polygon", "coordinates": [ [ [ 456665.891744119755458, 5318758.719744279980659 ], [ 457038.718418905278668, 5318755.920552833005786 ], [ 457034.564190134871751, 5318200.192473543807864 ], [ 456661.7014618969406, 5318202.991715860553086 ], [ 456665.891744119755458, 5318758.719744279980659 ] ] ] } },
{ "type": "Feature", "properties": { "id": 63, "left": -123.581154176, "top": 48.015649576000001, "right": -123.576154176, "bottom": 48.010649576 }, "geometry": { "type": "Polygon", "coordinates": [ [ [ 456661.7014618969406, 5318202.991715860553086 ], [ 457034.564190134871751, 5318200.192473543807864 ], [ 457030.410291187814437, 5317644.464875442907214 ], [ 456657.511512359196786, 5317647.264168545603752 ], [ 456661.7014618969406, 5318202.991715860553086 ] ] ] } },
{ "type": "Feature", "properties": { "id": 64, "left": -123.581154176, "top": 48.010649576, "right": -123.576154176, "bottom": 48.005649575999996 }, "geometry": { "type": "Polygon", "coordinates": [ [ [ 456657.511512359196786, 5317647.264168545603752 ], [ 457030.410291187814437, 5317644.464875442907214 ], [ 457026.256722095189616, 5317088.737758541479707 ], [ 456653.32189553801436, 5317091.537102344445884 ], [ 456657.511512359196786, 5317647.264168545603752 ] ] ] } },
{ "type": "Feature", "properties": { "id": 65, "left": -123.581154176, "top": 48.005649575999996, "right": -123.576154176, "bottom": 48.000649575999994 }, "geometry": { "type": "Polygon", "coordinates": [ [ [ 456653.32189553801436, 5317091.537102344445884 ], [ 457026.256722095189616, 5317088.737758541479707 ], [ 457022.10348288808018, 5316533.0111228460446 ], [ 456649.132611464709044, 5316535.810517264530063 ], [ 456653.32189553801436, 5317091.537102344445884 ] ] ] } }
]
}
