{
"type": "FeatureCollection",
"name": "LR_budget_reaches_",
"crs": { "type": "name", "properties": { "name": "urn:ogc:def:crs:EPSG::6339" } },
"features": [
{ "type": "Feature", "properties": { "id": 1, "id_2": 1 }, "geometry": { "type": "MultiPolygon", "coordinates": [ [ [ [ 458547.760607520933263, 5327111.349550585262477 ], [ 458560.791872119880281, 5327138.004409992136061 ], [ 458533.321067963261157, 5327195.019286543130875 ], [ 458582.272964053496253, 5327209.664730866439641 ], [ 458597.048121800064109, 5327196.837945569306612 ], [ 458605.953069764364045, 5327182.762382658198476 ], [ 458605.146619806415401, 5327155.343084088526666 ], [ 458605.820048901776318, 5327154.387249243445694 ], [ 458605.519492595107295, 5327153.36121219675988 ], [ 458608.292014347738586, 5327136.086268968880177 ], [ 458615.329954181448556, 5327124.569640149362385 ], [ 458547.760607520933263, 5327111.349550585262477 ] ] ] ] } },
{ "type": "Feature", "properties": { "id": 1, "id_2": 1 }, "geometry": { "type": "MultiPolygon", "coordinates": [ [ [ [ 458539.348399720271118, 5327290.838519521988928 ], [ 458555.146722414356191, 5327273.891227904707193 ], [ 458563.211221993726213, 5327242.439679545350373 ], [ 458569.254043255292345, 5327235.572837202809751 ], [ 458571.502783398842439, 5327224.5936941485852 ], [ 458582.486234957468696, 5327209.664730865508318 ], [ 458533.377576229861006, 5327194.902005235664546 ], [ 458518.050024349242449, 5327226.713905365206301 ], [ 458492.688622860703617, 5327269.350464389659464 ], [ 458539.348399720271118, 5327290.838519521988928 ] ] ] ] } },
{ "type": "Feature", "properties": { "id": 1, "id_2": 1 }, "geometry": { "type": "MultiPolygon", "coordinates": [ [ [ [ 458490.198149862175342, 5327359.717450173571706 ], [ 458510.791974727821071, 5327321.47177542373538 ], [ 458539.402936131868046, 5327290.780016826465726 ], [ 458492.836183886742219, 5327269.102390780113637 ], [ 458462.404977251542732, 5327320.262100486084819 ], [ 458451.530849413014948, 5327344.871968751773238 ], [ 458490.198149862175342, 5327359.717450173571706 ] ] ] ] } },
{ "type": "Feature", "properties": { "id": 1, "id_2": 1 }, "geometry": { "type": "MultiPolygon", "coordinates": [ [ [ [ 458457.210544895555358, 5327442.292808736674488 ], [ 458459.380789909395389, 5327434.576382020488381 ], [ 458462.061807059275452, 5327429.571816674433649 ], [ 458476.921076494443696, 5327384.374872142449021 ], [ 458490.147154385107569, 5327359.812156059779227 ], [ 458451.552764781692531, 5327344.822370812296867 ], [ 458416.437329649168532, 5327424.294145059771836 ], [ 458415.585940600954928, 5327430.821461096405983 ], [ 458457.210544895555358, 5327442.292808736674488 ] ] ] ] } },
{ "type": "Feature", "properties": { "id": 1, "id_2": 1 }, "geometry": { "type": "MultiPolygon", "coordinates": [ [ [ [ 458415.601339015760459, 5327430.703406582586467 ], [ 458406.759930153901223, 5327498.487541189417243 ], [ 458408.256316218583379, 5327530.909239256754518 ], [ 458446.654734760813881, 5327536.029028396122158 ], [ 458445.964656242867932, 5327508.770926939323545 ], [ 458444.864690666552633, 5327503.931078403256834 ], [ 458444.461465687549207, 5327486.592404307797551 ], [ 458447.305145981314126, 5327482.238018858246505 ], [ 458455.92020084959222, 5327449.500810357742012 ], [ 458455.751765098713804, 5327447.479581347666681 ], [ 458457.261834156815894, 5327442.11044691875577 ], [ 458415.601339015760459, 5327430.703406582586467 ] ] ] ] } },
{ "type": "Feature", "properties": { "id": 1, "id_2": 1 }, "geometry": { "type": "MultiPolygon", "coordinates": [ [ [ [ 458408.271691936184652, 5327531.242379805073142 ], [ 458409.179280027747154, 5327550.906788455322385 ], [ 458422.888929312641267, 5327610.584085343405604 ], [ 458431.580844181706198, 5327628.672664935700595 ], [ 458458.953204756602645, 5327620.927772214636207 ], [ 458456.55821505660424, 5327609.979247871786356 ], [ 458456.55821505660424, 5327592.237348797731102 ], [ 458451.719515309028793, 5327577.318024575710297 ], [ 458444.864690666552633, 5327550.705175964161754 ], [ 458446.877646799141075, 5327544.834053910337389 ], [ 458446.653303865576163, 5327535.972508035600185 ], [ 458408.271691936184652, 5327531.242379805073142 ] ] ] ] } },
{ "type": "Feature", "properties": { "id": 1, "id_2": 1 }, "geometry": { "type": "MultiPolygon", "coordinates": [ [ [ [ 458431.49305394012481, 5327628.489966324530542 ], [ 458452.727577756333631, 5327672.680732103995979 ], [ 458456.778591978305485, 5327679.345303888432682 ], [ 458484.349704367108643, 5327666.232213850133121 ], [ 458471.074314299505204, 5327650.301745768636465 ], [ 458459.380789909395389, 5327622.882447198964655 ], [ 458458.98398052243283, 5327621.068461430259049 ], [ 458431.49305394012481, 5327628.489966324530542 ] ] ], [ [ [ 458505.85012464702595, 5327691.496335222385824 ], [ 458505.672195247199852, 5327691.261791923083365 ], [ 458504.303404535690788, 5327692.001054417341948 ], [ 458505.85012464702595, 5327691.496335222385824 ] ] ] ] } },
{ "type": "Feature", "properties": { "id": 1, "id_2": 1 }, "geometry": { "type": "MultiPolygon", "coordinates": [ [ [ [ 458504.15041211026255, 5327692.083683237433434 ], [ 458474.315823704178911, 5327708.196878663264215 ], [ 458477.72752645239234, 5327713.809679958969355 ], [ 458515.630674475396518, 5327759.777327561751008 ], [ 458525.863993178470992, 5327771.127008304931223 ], [ 458555.203007477917708, 5327758.42216729093343 ], [ 458517.646799370413646, 5327721.874179535545409 ], [ 458519.183105530100875, 5327709.071628204546869 ], [ 458505.855922432674561, 5327691.503977758809924 ], [ 458504.15041211026255, 5327692.083683237433434 ] ] ] ] } },
{ "type": "Feature", "properties": { "id": 1, "id_2": 1 }, "geometry": { "type": "MultiPolygon", "coordinates": [ [ [ [ 458525.883661213563755, 5327771.148821944370866 ], [ 458559.985422161931638, 5327808.970774995163083 ], [ 458584.419135151896626, 5327823.135246293619275 ], [ 458611.157234485610388, 5327807.995865848846734 ], [ 458577.727321236743592, 5327780.341801485978067 ], [ 458555.050228978507221, 5327758.273490227758884 ], [ 458525.883661213563755, 5327771.148821944370866 ] ] ] ] } },
{ "type": "Feature", "properties": { "id": 1, "id_2": 1 }, "geometry": { "type": "MultiPolygon", "coordinates": [ [ [ [ 458584.399156967410818, 5327823.123664737679064 ], [ 458615.630469259689562, 5327841.228773313574493 ], [ 458630.953018460480962, 5327866.228722009807825 ], [ 458641.870915063773282, 5327875.023694273084402 ], [ 458670.620604372641537, 5327856.428150550462306 ], [ 458654.743292219704017, 5327844.051348163746297 ], [ 458610.916786640591454, 5327807.796961349435151 ], [ 458584.399156967410818, 5327823.123664737679064 ] ] ] ] } },
{ "type": "Feature", "properties": { "id": 1, "id_2": 1 }, "geometry": { "type": "MultiPolygon", "coordinates": [ [ [ [ 458642.069707994756754, 5327875.183833023533225 ], [ 458659.985216946224682, 5327889.615770789794624 ], [ 458711.59801425418118, 5327940.422118140384555 ], [ 458714.022133492457215, 5327942.815552324987948 ], [ 458753.639026238874067, 5327910.914309102110565 ], [ 458741.436662697931752, 5327908.970569777302444 ], [ 458733.005297183350194, 5327903.030289527960122 ], [ 458732.565713160496671, 5327902.922195096500218 ], [ 458730.327996117295697, 5327901.144009231589735 ], [ 458705.952864548715297, 5327883.970621081069112 ], [ 458670.599001760419924, 5327856.411310719326138 ], [ 458642.069707994756754, 5327875.183833023533225 ] ] ] ] } },
{ "type": "Feature", "properties": { "id": 1, "id_2": 1 }, "geometry": { "type": "MultiPolygon", "coordinates": [ [ [ [ 458714.037002450961154, 5327942.830233069136739 ], [ 458773.145391480240505, 5328001.190414641983807 ], [ 458787.866115558485035, 5327990.022968789562583 ], [ 458809.406476867676247, 5327944.169724417850375 ], [ 458817.85664547275519, 5327913.120267683640122 ], [ 458816.638121275464073, 5327913.002819567918777 ], [ 458816.180307629634626, 5327912.469229870475829 ], [ 458803.864895441161934, 5327913.381482625380158 ], [ 458787.001085321360733, 5327916.228619398549199 ], [ 458753.852067511936184, 5327910.948244879953563 ], [ 458714.037002450961154, 5327942.830233069136739 ] ] ] ] } },
{ "type": "Feature", "properties": { "id": 1, "id_2": 1 }, "geometry": { "type": "MultiPolygon", "coordinates": [ [ [ [ 458809.406476867676247, 5327944.169724417850375 ], [ 458810.046289579826407, 5327944.169724417850375 ], [ 458788.505928270693403, 5327989.809697885066271 ], [ 458773.201592833269387, 5328001.24590458534658 ], [ 458775.307560931192711, 5328003.325214859098196 ], [ 458803.564134768268559, 5328027.954255568794906 ], [ 458824.335440151276998, 5328004.312119360081851 ], [ 458848.221781404979993, 5327921.136466780677438 ], [ 458851.010712858813349, 5327911.840028600767255 ], [ 458844.259032334841322, 5327914.615719483233988 ], [ 458833.371957902680151, 5327914.615719483233988 ], [ 458817.564354572328739, 5327913.092095066793263 ], [ 458809.406476867676247, 5327944.169724417850375 ] ] ] ] } },
{ "type": "Feature", "properties": { "id": 1, "id_2": 1 }, "geometry": { "type": "MultiPolygon", "coordinates": [ [ [ [ 458824.548711055307649, 5328004.738661168143153 ], [ 458803.539523689483758, 5328027.932804020121694 ], [ 458836.404259359347634, 5328056.578418218530715 ], [ 458841.183841571270023, 5328051.658260059542954 ], [ 458879.146062492392957, 5327959.738500413484871 ], [ 458889.934825883654412, 5327906.624588333070278 ], [ 458883.573467784270179, 5327905.543157456442714 ], [ 458876.898908476927318, 5327906.05169530864805 ], [ 458859.093666660191957, 5327908.517036482691765 ], [ 458851.342841234290972, 5327911.70348693523556 ], [ 458824.548711055307649, 5328004.738661168143153 ] ] ] ] } },
{ "type": "Feature", "properties": { "id": 1, "id_2": 1 }, "geometry": { "type": "MultiPolygon", "coordinates": [ [ [ [ 458879.572604300337844, 5327959.525229510851204 ], [ 458842.036925187334418, 5328051.658260060474277 ], [ 458836.936350316740572, 5328057.042200202122331 ], [ 458864.685017028532457, 5328081.228538079187274 ], [ 458945.260042748064734, 5327958.245604086667299 ], [ 458948.927048233221285, 5327955.230510687455535 ], [ 458941.83947724517202, 5327942.236630543135107 ], [ 458929.351705031876918, 5327924.162223392166197 ], [ 458917.238480125379283, 5327915.543197978287935 ], [ 458903.734716732695233, 5327908.970569778233767 ], [ 458890.399404744093772, 5327906.703566740266979 ], [ 458879.572604300337844, 5327959.525229510851204 ] ] ] ] } },
{ "type": "Feature", "properties": { "id": 1, "id_2": 1 }, "geometry": { "type": "MultiPolygon", "coordinates": [ [ [ [ 458946.113126364303753, 5327956.965978660620749 ], [ 458917.534825221460778, 5328000.473243086598814 ], [ 458864.684688612993341, 5328081.228251825086772 ], [ 458877.875843175570481, 5328092.725947355851531 ], [ 458880.425687916518655, 5328094.738982677459717 ], [ 458880.928193741303403, 5328095.386442105285823 ], [ 458894.662154705903959, 5328107.357259432785213 ], [ 458905.707224938261788, 5328121.470404730178416 ], [ 458940.568082858982962, 5328100.710567990317941 ], [ 458936.729206586023793, 5328069.573015999048948 ], [ 458950.378544445324223, 5328053.364427291788161 ], [ 458949.952002637204714, 5328029.478086037561297 ], [ 458949.952002637204714, 5327999.62015947047621 ], [ 458961.468631455965806, 5327982.558487146161497 ], [ 458962.321567182021681, 5327980.915796117857099 ], [ 458961.931098721164744, 5327974.082598053850234 ], [ 458952.524939187860582, 5327966.430129281245172 ], [ 458949.097526866651606, 5327955.543054848909378 ], [ 458948.78189722856041, 5327954.964400512166321 ], [ 458946.113126364303753, 5327956.965978660620749 ] ] ] ] } },
{ "type": "Feature", "properties": { "id": 1, "id_2": 1 }, "geometry": { "type": "MultiPolygon", "coordinates": [ [ [ [ 458905.978415129007772, 5328121.816925529390574 ], [ 458909.178253948746715, 5328125.905608465895057 ], [ 458909.216056290373672, 5328126.094620173797011 ], [ 458910.791153864760417, 5328125.905608464963734 ], [ 458918.855653444130439, 5328153.324907035566866 ], [ 458927.726602981390897, 5328199.292554637417197 ], [ 458938.949133034562692, 5328267.301086760126054 ], [ 458969.061192688532174, 5328265.349379189312458 ], [ 458962.00072619371349, 5328222.679603416472673 ], [ 458956.355576488189399, 5328192.03450501523912 ], [ 458956.697361337079201, 5328175.970617115497589 ], [ 458954.217420717992354, 5328164.26529739331454 ], [ 458941.421166474930942, 5328100.71056798659265 ], [ 458905.978415129007772, 5328121.816925529390574 ] ] ] ] } },
{ "type": "Feature", "properties": { "id": 1, "id_2": 1 }, "geometry": { "type": "MultiPolygon", "coordinates": [ [ [ [ 458938.9901942119468, 5328267.549917494878173 ], [ 458955.32722896465566, 5328366.552348096854985 ], [ 458981.446666168398224, 5328363.524007551372051 ], [ 458978.532950331456959, 5328341.227747233584523 ], [ 458971.274900710035581, 5328278.727875493466854 ], [ 458969.029428353358526, 5328265.157412120141089 ], [ 458938.9901942119468, 5328267.549917494878173 ] ] ] ] } },
{ "type": "Feature", "properties": { "id": 1, "id_2": 1 }, "geometry": { "type": "MultiPolygon", "coordinates": [ [ [ [ 458955.291254566109274, 5328366.334343241527677 ], [ 458968.049100878241006, 5328443.646891892887652 ], [ 458960.533673610188998, 5328444.760288525372744 ], [ 458955.145901551062707, 5328454.937191302888095 ], [ 458953.020163523091469, 5328466.219954682514071 ], [ 458994.238974089792464, 5328462.523702647536993 ], [ 458982.56520012114197, 5328424.292092900723219 ], [ 458987.807124847720843, 5328412.195343531668186 ], [ 458981.416647247446235, 5328363.294297547079623 ], [ 458955.291254566109274, 5328366.334343241527677 ] ] ] ] } },
{ "type": "Feature", "properties": { "id": 1, "id_2": 1 }, "geometry": { "type": "MultiPolygon", "coordinates": [ [ [ [ 459028.009153519873507, 5328559.029740790836513 ], [ 459031.561976601544302, 5328558.657067040912807 ], [ 459012.250362926628441, 5328520.322072731330991 ], [ 459007.161923838197254, 5328519.049962959252298 ], [ 458998.694199279882014, 5328477.114565145224333 ], [ 458994.26559521490708, 5328462.61088683269918 ], [ 458952.973239879822358, 5328466.469010942615569 ], [ 458944.662052097904962, 5328510.582238400354981 ], [ 458952.653576920973137, 5328564.810442556627095 ], [ 459028.009153519873507, 5328559.029740790836513 ] ] ] ] } },
{ "type": "Feature", "properties": { "id": 1, "id_2": 1 }, "geometry": { "type": "MultiPolygon", "coordinates": [ [ [ [ 458964.241153208597098, 5328664.812109200283885 ], [ 459073.428820545552298, 5328649.38782905600965 ], [ 459064.016645872558001, 5328623.082007533870637 ], [ 459031.154381338041276, 5328557.847960025072098 ], [ 458952.586684052599594, 5328564.356526664458215 ], [ 458955.952351509011351, 5328587.194984404370189 ], [ 458962.403951172484085, 5328642.840031502768397 ], [ 458964.156773159222212, 5328664.625104766339064 ], [ 458964.241153208597098, 5328664.812109200283885 ] ] ] ] } },
{ "type": "Feature", "properties": { "id": 1, "id_2": 1 }, "geometry": { "type": "MultiPolygon", "coordinates": [ [ [ [ 458964.880965920747258, 5328665.238651010207832 ], [ 458970.639280330156907, 5328689.338263167999685 ], [ 458967.224002942093648, 5328702.746389210224152 ], [ 458968.049100878066383, 5328713.001177842728794 ], [ 458967.692028454213869, 5328713.240926470607519 ], [ 459027.795882615842856, 5328740.949821948073804 ], [ 459104.573408074269537, 5328766.755601339042187 ], [ 459119.66169297019951, 5328750.817272222600877 ], [ 459119.66169297019951, 5328730.339851939119399 ], [ 459095.468194232089445, 5328710.985052948817611 ], [ 459073.299547226517461, 5328649.026526702567935 ], [ 458964.880965920747258, 5328665.238651010207832 ] ] ] ] } },
{ "type": "Feature", "properties": { "id": 1, "id_2": 1 }, "geometry": { "type": "MultiPolygon", "coordinates": [ [ [ [ 458945.899855460040271, 5328727.940296798013151 ], [ 458945.287512025039177, 5328728.283958929590881 ], [ 458911.597603822476231, 5328750.904325866140425 ], [ 458906.916701581038069, 5328753.474232979118824 ], [ 459011.587293907767162, 5328833.082852494902909 ], [ 459054.241474718030076, 5328800.23913327138871 ], [ 459074.50221060286276, 5328779.55185557808727 ], [ 459097.748739144473802, 5328766.115788623690605 ], [ 459100.521260897105094, 5328765.262705006636679 ], [ 459027.795882615668233, 5328741.589634657837451 ], [ 458967.282041687809397, 5328713.516203299164772 ], [ 458946.463243522215635, 5328727.494539210572839 ], [ 458945.899855460040271, 5328727.940296798013151 ] ] ] ] } },
{ "type": "Feature", "properties": { "id": 1, "id_2": 1 }, "geometry": { "type": "MultiPolygon", "coordinates": [ [ [ [ 458907.118779804499354, 5328753.363288071937859 ], [ 458898.568740912014619, 5328758.057427071966231 ], [ 458890.022878598421812, 5328767.6086849514395 ], [ 458843.103279707138427, 5328793.20119343791157 ], [ 458899.406798376643565, 5328891.305809301324189 ], [ 458950.591815348947421, 5328858.462090077809989 ], [ 458958.269567894749343, 5328858.035548269748688 ], [ 459011.587293907534331, 5328832.443039783276618 ], [ 458907.118779804499354, 5328753.363288071937859 ] ] ] ] } },
{ "type": "Feature", "properties": { "id": 1, "id_2": 1 }, "geometry": { "type": "MultiPolygon", "coordinates": [ [ [ [ 458843.956363323377445, 5328793.20119343791157 ], [ 458808.12685144279385, 5328816.660992883145809 ], [ 458784.240510189032648, 5328842.680043177679181 ], [ 458742.88459586474346, 5328878.549968867562711 ], [ 458737.84421043965267, 5328888.551983695477247 ], [ 458719.406155357486568, 5328927.135321182198822 ], [ 458826.894690999295563, 5328980.879589002579451 ], [ 458849.074865020578727, 5328954.860538708977401 ], [ 458876.373540739121381, 5328926.708779374137521 ], [ 458900.686423800943885, 5328891.73235110938549 ], [ 458843.956363323377445, 5328793.20119343791157 ] ] ] ] } },
{ "type": "Feature", "properties": { "id": 1, "id_2": 1 }, "geometry": { "type": "MultiPolygon", "coordinates": [ [ [ [ 458718.979613549308851, 5328927.135321180336177 ], [ 458717.812473963014781, 5328928.302460766397417 ], [ 458697.888364969170652, 5328967.83936455193907 ], [ 458693.66991197335301, 5328988.931629531085491 ], [ 458694.902442858670838, 5329002.181336548179388 ], [ 458708.372214422328398, 5329033.161811144091189 ], [ 458724.501213581068441, 5329056.54885992500931 ], [ 458743.049562613596208, 5329088.806858242489398 ], [ 458748.32597646053182, 5329101.900181491859257 ], [ 458795.451299857755657, 5329075.270633666776121 ], [ 458785.520135613274761, 5329067.467576046474278 ], [ 458782.107801148435101, 5329061.922532540746033 ], [ 458796.610222623916343, 5329035.476940439082682 ], [ 458826.894690999179147, 5328980.453047193586826 ], [ 458718.979613549308851, 5328927.135321180336177 ] ] ] ] } },
{ "type": "Feature", "properties": { "id": 1, "id_2": 1 }, "geometry": { "type": "MultiPolygon", "coordinates": [ [ [ [ 458785.946677421277855, 5329184.340031467378139 ], [ 458811.112644099281169, 5329223.581877812743187 ], [ 458870.828497233625967, 5329198.84245294239372 ], [ 458861.444577455346007, 5329187.752365931868553 ], [ 458850.354490444704425, 5329160.880232021212578 ], [ 458829.880483655782882, 5329135.714265343733132 ], [ 458803.434891553479247, 5329104.576713351532817 ], [ 458801.656801254255697, 5329096.009551000781357 ], [ 458757.766159011749551, 5329125.325819674879313 ], [ 458764.82371147791855, 5329142.83900542370975 ], [ 458776.317768451815937, 5329170.137390737421811 ], [ 458785.946677421277855, 5329184.340031467378139 ] ] ] ] } },
{ "type": "Feature", "properties": { "id": 1, "id_2": 1 }, "geometry": { "type": "MultiPolygon", "coordinates": [ [ [ [ 458811.965727715461981, 5329223.155336004681885 ], [ 458811.965727715461981, 5329237.657757480628788 ], [ 458796.68992325704312, 5329251.633493474684656 ], [ 458794.73761643236503, 5329264.648872305639088 ], [ 458800.02255708858138, 5329291.828567109070718 ], [ 458824.761981958523393, 5329312.72911570686847 ], [ 458867.416162768786307, 5329307.610614009201527 ], [ 458906.231467306090053, 5329298.653236038982868 ], [ 458930.970892176032066, 5329293.961276150308549 ], [ 458920.307346973451786, 5329279.458854674361646 ], [ 458910.070343578991015, 5329275.619978401809931 ], [ 458910.070343578991015, 5329261.117556925863028 ], [ 458893.008671254909132, 5329250.454011723399162 ], [ 458884.051293284748681, 5329232.539255782961845 ], [ 458869.975413617386948, 5329198.415911135263741 ], [ 458811.965727715461981, 5329223.155336004681885 ] ] ] ] } },
{ "type": "Feature", "properties": { "id": 1, "id_2": 1 }, "geometry": { "type": "MultiPolygon", "coordinates": [ [ [ [ 458907.511092730390374, 5329299.506319653242826 ], [ 458868.269246384967119, 5329308.037155815400183 ], [ 458840.970570666424464, 5329310.169864855706692 ], [ 458823.908898342342582, 5329314.00874112918973 ], [ 458798.316389856219757, 5329290.548941683024168 ], [ 458791.918262734659947, 5329303.771737733855844 ], [ 458775.709674026817083, 5329325.9519117558375 ], [ 458759.927627127035521, 5329360.501798211596906 ], [ 458770.164630521496292, 5329366.046841717325151 ], [ 458879.78587520372821, 5329372.018427031114697 ], [ 458954.00414981355425, 5329366.473383525386453 ], [ 458961.255360551294871, 5329366.046841717325151 ], [ 458961.255360551294871, 5329339.601249614730477 ], [ 458951.444898964953609, 5329330.217329836450517 ], [ 458943.340604610973969, 5329314.435282937251031 ], [ 458939.501728338073008, 5329301.639028693549335 ], [ 458930.544350367912557, 5329293.53473433945328 ], [ 458907.511092730390374, 5329299.506319653242826 ] ] ] ] } },
{ "type": "Feature", "properties": { "id": 1, "id_2": 1 }, "geometry": { "type": "MultiPolygon", "coordinates": [ [ [ [ 458954.004149813670665, 5329367.326467142440379 ], [ 458878.506249779602513, 5329372.01842703204602 ], [ 458768.458463289192878, 5329364.767216294072568 ], [ 458759.927627127151936, 5329360.501798212528229 ], [ 458747.984456500271335, 5329383.535055850632489 ], [ 458710.875319195387419, 5329442.824367176741362 ], [ 458730.496242368069943, 5329444.530534408986568 ], [ 458843.529821515199728, 5329447.942868873476982 ], [ 458919.006684248452075, 5329454.705246748402715 ], [ 458917.595575391140301, 5329448.483539514243603 ], [ 458901.063351253047585, 5329404.12879182677716 ], [ 458922.837500117835589, 5329375.903043298050761 ], [ 458938.966499276924878, 5329405.741691743023694 ], [ 458939.369724255870096, 5329417.435216133482754 ], [ 458948.643898772366811, 5329424.290040776133537 ], [ 458956.30517337290803, 5329435.983565165661275 ], [ 458956.708398351911455, 5329445.257739682681859 ], [ 458958.071294722380117, 5329458.205255202017725 ], [ 458991.113287118554581, 5329461.16566492523998 ], [ 458980.876283724152017, 5329427.895403892733157 ], [ 458960.828818743291777, 5329365.620299910195172 ], [ 458954.004149813670665, 5329367.326467142440379 ] ] ] ] } },
{ "type": "Feature", "properties": { "id": 1, "id_2": 1 }, "geometry": { "type": "MultiPolygon", "coordinates": [ [ [ [ 458967.653487672971096, 5329459.886039501056075 ], [ 458958.152317159634549, 5329458.974968356080353 ], [ 458958.321298267808743, 5329460.580288883298635 ], [ 458957.514848309860099, 5329489.209262390621006 ], [ 458955.901948393962812, 5329506.547936487011611 ], [ 458946.627773877466097, 5329510.580186276696622 ], [ 458926.466524928633589, 5329487.596362475305796 ], [ 458919.126324126089457, 5329455.232749845832586 ], [ 458843.103279707080219, 5329447.942868873476982 ], [ 458733.482035024790093, 5329445.810159833170474 ], [ 458709.169151962967589, 5329442.824367176741362 ], [ 458708.74261015484808, 5329444.95707621704787 ], [ 458712.15494461968774, 5329476.094628208316863 ], [ 458704.050650265766308, 5329491.450133300386369 ], [ 458688.695145174046047, 5329521.308059867471457 ], [ 458718.979613549192436, 5329539.222815807908773 ], [ 458962.961527783831116, 5329549.033277394250035 ], [ 458978.743574683612678, 5329525.573477948084474 ], [ 458993.67253796721343, 5329487.184715219773352 ], [ 458990.26020350237377, 5329460.312581309117377 ], [ 458967.653487672971096, 5329459.886039501056075 ] ] ] ] } },
{ "type": "Feature", "properties": { "id": 1, "id_2": 1 }, "geometry": { "type": "MultiPolygon", "coordinates": [ [ [ [ 458678.031599971407559, 5329541.355524848215282 ], [ 458654.571800525765866, 5329568.227658758871257 ], [ 458643.481713515124284, 5329597.232501709833741 ], [ 458670.353847425547428, 5329603.630628830753267 ], [ 458837.984778009762522, 5329634.768180822953582 ], [ 458855.046450333844405, 5329642.872475176118314 ], [ 458864.003828304004855, 5329634.768180822953582 ], [ 458871.622495739895385, 5329634.928573821671307 ], [ 458880.952505420835223, 5329617.434805669821799 ], [ 458916.138536719721742, 5329594.862634647637606 ], [ 458916.895012508670334, 5329590.407832779921591 ], [ 458920.307346973509993, 5329581.450454809702933 ], [ 458940.354811954312027, 5329572.493076839484274 ], [ 458949.738731732533779, 5329568.654200566932559 ], [ 458958.69610970269423, 5329559.270280788652599 ], [ 458963.814611399895512, 5329549.033277394250035 ], [ 458809.833018674980849, 5329542.208608464337885 ], [ 458719.406155357311945, 5329539.649357615970075 ], [ 458688.695145173929632, 5329520.881518059410155 ], [ 458678.031599971407559, 5329541.355524848215282 ] ] ] ] } },
{ "type": "Feature", "properties": { "id": 1, "id_2": 1 }, "geometry": { "type": "MultiPolygon", "coordinates": [ [ [ [ 458836.705152585462201, 5329634.341639013960958 ], [ 458817.510771220840979, 5329631.355846357531846 ], [ 458669.500763809366617, 5329604.48371244687587 ], [ 458643.481713515124284, 5329596.379418093711138 ], [ 458627.273124807223212, 5329626.237344660796225 ], [ 458612.344161523622461, 5329656.521813035942614 ], [ 458608.931827058841009, 5329680.834696097299457 ], [ 458820.07002206944162, 5329710.692622664384544 ], [ 458832.439734504441731, 5329699.175993845798075 ], [ 458837.984778009762522, 5329678.275445248931646 ], [ 458850.354490444704425, 5329655.668729419820011 ], [ 458854.193366717605386, 5329642.019391559995711 ], [ 458836.705152585462201, 5329634.341639013960958 ] ] ] ] } },
{ "type": "Feature", "properties": { "id": 1, "id_2": 1 }, "geometry": { "type": "MultiPolygon", "coordinates": [ [ [ [ 458608.931827058841009, 5329679.981612481176853 ], [ 458603.386783553520218, 5329706.000662774778903 ], [ 458594.429405583359767, 5329777.65968653652817 ], [ 458794.477513583318796, 5329786.190522698685527 ], [ 458796.183680815738626, 5329770.83501760661602 ], [ 458809.406476866919547, 5329736.711672957986593 ], [ 458821.77618930186145, 5329710.692622664384544 ], [ 458608.931827058841009, 5329679.981612481176853 ] ] ] ] } },
{ "type": "Feature", "properties": { "id": 1, "id_2": 1 }, "geometry": { "type": "MultiPolygon", "coordinates": [ [ [ [ 458594.855947391421068, 5329776.806602920405567 ], [ 458594.465939311427064, 5329800.207087722606957 ], [ 458594.735098343051504, 5329803.638865375891328 ], [ 458609.78491067502182, 5329864.674215389415622 ], [ 458618.315746837062761, 5329874.484676975756884 ], [ 458644.761338939424604, 5329871.498884318396449 ], [ 458663.529178495926317, 5329885.574763986282051 ], [ 458684.85626890102867, 5329886.001305794343352 ], [ 458699.785232184629422, 5329873.63159335963428 ], [ 458798.316389856219757, 5329861.261880923993886 ], [ 458797.036764431919437, 5329842.494041367433965 ], [ 458793.624429967137985, 5329823.726201810874045 ], [ 458796.183680815738626, 5329785.763980890624225 ], [ 458594.855947391421068, 5329776.806602920405567 ] ] ] ] } },
{ "type": "Feature", "properties": { "id": 1, "id_2": 1 }, "geometry": { "type": "MultiPolygon", "coordinates": [ [ [ [ 458701.064857608929742, 5329873.63159335963428 ], [ 458685.28281070914818, 5329885.148222178220749 ], [ 458698.505606760329101, 5329890.266723875887692 ], [ 458698.505606760329101, 5329905.622228967025876 ], [ 458692.960563254950102, 5329940.598657231777906 ], [ 458692.960563254950102, 5329958.513413172215223 ], [ 458693.813646871189121, 5330003.726844830438495 ], [ 458715.567279084410984, 5330005.433012062683702 ], [ 458783.387426572677214, 5330004.153386638499796 ], [ 458807.700309634499718, 5329998.608343133702874 ], [ 458795.330597199499607, 5329969.176958374679089 ], [ 458799.169473472458776, 5329935.480155534110963 ], [ 458804.714516977779567, 5329918.845025018788874 ], [ 458797.036764431919437, 5329860.408797308802605 ], [ 458701.064857608929742, 5329873.63159335963428 ] ] ] ] } },
{ "type": "Feature", "properties": { "id": 1, "id_2": 1 }, "geometry": { "type": "MultiPolygon", "coordinates": [ [ [ [ 458784.667051996977534, 5330004.153386638499796 ], [ 458713.861111851991154, 5330005.433012063615024 ], [ 458692.534021446888801, 5330004.153386638499796 ], [ 458690.828241137205623, 5330008.495372881181538 ], [ 458689.017415431910194, 5330074.288706841878593 ], [ 458676.102900707453955, 5330088.778162386268377 ], [ 458675.472349122806918, 5330092.020999107509851 ], [ 458691.680937830649782, 5330099.272209845483303 ], [ 458840.970570666482672, 5330096.712958997115493 ], [ 458839.690945242182352, 5330085.622871986590326 ], [ 458832.866276312503032, 5330066.001948813907802 ], [ 458833.17331490694778, 5330056.48375238571316 ], [ 458823.334718762256671, 5330022.495874795131385 ], [ 458821.77618930186145, 5330019.935433538630605 ], [ 458807.700309634499718, 5329996.902175901457667 ], [ 458784.667051996977534, 5330004.153386638499796 ] ] ] ] } },
{ "type": "Feature", "properties": { "id": 1, "id_2": 1 }, "geometry": { "type": "MultiPolygon", "coordinates": [ [ [ [ 458693.387105063069612, 5330100.551835269667208 ], [ 458674.559099337551743, 5330090.510232215747237 ], [ 458673.367828657792415, 5330091.846779808402061 ], [ 458665.235345728346147, 5330106.949962391518056 ], [ 458654.998342333885375, 5330129.556678220629692 ], [ 458642.202088090823963, 5330162.826939253136516 ], [ 458634.524335544963833, 5330182.874404233880341 ], [ 458634.950877353083342, 5330209.746538144536316 ], [ 458848.648323212284595, 5330209.746538144536316 ], [ 458849.501406828523614, 5330194.39103305246681 ], [ 458849.927948636643123, 5330172.637400839477777 ], [ 458849.074865020404104, 5330135.101721726357937 ], [ 458840.544028858363163, 5330095.859875380992889 ], [ 458693.387105063069612, 5330100.551835269667208 ] ] ] ] } },
{ "type": "Feature", "properties": { "id": 1, "id_2": 1 }, "geometry": { "type": "MultiPolygon", "coordinates": [ [ [ [ 458635.377419161144644, 5330209.746538143604994 ], [ 458637.510128201683983, 5330222.969334194436669 ], [ 458637.510128201683983, 5330243.869882791303098 ], [ 458636.657044585444964, 5330259.651929691433907 ], [ 458626.846582999103703, 5330286.09752179402858 ], [ 458619.16883045330178, 5330305.718444966711104 ], [ 458835.425527161103673, 5330308.277695815078914 ], [ 458840.117487050243653, 5330283.964812752790749 ], [ 458844.382905131264124, 5330243.869882791303098 ], [ 458849.501406828523614, 5330208.89345452748239 ], [ 458635.377419161144644, 5330209.746538143604994 ] ] ] ] } },
{ "type": "Feature", "properties": { "id": 1, "id_2": 1 }, "geometry": { "type": "MultiPolygon", "coordinates": [ [ [ [ 458619.16883045330178, 5330305.718444966711104 ], [ 458617.889205028943252, 5330308.277695815078914 ], [ 458604.239867169701029, 5330333.870204301550984 ], [ 458583.339318572659977, 5330368.42009075731039 ], [ 458698.932148568390403, 5330443.491448983550072 ], [ 458707.462984730431344, 5330441.358739943243563 ], [ 458732.202409600373358, 5330442.211823559366167 ], [ 458754.38258362171473, 5330431.974820164963603 ], [ 458761.207252551335841, 5330415.339689648710191 ], [ 458766.325754248537123, 5330395.718766476027668 ], [ 458776.989299451117404, 5330384.628679465502501 ], [ 458797.463306240038946, 5330391.45334839541465 ], [ 458817.510771220840979, 5330397.424933708272874 ], [ 458825.18852376670111, 5330382.495970425195992 ], [ 458832.013192696322221, 5330351.784960241056979 ], [ 458823.908898342342582, 5330333.870204301550984 ], [ 458835.425527161103673, 5330308.277695815078914 ], [ 458619.16883045330178, 5330305.718444966711104 ] ] ] ] } },
{ "type": "Feature", "properties": { "id": 1, "id_2": 1 }, "geometry": { "type": "MultiPolygon", "coordinates": [ [ [ [ 458585.472027613199316, 5330366.287381716072559 ], [ 458579.500442299759015, 5330370.552799797616899 ], [ 458568.410355289117433, 5330387.61447212100029 ], [ 458550.495599348796532, 5330401.26380998082459 ], [ 458518.078421933052596, 5330416.619315071962774 ], [ 458490.779746214509942, 5330434.534071012400091 ], [ 458472.011906658008229, 5330456.714245034381747 ], [ 458573.71347906452138, 5330528.889554483816028 ], [ 458580.146671110473108, 5330520.255533579736948 ], [ 458589.420845626736991, 5330502.110409526154399 ], [ 458598.695020143059082, 5330512.594258979894221 ], [ 458595.380518544174265, 5330544.266163147054613 ], [ 458598.934141241945326, 5330546.7880889326334 ], [ 458614.4207943227957, 5330544.852257297374308 ], [ 458624.745457076118328, 5330532.189935052767396 ], [ 458622.15462311002193, 5330513.017763703130186 ], [ 458634.097793736844324, 5330499.368425844237208 ], [ 458661.396469455386978, 5330466.098164811730385 ], [ 458701.491399416991044, 5330443.917990790680051 ], [ 458585.472027613199316, 5330366.287381716072559 ] ] ] ] } },
{ "type": "Feature", "properties": { "id": 1, "id_2": 1 }, "geometry": { "type": "MultiPolygon", "coordinates": [ [ [ [ 458595.523229577112943, 5330542.902479942888021 ], [ 458595.065995332319289, 5330547.271607170812786 ], [ 458600.838973275967874, 5330546.54998492822051 ], [ 458595.523229577112943, 5330542.902479942888021 ] ] ], [ [ [ 458471.15882304176921, 5330457.567328650504351 ], [ 458460.921819647308439, 5330465.245081195607781 ], [ 458438.741645626025274, 5330485.719087985344231 ], [ 458413.541338067385368, 5330509.344376320950687 ], [ 458394.667167612351477, 5330538.264476211741567 ], [ 458372.201123562059365, 5330576.9990349188447 ], [ 458347.461698692117352, 5330628.184051890857518 ], [ 458376.466541643079836, 5330649.511142295785248 ], [ 458478.806820034689736, 5330651.675438213162124 ], [ 458487.380677297362126, 5330638.733766873367131 ], [ 458487.757747802475933, 5330636.384327572770417 ], [ 458494.814184744667728, 5330627.513378273695707 ], [ 458497.485550421872176, 5330623.481128195300698 ], [ 458515.2274494964513, 5330590.819904899224639 ], [ 458527.727423844509758, 5330558.561906581744552 ], [ 458523.695174054824747, 5330521.061983537860215 ], [ 458541.03384815051686, 5330515.41683383192867 ], [ 458545.066097940201871, 5330520.255533579736948 ], [ 458545.066097940201871, 5330540.416782528162003 ], [ 458564.824121909681708, 5330540.820007507689297 ], [ 458574.182979239150882, 5330528.259435827843845 ], [ 458471.15882304176921, 5330457.567328650504351 ] ] ] ] } },
{ "type": "Feature", "properties": { "id": 1, "id_2": 1 }, "geometry": { "type": "MultiPolygon", "coordinates": [ [ [ [ 458373.907290794479195, 5330650.364225912839174 ], [ 458348.314782308356371, 5330628.184051890857518 ], [ 458350.020949540776201, 5330635.008720820769668 ], [ 458355.992534854158293, 5330658.041978458873928 ], [ 458349.167865924537182, 5330690.459155874326825 ], [ 458363.670287400018424, 5330705.814660965465009 ], [ 458355.992534854158293, 5330726.288667755201459 ], [ 458352.580200389376841, 5330763.824346867389977 ], [ 458358.551785702817142, 5330815.862447456456721 ], [ 458367.082621864858083, 5330815.862447456456721 ], [ 458478.836575587629341, 5330811.597029374912381 ], [ 458569.574624885048252, 5330809.693433935754001 ], [ 458555.953172372304834, 5330805.738818689249456 ], [ 458516.033899454399943, 5330785.980794719420373 ], [ 458494.196890195133165, 5330745.629799349233508 ], [ 458493.402897508232854, 5330744.851846918463707 ], [ 458493.047248524148017, 5330743.505461478605866 ], [ 458478.937201389286201, 5330717.432548294775188 ], [ 458476.114626536495052, 5330655.739126512780786 ], [ 458478.845390825532377, 5330651.617218151688576 ], [ 458373.907290794479195, 5330650.364225912839174 ] ] ] ] } },
{ "type": "Feature", "properties": { "id": 1, "id_2": 1 }, "geometry": { "type": "MultiPolygon", "coordinates": [ [ [ [ 458355.992534854158293, 5330816.715531072579324 ], [ 458355.455512763524894, 5330830.141083338297904 ], [ 458364.018082383263391, 5330840.416166882030666 ], [ 458366.921685254084878, 5330843.130404348485172 ], [ 458392.675130350980908, 5330854.251210185699165 ], [ 458422.533056918124203, 5330893.493056531064212 ], [ 458483.955077284772415, 5330909.701645235531032 ], [ 458799.596015280520078, 5330926.763317562639713 ], [ 458843.103279706963804, 5330918.232481401413679 ], [ 458820.07002206944162, 5330903.730059925466776 ], [ 458782.534342956438195, 5330878.137551438994706 ], [ 458768.885005097137764, 5330866.194380812346935 ], [ 458767.740930490777828, 5330865.226317684166133 ], [ 458672.888416273111943, 5330846.867766545154154 ], [ 458580.953121068305336, 5330812.996868311427534 ], [ 458571.242216550221201, 5330810.17757345084101 ], [ 458355.992534854158293, 5330816.715531072579324 ] ] ] ] } },
{ "type": "Feature", "properties": { "id": 1, "id_2": 1 }, "geometry": { "type": "MultiPolygon", "coordinates": [ [ [ [ 458460.06873603106942, 5330971.123665602877736 ], [ 458475.424241122731473, 5331008.659344715997577 ], [ 458480.542742819932755, 5331018.89634811040014 ], [ 458470.305739425530192, 5331056.432027223519981 ], [ 458574.381940602441318, 5331051.313525525853038 ], [ 458701.152046149480157, 5331058.770590557716787 ], [ 458702.27343661733903, 5330994.851333891041577 ], [ 458689.370237290044315, 5330941.625636666081846 ], [ 458578.886593050381634, 5330919.851487801410258 ], [ 458658.725138887821231, 5330920.657937758602202 ], [ 458750.660434094548691, 5330957.754635824821889 ], [ 458811.144180941104423, 5330976.302984857931733 ], [ 458920.223567556065973, 5331071.657150640152395 ], [ 458951.444898964895401, 5331073.493699546903372 ], [ 458983.862076380639337, 5331075.199866780079901 ], [ 458985.568243613059167, 5331058.138194455765188 ], [ 458978.743574683438055, 5331039.370354899205267 ], [ 458962.881605559203308, 5331016.370499668642879 ], [ 458907.512982879416086, 5330962.606764603406191 ], [ 458886.610544133349322, 5330947.237324348650873 ], [ 458840.544028858304955, 5330919.938648630864918 ], [ 458794.477513583260588, 5330928.469484792090952 ], [ 458639.216295433987398, 5330918.232481397688389 ], [ 458489.073578982031904, 5330909.701645235531032 ], [ 458427.651558615267277, 5330890.933805679902434 ], [ 458460.06873603106942, 5330971.123665602877736 ] ] ] ] } },
{ "type": "Feature", "properties": { "id": 1, "id_2": 1 }, "geometry": { "type": "MultiPolygon", "coordinates": [ [ [ [ 458914.690838769252878, 5331066.820593025535345 ], [ 458932.918124592164531, 5331082.754379307851195 ], [ 458942.595524087606464, 5331141.625226238742471 ], [ 458936.143924423959106, 5331185.979973926208913 ], [ 458872.69659097539261, 5331240.886320179328322 ], [ 459016.279253796441481, 5331264.584429576992989 ], [ 459023.103922726062592, 5331254.347426182590425 ], [ 459033.340926120523363, 5331211.693245372734964 ], [ 459031.634758888103534, 5331169.03906456194818 ], [ 459033.821148549905047, 5331137.336414465680718 ], [ 459031.547103934630286, 5331110.372742598876357 ], [ 459026.558389361714944, 5331097.277366844937205 ], [ 459015.204994851839729, 5331081.666449394077063 ], [ 458980.449741915799677, 5331070.081365082412958 ], [ 458914.690838769252878, 5331066.820593025535345 ] ] ], [ [ [ 458567.557271672820207, 5331049.607358293607831 ], [ 458475.424241122731473, 5331058.138194455765188 ], [ 458475.424241122731473, 5331163.92056286521256 ], [ 458414.002220756025054, 5331215.105579837225378 ], [ 458487.367411749612074, 5331225.342583231627941 ], [ 458639.189845778164454, 5331229.74323349352926 ], [ 458686.950887416198384, 5331175.496124472469091 ], [ 458700.660536701441742, 5331086.786629097536206 ], [ 458701.196545998449437, 5331056.234099169261754 ], [ 458567.557271672820207, 5331049.607358293607831 ] ] ] ] } },
{ "type": "Feature", "properties": { "id": 1, "id_2": 1 }, "geometry": { "type": "MultiPolygon", "coordinates": [ [ [ [ 458925.852390478714369, 5331249.228924485854805 ], [ 458874.05085898708785, 5331239.714357476681471 ], [ 458852.273128796776291, 5331258.560470141470432 ], [ 458786.144232244521845, 5331290.012018501758575 ], [ 458615.908040612586774, 5331318.878155344165862 ], [ 458655.952967156481463, 5331355.737690003588796 ], [ 458616.43691921752179, 5331367.834439372643828 ], [ 458606.727350696572103, 5331379.881496611051261 ], [ 458661.39646945532877, 5331384.016135845333338 ], [ 458722.81848982203519, 5331401.077808169648051 ], [ 458756.941834470257163, 5331378.897634148597717 ], [ 458809.833018674922641, 5331353.305125662125647 ], [ 458832.506118761491962, 5331356.54413996078074 ], [ 458836.752462846518029, 5331356.54413996078074 ], [ 458893.435213062970433, 5331353.305125662125647 ], [ 458948.032564500055742, 5331336.243453337810934 ], [ 458995.638844248198438, 5331304.505933506414294 ], [ 459011.100602330639958, 5331282.172282942570746 ], [ 459019.691588261222932, 5331261.172095112502575 ], [ 458925.852390478714369, 5331249.228924485854805 ] ] ], [ [ [ 458478.836575587571133, 5331223.636415999382734 ], [ 458437.888562009728048, 5331215.105579837225378 ], [ 458410.589886291185394, 5331208.280910907313228 ], [ 458407.177551826345734, 5331211.693245372734964 ], [ 458390.115879502263851, 5331209.987078139558434 ], [ 458352.580200389260426, 5331208.280910907313228 ], [ 458303.101350649434607, 5331206.574743675068021 ], [ 458262.153337071591523, 5331227.048750463873148 ], [ 458231.442326888209209, 5331269.702931274659932 ], [ 458207.555985634506214, 5331317.475613782182336 ], [ 458209.262152866926044, 5331353.305125662125647 ], [ 458255.328668141970411, 5331353.305125662125647 ], [ 458379.59017848741496, 5331362.703055015765131 ], [ 458402.727680364216212, 5331346.06029050797224 ], [ 458503.533925106341485, 5331285.576543662697077 ], [ 458569.153975586057641, 5331289.474764483049512 ], [ 458586.144642671977635, 5331261.786269973032176 ], [ 458621.62844082195079, 5331249.689520603977144 ], [ 458639.931418513064273, 5331228.900953349657357 ], [ 458478.836575587571133, 5331223.636415999382734 ] ] ] ] } },
{ "type": "Feature", "properties": { "id": 1, "id_2": 1 }, "geometry": { "type": "MultiPolygon", "coordinates": [ [ [ [ 458714.287653659994248, 5331390.840804775245488 ], [ 458656.277967758127488, 5331378.897634148597717 ], [ 458609.262523423880339, 5331376.736004523932934 ], [ 458572.888621488935314, 5331421.866586553864181 ], [ 458517.243574391293805, 5331507.350282095372677 ], [ 458482.098110948922113, 5331572.955147188156843 ], [ 458555.614101045939606, 5331573.400698643177748 ], [ 458598.26828185620252, 5331566.576029713265598 ], [ 458603.386783553403802, 5331549.514357388950884 ], [ 458630.076615849800874, 5331526.160754130221903 ], [ 458639.017518039734568, 5331482.350333399139345 ], [ 458693.856115179485641, 5331440.414935586974025 ], [ 458707.079704277624842, 5331429.670769444666803 ], [ 458724.52465705445502, 5331399.371640937402844 ], [ 458714.287653659994248, 5331390.840804775245488 ] ] ], [ [ [ 458284.333511092932895, 5331356.717460127547383 ], [ 458210.968320099345874, 5331349.892791197635233 ], [ 458212.674487331707496, 5331366.954463521949947 ], [ 458193.906647775205784, 5331414.727146029472351 ], [ 458176.844975451123901, 5331450.556657909415662 ], [ 458154.664801429840736, 5331491.504671487025917 ], [ 458149.546299732581247, 5331506.860176579095423 ], [ 458173.432640986342449, 5331549.514357388950884 ], [ 458231.442326888209209, 5331573.400698643177748 ], [ 458274.096507698472124, 5331571.694531410932541 ], [ 458308.75359642872354, 5331571.904574372805655 ], [ 458293.050486084830482, 5331526.705081085674465 ], [ 458277.727936883980874, 5331466.221334240399301 ], [ 458310.792385159409605, 5331412.189187059178948 ], [ 458378.881097362318542, 5331363.21309582516551 ], [ 458284.333511092932895, 5331356.717460127547383 ] ] ] ] } },
{ "type": "Feature", "properties": { "id": 1, "id_2": 1 }, "geometry": { "type": "MultiPolygon", "coordinates": [ [ [ [ 458483.088421763735823, 5331571.106567 ], [ 458468.856576915073674, 5331597.67267738468945 ], [ 458454.340477672230918, 5331657.349974271841347 ], [ 458422.888929312641267, 5331722.672420864924788 ], [ 458414.017979775380809, 5331795.252917079254985 ], [ 458393.856730826955754, 5331801.704516742378473 ], [ 458347.889083224523347, 5331800.898066784255207 ], [ 458326.114934360201005, 5331775.09166813082993 ], [ 458352.727782972157001, 5331698.478922126814723 ], [ 458309.428971135348547, 5331573.848558326251805 ], [ 458229.736159655789379, 5331575.106865875422955 ], [ 458233.148494120629039, 5331597.287039897404611 ], [ 458253.622500909492373, 5331646.765889637172222 ], [ 458243.38549751508981, 5331704.77557553909719 ], [ 458229.736159655789379, 5331832.738117969594896 ], [ 458304.80751788179623, 5331846.387455828487873 ], [ 458414.002220755966846, 5331877.098466012626886 ], [ 458432.466093355789781, 5331846.325345012359321 ], [ 458453.534027714282274, 5331807.34966644924134 ], [ 458535.021227315650322, 5331634.517944713123143 ], [ 458553.907933813519776, 5331569.988364178687334 ], [ 458483.088421763735823, 5331571.106567 ] ] ] ] } },
{ "type": "Feature", "properties": { "id": 1, "id_2": 1 }, "geometry": { "type": "MultiPolygon", "coordinates": [ [ [ [ 458308.219852346635889, 5331848.093623061664402 ], [ 458233.148494120629039, 5331832.738117969594896 ], [ 458205.849818402086385, 5331839.562786899507046 ], [ 458171.726473753864411, 5331861.74296092055738 ], [ 458132.484627408499364, 5331892.45397110376507 ], [ 458098.36128276027739, 5331919.752646822482347 ], [ 458045.470098555611912, 5331938.520486379042268 ], [ 457990.250517252308782, 5331962.018180550076067 ], [ 457986.599502068653237, 5331969.446107992902398 ], [ 457965.324539261055179, 5331972.669587206095457 ], [ 458038.645429625990801, 5332015.298011837527156 ], [ 458177.343932193121873, 5332079.693745172582567 ], [ 458199.502290964126587, 5332064.607203030027449 ], [ 458239.824788860976696, 5332008.962155933491886 ], [ 458266.437637472874485, 5332002.510556270368397 ], [ 458300.30853570625186, 5332000.897656354121864 ], [ 458326.114934360201005, 5332016.220205554738641 ], [ 458336.598783813416958, 5332033.962104629725218 ], [ 458357.298043700226117, 5332054.661364516243339 ], [ 458362.334774486720562, 5332054.545577601529658 ], [ 458377.889801867248025, 5332035.979899760335684 ], [ 458373.054207178181969, 5332025.535015231929719 ], [ 458362.817203783721197, 5331970.937663794495165 ], [ 458412.296053523547016, 5331877.098466012626886 ], [ 458308.219852346635889, 5331848.093623061664402 ] ] ] ] } },
{ "type": "Feature", "properties": { "id": 1, "id_2": 1 }, "geometry": { "type": "MultiPolygon", "coordinates": [ [ [ [ 458033.526927928731311, 5332017.004179069772363 ], [ 457966.986405864765402, 5331974.349998259916902 ], [ 457946.512399075902067, 5331987.999336118809879 ], [ 457919.161802575632464, 5331998.075871671549976 ], [ 457885.633511022198945, 5332045.225031668320298 ], [ 457871.441040849895217, 5332083.544701133854687 ], [ 457868.028706385055557, 5332126.198881943710148 ], [ 457874.853375314676668, 5332177.383898916654289 ], [ 457898.739716568437871, 5332177.383898916654289 ], [ 458070.969822150131222, 5332246.117931878194213 ], [ 457993.051101732242387, 5332200.897245921194553 ], [ 457985.913778202841058, 5332181.269606214947999 ], [ 457977.274924414989073, 5332174.687622376717627 ], [ 457977.274924414989073, 5332157.512758298777044 ], [ 457973.696302741765976, 5332147.671548697166145 ], [ 457977.274924414989073, 5332129.380815700627863 ], [ 457977.274924414989073, 5332118.236125320196152 ], [ 457981.968870363547467, 5332105.3895364087075 ], [ 457988.212401984608732, 5332073.478152567520738 ], [ 458001.236991175101139, 5332068.89542674086988 ], [ 458003.887773027585354, 5332066.623328010551631 ], [ 458011.461435463977978, 5332065.297937083989382 ], [ 458031.760699713195208, 5332058.155603366903961 ], [ 458055.296836291381624, 5332060.180217266082764 ], [ 458055.500570336938836, 5332060.171728347428143 ], [ 458055.579937884351239, 5332060.204570091329515 ], [ 458106.760545801371336, 5332064.607203030027449 ], [ 458119.636788662988693, 5332087.945393216796219 ], [ 458136.952016090683173, 5332098.881326328963041 ], [ 458157.113265039632097, 5332120.655475193634629 ], [ 458158.281227047613356, 5332122.490844063460827 ], [ 458169.341978978423867, 5332116.96046809758991 ], [ 458161.599142941064201, 5332090.413601684384048 ], [ 458177.314936632697936, 5332079.713486830703914 ], [ 458033.526927928731311, 5332017.004179069772363 ] ] ] ] } },
{ "type": "Feature", "properties": { "id": 1, "id_2": 1 }, "geometry": { "type": "MultiPolygon", "coordinates": [ [ [ [ 457900.019341992621776, 5332176.530815299600363 ], [ 457875.279917122679763, 5332180.79623338021338 ], [ 457885.516920517140534, 5332208.094909098930657 ], [ 457911.109429003321566, 5332262.692260536365211 ], [ 457935.25147440971341, 5332291.955345877446234 ], [ 457939.018954550498165, 5332295.251891000196338 ], [ 457962.406003330659587, 5332361.380787551403046 ], [ 457980.146487352438271, 5332376.863391788676381 ], [ 457992.152372542710509, 5332379.56471595633775 ], [ 458072.342232465976849, 5332422.218896766193211 ], [ 458071.48914884973783, 5332459.754575879313052 ], [ 458074.048399698396679, 5332493.024836911819875 ], [ 458194.333189583208878, 5332524.588930711150169 ], [ 458200.304774896649178, 5332489.612502446398139 ], [ 458209.688694674870931, 5332451.223739717155695 ], [ 458212.707983384141698, 5332451.223739717155695 ], [ 458214.018390206969343, 5332440.41288342885673 ], [ 458213.505000313161872, 5332432.904556231573224 ], [ 458212.002265312126838, 5332425.090334226377308 ], [ 458207.566790543496609, 5332397.267810678109527 ], [ 458201.115190879965667, 5332361.380787549540401 ], [ 458204.622663354617544, 5332344.344492672942579 ], [ 458153.534643361694179, 5332314.606689990498126 ], [ 458083.373497021151707, 5332253.316493187099695 ], [ 458077.880156131170224, 5332250.128393563441932 ], [ 457900.019341992621776, 5332176.530815299600363 ] ] ] ] } }
]
}
